{"type":"FeatureCollection","features":[{"type":"Feature","properties":{"n":"AERODROMO PELDEHUE","d":"","l":"AERODROMOS.kmz","c":"AERODROMO"},"geometry":{"type":"Point","coordinates":[-70.68399977009557,-33.11712994459283,0.0]}},{"type":"Feature","properties":{"n":"Aerodromo desconocido cerca SCCY","d":"","l":"Pistas chicas","c":"AERODROMO"},"geometry":{"type":"Point","coordinates":[-72.10622832460538,-45.51523097425669,0.0]}},{"type":"Feature","properties":{"n":"Aerodromo Trilahue (PVT) (SCYB)","d":"","l":"AERÓDROMOS","c":"AERODROMO"},"geometry":{"type":"Point","coordinates":[-72.41388888888889,-37.13333333333333,0.0]}},{"type":"Feature","properties":{"n":"SCZC Ad. Casas Viejas","d":"","l":"AERÓDROMOS","c":"AERODROMO"},"geometry":{"type":"Point","coordinates":[-71.3478551748602,-32.59561877070554,0.0]}},{"type":"Feature","properties":{"n":"SCZA Ad. La Empastada","d":"","l":"AERÓDROMOS","c":"AERODROMO"},"geometry":{"type":"Point","coordinates":[-71.37871287570626,-32.59136060622133,0.0]}},{"type":"Feature","properties":{"n":"SCOH Ad Villa O`higgins O`HIGGINS","d":"","l":"AERÓDROMOS","c":"AERODROMO"},"geometry":{"type":"Point","coordinates":[-72.56416666666667,-48.46833333333333,0.0]}},{"type":"Feature","properties":{"n":"SCJO Ad. Cañal Bajo OSORNO","d":"","l":"AERÓDROMOS","c":"AERODROMO"},"geometry":{"type":"Point","coordinates":[-73.06055555555555,-40.61138888888889,0.0]}},{"type":"Feature","properties":{"n":"SCOV Ad El Tuqui OVALLE","d":"","l":"AERÓDROMOS","c":"AERODROMO"},"geometry":{"type":"Point","coordinates":[-71.17611111111111,-30.55944444444445,0.0]}},{"type":"Feature","properties":{"n":"SCEY Ad Entrada Mayer O`HIGGINS","d":"","l":"AERÓDROMOS","c":"AERODROMO"},"geometry":{"type":"Point","coordinates":[-72.3275,-48.20166666666667,0.0]}},{"type":"Feature","properties":{"n":"SCAH Ad Tolquién ACHAO","d":"","l":"AERÓDROMOS","c":"AERODROMO"},"geometry":{"type":"Point","coordinates":[-73.52472222222222,-42.44944444444444,0.0]}},{"type":"Feature","properties":{"n":"Aerodromo Chicureo","d":"","l":"AERÓDROMOS","c":"AERODROMO"},"geometry":{"type":"Point","coordinates":[-70.6491907,-33.2695413,0.0]}},{"type":"Feature","properties":{"n":"Ad San Geronimo ULM","d":"","l":"AERÓDROMOS","c":"AERODROMO"},"geometry":{"type":"Point","coordinates":[-71.6261111111111,-33.35333333333333,0.0]}},{"type":"Feature","properties":{"n":"Ad. de Vitacura (Las Condes)","d":"","l":"AERÓDROMOS","c":"AERODROMO"},"geometry":{"type":"Point","coordinates":[-70.57929064064952,-33.38022342881392,0.0]}},{"type":"Feature","properties":{"n":"Aeródromo Villarrica","d":"","l":"AERÓDROMOS","c":"AERODROMO"},"geometry":{"type":"Point","coordinates":[-72.22665416432139,-39.32053912385948,0.0]}},{"type":"Feature","properties":{"n":"Ad. La Victoria de Chacabuco","d":"","l":"AERÓDROMOS","c":"AERODROMO"},"geometry":{"type":"Point","coordinates":[-70.70785756115863,-33.04965216531132,0.0]}},{"type":"Feature","properties":{"n":"SCAC Ad Pupelde ANCUD","d":"","l":"AERÓDROMOS","c":"AERODROMO"},"geometry":{"type":"Point","coordinates":[-73.7975,-41.90388888888889,0.0]}},{"type":"Feature","properties":{"n":"SCGO Ad Los Confines ANGOL","d":"","l":"AERÓDROMOS","c":"AERODROMO"},"geometry":{"type":"Point","coordinates":[-72.68722222222223,-37.79472222222222,0.0]}},{"type":"Feature","properties":{"n":"SCGC Ad Union Glaciar ANTARTICA","d":"","l":"AERÓDROMOS","c":"AERODROMO"},"geometry":{"type":"Point","coordinates":[-83.32083333333333,-79.77777777777777,0.0]}},{"type":"Feature","properties":{"n":"SCAY Ad Ayacara AYACARA","d":"","l":"AERÓDROMOS","c":"AERODROMO"},"geometry":{"type":"Point","coordinates":[-72.79027777777777,-42.31083333333333,0.0]}},{"type":"Feature","properties":{"n":"SCFA Ap Andrés Sabella Gálvez ANTOFAGASTA","d":"","l":"AERÓDROMOS","c":"AERODROMO"},"geometry":{"type":"Point","coordinates":[-70.44500000000001,-23.44444444444445,0.0]}},{"type":"Feature","properties":{"n":"SCIH Ad Caleta Andrade AYSEN","d":"","l":"AERÓDROMOS","c":"AERODROMO"},"geometry":{"type":"Point","coordinates":[-73.51333333333334,-45.14777777777779,0.0]}},{"type":"Feature","properties":{"n":"Ad. de la Independencia","d":"","l":"AERÓDROMOS","c":"AERODROMO"},"geometry":{"type":"Point","coordinates":[-70.777496,-34.173054,0.0]}},{"type":"Feature","properties":{"n":"SCAR Ap Chacalluta ARICA","d":"","l":"AERÓDROMOS","c":"AERODROMO"},"geometry":{"type":"Point","coordinates":[-70.3386111111111,-18.34861111111111,0.0]}},{"type":"Feature","properties":{"n":"SCBA Ad Balmaceda BALMACEDA","d":"","l":"AERÓDROMOS","c":"AERODROMO"},"geometry":{"type":"Point","coordinates":[-71.68694444444445,-45.91638888888889,0.0]}},{"type":"Feature","properties":{"n":"SCCF Ad El Loa CALAMA","d":"","l":"AERÓDROMOS","c":"AERODROMO"},"geometry":{"type":"Point","coordinates":[-68.90361111111112,-22.49833333333334,0.0]}},{"type":"Feature","properties":{"n":"SCEX Ad Río Exploradores AYSEN","d":"","l":"AERÓDROMOS","c":"AERODROMO"},"geometry":{"type":"Point","coordinates":[-73.32777777777777,-46.35361111111111,0.0]}},{"type":"Feature","properties":{"n":"SCCL Ad Caldera CALDERA","d":"","l":"AERÓDROMOS","c":"AERODROMO"},"geometry":{"type":"Point","coordinates":[-70.79527777777777,-27.07833333333333,0.0]}},{"type":"Feature","properties":{"n":"Aeropuerto Temuco (Maquehue)","d":"","l":"AERÓDROMOS","c":"AERODROMO"},"geometry":{"type":"Point","coordinates":[-72.637222,-38.766944,0.0]}},{"type":"Feature","properties":{"n":"SCAT Ad Desierto de Atacama CALDERA","d":"","l":"AERÓDROMOS","c":"AERODROMO"},"geometry":{"type":"Point","coordinates":[-70.77916666666667,-27.26166666666667,0.0]}},{"type":"Feature","properties":{"n":"SCNM Ad Las Misiones CAÑETE","d":"","l":"AERÓDROMOS","c":"AERODROMO"},"geometry":{"type":"Point","coordinates":[-73.38305555555554,-37.77472222222222,0.0]}},{"type":"Feature","properties":{"n":"SCST Ad Gamboa CASTRO","d":"","l":"AERÓDROMOS","c":"AERODROMO"},"geometry":{"type":"Point","coordinates":[-73.77431489443742,-42.49044767876907,0.0]}},{"type":"Feature","properties":{"n":"SCYO Ad Poyo CHAITEN","d":"","l":"AERÓDROMOS","c":"AERODROMO"},"geometry":{"type":"Point","coordinates":[-72.69361111111111,-42.22666666666667,0.0]}},{"type":"Feature","properties":{"n":"SCUI Ad Pumalín CHAITEN","d":"","l":"AERÓDROMOS","c":"AERODROMO"},"geometry":{"type":"Point","coordinates":[-72.83333333333333,-42.69583333333333,0.0]}},{"type":"Feature","properties":{"n":"SCCA Ad El Boldo CAUQUENES","d":"","l":"AERÓDROMOS","c":"AERODROMO"},"geometry":{"type":"Point","coordinates":[-72.22500000000001,-35.97138888888889,0.0]}},{"type":"Feature","properties":{"n":"SCCC Ad Chile Chico CHILE CHICO","d":"","l":"AERÓDROMOS","c":"AERODROMO"},"geometry":{"type":"Point","coordinates":[-71.6863888888889,-46.58277777777778,0.0]}},{"type":"Feature","properties":{"n":"SCCH Ad. Bdo O´Higgins CHILLÁN","d":"","l":"AERÓDROMOS","c":"AERODROMO"},"geometry":{"type":"Point","coordinates":[-72.03166666666667,-36.58277777777778,0.0]}},{"type":"Feature","properties":{"n":"SCOO Ad. Melimoyu CISNES","d":"","l":"AERÓDROMOS","c":"AERODROMO"},"geometry":{"type":"Point","coordinates":[-73.09694444444445,-44.0975,0.0]}},{"type":"Feature","properties":{"n":"SCFC Ad Fachinal CHILE CHICO","d":"","l":"AERÓDROMOS","c":"AERODROMO"},"geometry":{"type":"Point","coordinates":[-72.22,-46.535,0.0]}},{"type":"Feature","properties":{"n":"SCBI Ad Pampa Guanaco BAHÍA INUTIL","d":"","l":"AERÓDROMOS","c":"AERODROMO"},"geometry":{"type":"Point","coordinates":[-68.81623271223053,-54.0500785315835,0.0]}},{"type":"Feature","properties":{"n":"SCKM Ad Cochamó COCHAMÓ","d":"","l":"AERÓDROMOS","c":"AERODROMO"},"geometry":{"type":"Point","coordinates":[-72.30753415053859,-41.48274949197376,0.0]}},{"type":"Feature","properties":{"n":"SCQR Ad Los Morros COBQUECURA","d":"","l":"AERÓDROMOS","c":"AERODROMO"},"geometry":{"type":"Point","coordinates":[-72.80444910090866,-36.12544876720394,0.0]}},{"type":"Feature","properties":{"n":"SCHR Ad Cochrane COCHRANE","d":"","l":"AERÓDROMOS","c":"AERODROMO"},"geometry":{"type":"Point","coordinates":[-72.58472222222221,-47.24361111111112,0.0]}},{"type":"Feature","properties":{"n":"SCCB Ad Pedro Villarroel COMBARBALA","d":"","l":"AERÓDROMOS","c":"AERODROMO"},"geometry":{"type":"Point","coordinates":[-71.07027777777778,-31.22194444444444,0.0]}},{"type":"Feature","properties":{"n":"SCVS Ad Lago Vargas COCHRANE","d":"","l":"AERÓDROMOS","c":"AERODROMO"},"geometry":{"type":"Point","coordinates":[-73.06777777777778,-47.67722222222221,0.0]}},{"type":"Feature","properties":{"n":"SCIE Ad Carriel Sur CONCEPCIÓN","d":"","l":"AERÓDROMOS","c":"AERODROMO"},"geometry":{"type":"Point","coordinates":[-73.06305555555555,-36.77277777777778,0.0]}},{"type":"Feature","properties":{"n":"SCCK Ad Contao CONTAO","d":"","l":"AERÓDROMOS","c":"AERODROMO"},"geometry":{"type":"Point","coordinates":[-72.7225,-41.79972222222222,0.0]}},{"type":"Feature","properties":{"n":"SCCY Ad Tte Vidal COYHAIQUE","d":"","l":"AERÓDROMOS","c":"AERODROMO"},"geometry":{"type":"Point","coordinates":[-72.10527777777777,-45.59362222222222,0.0]}},{"type":"Feature","properties":{"n":"SCCV Ad Curacaví CURACAVÍ","d":"","l":"AERÓDROMOS","c":"AERODROMO"},"geometry":{"type":"Point","coordinates":[-71.16555555555556,-33.4125,0.0]}},{"type":"Feature","properties":{"n":"SCHA Ad Chamonate COPIAPO","d":"","l":"AERÓDROMOS","c":"AERODROMO"},"geometry":{"type":"Point","coordinates":[-70.41361111111112,-27.29666666666667,0.0]}},{"type":"Feature","properties":{"n":"SCIC Ad General Freire CURICO","d":"","l":"AERÓDROMOS","c":"AERODROMO"},"geometry":{"type":"Point","coordinates":[-71.21638888888889,-34.96666666666667,0.0]}},{"type":"Feature","properties":{"n":"SCES Ad Ricardo García P. EL SALVADOR","d":"","l":"AERÓDROMOS","c":"AERODROMO"},"geometry":{"type":"Point","coordinates":[-69.76637880117698,-26.31126797392827,0.0]}},{"type":"Feature","properties":{"n":"SCAP Ad Alto Palena PALENA","d":"","l":"AERÓDROMOS","c":"AERODROMO"},"geometry":{"type":"Point","coordinates":[-71.80694444444444,-43.61527777777778,0.0]}},{"type":"Feature","properties":{"n":"SCKE Ad Piedra Negra PELLUHUE","d":"","l":"AERÓDROMOS","c":"AERODROMO"},"geometry":{"type":"Point","coordinates":[-72.64583333333334,-35.85444444444445,0.0]}},{"type":"Feature","properties":{"n":"SCFM Ad. Cap. Fuentes Martínez PORVENIR","d":"","l":"AERÓDROMOS","c":"AERODROMO"},"geometry":{"type":"Point","coordinates":[-70.31916666666666,-53.25916666666668,0.0]}},{"type":"Feature","properties":{"n":"SCAS Ad. Cabo 1º Juan Román PUERTO AYSEN","d":"","l":"AERÓDROMOS","c":"AERODROMO"},"geometry":{"type":"Point","coordinates":[-72.67027777777778,-45.39916666666667,0.0]}},{"type":"Feature","properties":{"n":"SCMA Ad. Puerto Marín BALMACEDA","d":"","l":"AERÓDROMOS","c":"AERODROMO"},"geometry":{"type":"Point","coordinates":[-72.95027777777779,-43.78638888888889,0.0]}},{"type":"Feature","properties":{"n":"SCTE Ap El Tepual PUERTO MONTT","d":"","l":"AERÓDROMOS","c":"AERODROMO"},"geometry":{"type":"Point","coordinates":[-73.09388888888888,-41.43888888888888,0.0]}},{"type":"Feature","properties":{"n":"SCEB Ad Entrada Baker ENTRADA BAKER","d":"","l":"AERÓDROMOS","c":"AERODROMO"},"geometry":{"type":"Point","coordinates":[-71.97611111111111,-47.18416666666667,0.0]}},{"type":"Feature","properties":{"n":"SCFR Ad Frutillar FRUTILLAR","d":"","l":"AERÓDROMOS","c":"AERODROMO"},"geometry":{"type":"Point","coordinates":[-73.06472222222222,-41.13083333333334,0.0]}},{"type":"Feature","properties":{"n":"SCIA Ad Isla Apiao ISLA APIAO","d":"","l":"AERÓDROMOS","c":"AERODROMO"},"geometry":{"type":"Point","coordinates":[-73.21222222222222,-42.59972222222223,0.0]}},{"type":"Feature","properties":{"n":"SCQP Ad La Araucanía FREIRE","d":"","l":"AERÓDROMOS","c":"AERODROMO"},"geometry":{"type":"Point","coordinates":[-72.65138888888889,-38.92583333333333,0.0]}},{"type":"Feature","properties":{"n":"SCIB Ad Butachauques ISLA BUTACHAUQUES","d":"","l":"AERÓDROMOS","c":"AERODROMO"},"geometry":{"type":"Point","coordinates":[-73.14222222222223,-42.30833333333333,0.0]}},{"type":"Feature","properties":{"n":"SCIM Ad Isla Mocha ISLA MOCHA","d":"","l":"AERÓDROMOS","c":"AERODROMO"},"geometry":{"type":"Point","coordinates":[-73.86944444444444,-38.39083333333333,0.0]}},{"type":"Feature","properties":{"n":"SCHW Ad Hualaihué HUALAIHUÉ","d":"","l":"AERÓDROMOS","c":"AERODROMO"},"geometry":{"type":"Point","coordinates":[-71.68944444444445,-42.02861111111111,0.0]}},{"type":"Feature","properties":{"n":"SCQE Ad Isla Quenac ISLA QUENAC","d":"","l":"AERÓDROMOS","c":"AERODROMO"},"geometry":{"type":"Point","coordinates":[-73.33384727125902,-42.46602195546496,0.0]}},{"type":"Feature","properties":{"n":"SCIP Ap Mataveri ISLA DE PASCUA","d":"","l":"AERÓDROMOS","c":"AERODROMO"},"geometry":{"type":"Point","coordinates":[-109.4216666666667,-27.16472222222222,0.0]}},{"type":"Feature","properties":{"n":"SCIS Ad Puerto Sur ISLA STA. MARÍA","d":"","l":"AERÓDROMOS","c":"AERODROMO"},"geometry":{"type":"Point","coordinates":[-73.50805555555556,-37.02861111111111,0.0]}},{"type":"Feature","properties":{"n":"SCIR Ad Robinson Crusoe ISLA ROBINSON CRUSOE","d":"","l":"AERÓDROMOS","c":"AERODROMO"},"geometry":{"type":"Point","coordinates":[-78.92888888888889,-33.66583333333333,0.0]}},{"type":"Feature","properties":{"n":"SCLQ Ad Diego Portales LA LIGUA","d":"","l":"AERÓDROMOS","c":"AERODROMO"},"geometry":{"type":"Point","coordinates":[-71.25888888888889,-32.4525,0.0]}},{"type":"Feature","properties":{"n":"SCVE Ad Lago Verde LAGO VERDE","d":"","l":"AERÓDROMOS","c":"AERODROMO"},"geometry":{"type":"Point","coordinates":[-71.91666666666667,-44.27083333333334,0.0]}},{"type":"Feature","properties":{"n":"SCLJ Ad La Junta LA JUNTA","d":"","l":"AERÓDROMOS","c":"AERODROMO"},"geometry":{"type":"Point","coordinates":[-72.41305555555556,-43.97527777777778,0.0]}},{"type":"Feature","properties":{"n":"SCSE Ad La Florida LA SERENA","d":"","l":"AERÓDROMOS","c":"AERODROMO"},"geometry":{"type":"Point","coordinates":[-71.19944444444445,-29.91638888888889,0.0]}},{"type":"Feature","properties":{"n":"SCBR Ad. Lago Brown LAGO BROWN","d":"","l":"AERÓDROMOS","c":"AERODROMO"},"geometry":{"type":"Point","coordinates":[-72.3175,-47.39194444444443,0.0]}},{"type":"Feature","properties":{"n":"SCLN Ad Municipal de Linares LINARES","d":"","l":"AERÓDROMOS","c":"AERODROMO"},"geometry":{"type":"Point","coordinates":[-71.54861111111111,-35.86166666666667,0.0]}},{"type":"Feature","properties":{"n":"SCQY Ad Villa Portales LONQUIMAY","d":"","l":"AERÓDROMOS","c":"AERODROMO"},"geometry":{"type":"Point","coordinates":[-71.35749999999999,-38.44861111111111,0.0]}},{"type":"Feature","properties":{"n":"SCGE Ad María Dolores LOS ANGELES","d":"","l":"AERÓDROMOS","c":"AERODROMO"},"geometry":{"type":"Point","coordinates":[-72.42555555555556,-37.40194444444445,0.0]}},{"type":"Feature","properties":{"n":"SCAN Ad. San Rafael LOS ANDES","d":"","l":"AERÓDROMOS","c":"AERODROMO"},"geometry":{"type":"Point","coordinates":[-70.64666666666668,-32.81416666666667,0.0]}},{"type":"Feature","properties":{"n":"SCNT Ad. Tte. Julio Gallardo NATALES","d":"","l":"AERÓDROMOS","c":"AERODROMO"},"geometry":{"type":"Point","coordinates":[-72.5286111111111,-51.67083333333333,0.0]}},{"type":"Feature","properties":{"n":"SCND Ad. Ñadis ÑADIS","d":"","l":"AERÓDROMOS","c":"AERODROMO"},"geometry":{"type":"Point","coordinates":[-72.95194444444445,-47.47305555555555,0.0]}},{"type":"Feature","properties":{"n":"SCLD Ad. Llanada Grande LLANADA GRANDE","d":"","l":"AERÓDROMOS","c":"AERODROMO"},"geometry":{"type":"Point","coordinates":[-71.93444444444445,-41.86666666666667,0.0]}},{"type":"Feature","properties":{"n":"SCMK Ad Melinka MELINKA","d":"","l":"AERÓDROMOS","c":"AERODROMO"},"geometry":{"type":"Point","coordinates":[-73.7388888888889,-43.895,0.0]}},{"type":"Feature","properties":{"n":"SCLB Ad Los Pehuenches LEBU","d":"","l":"AERÓDROMOS","c":"AERODROMO"},"geometry":{"type":"Point","coordinates":[-73.62944444444443,-37.65805555555556,0.0]}},{"type":"Feature","properties":{"n":"SCFT Ad Futaleufú FUTALEUFÚ","d":"","l":"AERÓDROMOS","c":"AERODROMO"},"geometry":{"type":"Point","coordinates":[-71.85055555555554,-43.18583333333333,0.0]}},{"type":"Feature","properties":{"n":"SCGZ Ad. Guardiamarina PUERTO WILLIAMS","d":"","l":"AERÓDROMOS","c":"AERODROMO"},"geometry":{"type":"Point","coordinates":[-67.6261111111111,-54.93111111111111,0.0]}},{"type":"Feature","properties":{"n":"SCSZ Ad. Puerto Sánchez PUERTO SÁNCHEZ","d":"","l":"AERÓDROMOS","c":"AERODROMO"},"geometry":{"type":"Point","coordinates":[-72.61666666666666,-46.50000000000001,0.0]}},{"type":"Feature","properties":{"n":"SCCI Ap Carlos Ibañez del Campo PTA. ARENAS","d":"","l":"AERÓDROMOS","c":"AERODROMO"},"geometry":{"type":"Point","coordinates":[-70.8536111111111,-53.00361111111112,0.0]}},{"type":"Feature","properties":{"n":"SCQX Ad QUEILÉN","d":"","l":"AERÓDROMOS","c":"AERODROMO"},"geometry":{"type":"Point","coordinates":[-73.47638888888889,-42.89305555555556,0.0]}},{"type":"Feature","properties":{"n":"SCON Ad. Quellón QUELLÓN","d":"","l":"AERÓDROMOS","c":"AERODROMO"},"geometry":{"type":"Point","coordinates":[-73.635,-43.13666666666666,0.0]}},{"type":"Feature","properties":{"n":"SCQW Ad. Quemchi QUEMCHI","d":"","l":"AERÓDROMOS","c":"AERODROMO"},"geometry":{"type":"Point","coordinates":[-73.51694444444445,-42.15277777777778,0.0]}},{"type":"Feature","properties":{"n":"SCQL Ad. El Boco QUILLOTA","d":"","l":"AERÓDROMOS","c":"AERODROMO"},"geometry":{"type":"Point","coordinates":[-71.24638888888889,-32.85111111111111,0.0]}},{"type":"Feature","properties":{"n":"SCII Ad. Puerto Ing Ibañéz RÍO IBAÑÉZ","d":"","l":"AERÓDROMOS","c":"AERODROMO"},"geometry":{"type":"Point","coordinates":[-71.94960644006922,-46.29391331534719,0.0]}},{"type":"Feature","properties":{"n":"SCSN Ad. Santo Domingo STO. DOMINGO","d":"","l":"AERÓDROMOS","c":"AERODROMO"},"geometry":{"type":"Point","coordinates":[-71.61583333333333,-33.65666666666667,0.0]}},{"type":"Feature","properties":{"n":"SCTL Ad. Panguilemo TALCA","d":"","l":"AERÓDROMOS","c":"AERODROMO"},"geometry":{"type":"Point","coordinates":[-71.60027777777778,-35.37833333333333,0.0]}},{"type":"Feature","properties":{"n":"SCSR Ad. Segundo Corral SEGUNDO CORRAL","d":"","l":"AERÓDROMOS","c":"AERODROMO"},"geometry":{"type":"Point","coordinates":[-71.86388888888888,-42.08333333333334,0.0]}},{"type":"Feature","properties":{"n":"SCTT Ad. Las Breas TAL TAL","d":"","l":"AERÓDROMOS","c":"AERODROMO"},"geometry":{"type":"Point","coordinates":[-70.37603617380461,-25.56380008700506,0.0]}},{"type":"Feature","properties":{"n":"SCQK Ad. Lequecahue TIRUA","d":"","l":"AERÓDROMOS","c":"AERODROMO"},"geometry":{"type":"Point","coordinates":[-73.48861111111111,-38.35166666666667,0.0]}},{"type":"Feature","properties":{"n":"SCBE Ad. Barriles TOCOPILLA","d":"","l":"AERÓDROMOS","c":"AERODROMO"},"geometry":{"type":"Point","coordinates":[-70.06263584326382,-22.14109166706768,0.0]}},{"type":"Feature","properties":{"n":"SCCR Ad. Enrique Meyer TORTEL","d":"","l":"AERÓDROMOS","c":"AERODROMO"},"geometry":{"type":"Point","coordinates":[-73.52027777777778,-47.78694444444444,0.0]}},{"type":"Feature","properties":{"n":"SCTP Ad. Río Pascua TORTEL","d":"","l":"AERÓDROMOS","c":"AERODROMO"},"geometry":{"type":"Point","coordinates":[-73.29777777777778,-48.22777777777778,0.0]}},{"type":"Feature","properties":{"n":"SCGD Ad. Cerro Guido TORRES DEL PAINE","d":"","l":"AERÓDROMOS","c":"AERODROMO"},"geometry":{"type":"Point","coordinates":[-72.41944444444445,-50.97,0.0]}},{"type":"Feature","properties":{"n":"SCTR Ad. Traiguén TRAIGUÉN","d":"","l":"AERÓDROMOS","c":"AERODROMO"},"geometry":{"type":"Point","coordinates":[-72.66250000000001,-38.27138888888889,0.0]}},{"type":"Feature","properties":{"n":"SCVL Ad. Las Marías VALDIVIA","d":"","l":"AERÓDROMOS","c":"AERODROMO"},"geometry":{"type":"Point","coordinates":[-73.24138888888889,-39.79583333333333,0.0]}},{"type":"Feature","properties":{"n":"SCVD Ad. Pichoy VALDIVIA","d":"","l":"AERÓDROMOS","c":"AERODROMO"},"geometry":{"type":"Point","coordinates":[-73.08638888888889,-39.64944444444444,0.0]}},{"type":"Feature","properties":{"n":"SCLL Ad. Vallenar VALLENAR","d":"","l":"AERÓDROMOS","c":"AERODROMO"},"geometry":{"type":"Point","coordinates":[-70.75527777777778,-28.59611111111111,0.0]}},{"type":"Feature","properties":{"n":"SCTO Ad. Victoria VICTORIA","d":"","l":"AERÓDROMOS","c":"AERODROMO"},"geometry":{"type":"Point","coordinates":[-72.34861111111111,-38.24555555555556,0.0]}},{"type":"Feature","properties":{"n":"SCIO Ad. Laguna Redonda VILLA O`HIGGINS","d":"","l":"AERÓDROMOS","c":"AERODROMO"},"geometry":{"type":"Point","coordinates":[-72.79333333333334,-48.92861111111111,0.0]}},{"type":"Feature","properties":{"n":"SCVM Ad. Viña del Mar","d":"","l":"AERÓDROMOS","c":"AERODROMO"},"geometry":{"type":"Point","coordinates":[-71.4786111111111,-32.94972222222222,0.0]}},{"type":"Feature","properties":{"n":"Aerodromo Nuevo Chaiten SCTN","d":"","l":"AERÓDROMOS","c":"AERODROMO"},"geometry":{"type":"Point","coordinates":[-72.83520834525471,-42.78240261303685,0.0]}},{"type":"Feature","properties":{"n":"SCKL Ad. Lipangui LAMPA","d":"","l":"AERÓDROMOS","c":"AERODROMO"},"geometry":{"type":"Point","coordinates":[-70.85111111111111,-33.33694444444445,0.0]}},{"type":"Feature","properties":{"n":"Aeródromo Eulogio Sánchez","d":"","l":"AERÓDROMOS (#2)","c":"AERODROMO"},"geometry":{"type":"Point","coordinates":[-70.5466667,-33.4563889,0.0]}},{"type":"Feature","properties":{"n":"Ad. El Tuqui (Ovalle)","d":"","l":"AERÓDROMOS (#2)","c":"AERODROMO"},"geometry":{"type":"Point","coordinates":[-71.17802200634065,-30.55970599189962,0.0]}},{"type":"Feature","properties":{"n":"SCKM Ad Cochamó COCHAMÓ","d":"","l":"AERÓDROMOS (#2)","c":"AERODROMO"},"geometry":{"type":"Point","coordinates":[-72.3,-41.48333333333333,0.0]}},{"type":"Feature","properties":{"n":"SCQE Ad Isla Quenac ISLA QUENAC","d":"","l":"AERÓDROMOS (#2)","c":"AERODROMO"},"geometry":{"type":"Point","coordinates":[-73.33583333333333,-42.46722222222223,0.0]}},{"type":"Feature","properties":{"n":"SCOS Ad. Entre Rios TALAGANTE","d":"","l":"AERÓDROMOS (#2)","c":"AERODROMO"},"geometry":{"type":"Point","coordinates":[-70.99583333333334,-33.71833333333333,0.0]}}]}
