{"type":"FeatureCollection","features":[{"type":"Feature","properties":{"n":"Zona Prohibida SC-P83","d":"Sector Coyhaique / Campo Militar Coyhaique, establécese la Zona Prohibida SC-P83 para Aeronaves no tripuladas (drones), según se detalla:\nLimites Laterales: área definida por las siguientes coordenadas geográficas:\n1) 45°33'20.23\"S 72°04’08.97\"W\n2) 45°33'55.60\"S 72°04’11.49\"W\n3) 45°33'39.72\"S 72°04'01.88\"W\n4) 45°33'39.87\"S 72°04'25.23\"W\nLímites Verticales: 600 FT AGL\nGND","l":"Zona Prohibida SC-P83.kmz","c":"P"},"geometry":{"type":"Polygon","coordinates":[[[-72.07362805613556,-45.56103821370137,0.0],[-72.06984399825583,-45.56541084993854,0.0],[-72.0671114269612,-45.56102344685382,0.0],[-72.06915953169666,-45.55564539723992,0.0],[-72.07362805613556,-45.56103821370137,0.0]]]}},{"type":"Feature","properties":{"n":"Zona Prohibida SC-P86 para aeronaves no tripuladas (drones)","d":"Sector NE de Coyhaique / CIE “Las Bandurrias”, establécese la Zona Prohibida SC-P86 para aeronaves no tripuladas (drones), según se detalla:\nLimites Laterales: área definida por las siguientes coordenadas geográficas:\n1) 45°29'46.00\"S 71°53'26.00\"W\n2) 45°29'33.00\"S 71°52'33.00\"W\n3) 45°29'48.00\"S 71°52'29.00\"W\n4) 45°30'47.00\"S 71°53'35.00\"W\n5) 45°30'18.00\"S 71°53'55.00\"W\nLímites Verticales: 600 FT AGL\nGND\nHORARIO: Permanente","l":"REGION INFORMACIÓN DE VUELO.kmz","c":"P"},"geometry":{"type":"Polygon","coordinates":[[[-71.89305702445647,-45.51305801319559,0.0],[-71.89861743818818,-45.50499023445907,0.0],[-71.89055389709623,-45.49610884454317,0.0],[-71.87583249844754,-45.49246990910077,0.0],[-71.87471862220613,-45.49664758027492,0.0],[-71.89305702445647,-45.51305801319559,0.0]]]}},{"type":"Feature","properties":{"n":"Zona Prohibida SC-P85 para aeronaves no tripuladas (drones)","d":"Cochrane / Compañía Andina Nº 20 “Cochrane”, establécese la Zona Prohibida SC-P85 para aeronaves no tripuladas (drones), según se detalla:\nLimites Laterales: área definida por las siguientes coordenadas geográficas:\n1) 47°15'09.45\"S 72°33'28.05\"W\n2) 47°15'13.81\"S 72°33'32.14\"W\n3) 47°15'14.61\"S 72°33'17.40\"W\n4) 47°15'09.66\"S 72°33'40.04\"W\nLímites Verticales: 600 FT AGL\nGND\nHORARIO: Permanente","l":"REGION INFORMACIÓN DE VUELO.kmz","c":"P"},"geometry":{"type":"Polygon","coordinates":[[[-72.56141907945123,-47.25240727257693,0.0],[-72.55862918083123,-47.25232809198634,0.0],[-72.55422047866388,-47.25326574874884,0.0],[-72.55481740177864,-47.25405850111714,0.0],[-72.5589414285009,-47.25382744151439,0.0],[-72.56138630948172,-47.25300610339183,0.0],[-72.56141907945123,-47.25240727257693,0.0]]]}},{"type":"Feature","properties":{"n":"Zona Prohibida SC-P84 para aeronaves no tripuladas (drones)","d":"Regimiento Nº 8 “Chiloé”\nLimites Laterales: área definida por las siguientes coordenadas geográficas:\n1) 45º23'29.92\"S 72°41'06.05\"W\n2) 45°23'56.69\"S 72°40'48.90\"W\n3) 45°23'38.36\"S 72°40'44.51\"W\n4) 45°23'41.66\"S 72°41'09.84\"W\nLímites Verticales: 600 FT AGL\nGND\nHORARIO: Permanente","l":"REGION INFORMACIÓN DE VUELO.kmz","c":"P"},"geometry":{"type":"Polygon","coordinates":[[[-72.6880348352568,-45.39270971801249,0.0],[-72.68184160005121,-45.39023769675187,0.0],[-72.67809681272297,-45.39509021594089,0.0],[-72.68043843879448,-45.39579754897664,0.0],[-72.67819145280365,-45.39833700728344,0.0],[-72.68208736060656,-45.39964423257037,0.0],[-72.6880348352568,-45.39270971801249,0.0]]]}},{"type":"Feature","properties":{"n":"SC-P29 FIR SANTIAGO\nValparaíso (Congreso Nacional)","d":"SC-P29 FIR SANTIAGO\nValparaíso (Congreso Nacional)\nCírculo de 0.15 NM de radio centrado en las\nsiguientes coordenadas: 33 02 53 S 71 36 19 W\n1000 FT AGL\nGND Zona prohibida para RPAS","l":"REGION INFORMACIÓN DE VUELO.kmz","c":"P"},"geometry":{"type":"GeometryCollection","geometries":[{"type":"LineString","coordinates":[[-71.60260412650716,-33.04899139182939,300.0],[-71.60418755940081,-33.05029926383666,300.0],[-71.60617309268083,-33.05035965272821,300.0],[-71.60774038087634,-33.04933612682016,300.0],[-71.60811950772882,-33.04855259678608,300.0],[-71.60811021478818,-33.04749874505026,300.0],[-71.60771732312132,-33.04671999694436,300.0],[-71.60682175983607,-33.04598031318293,300.0],[-71.60563718196076,-33.04562717655023,300.0],[-71.60438554707332,-33.04572675461907,300.0],[-71.60330137449513,-33.0462603894202,300.0],[-71.60258781256915,-33.04712809264787,300.0],[-71.60237857804918,-33.04816727723573,300.0],[-71.60260412650716,-33.04899139182939,300.0]]},{"type":"Point","coordinates":[-71.60527777777777,-33.04805555555556,300.0]}]}},{"type":"Feature","properties":{"n":"SC-P9 FIR SANTIAGO\nSector Quidico","d":"Zona prohibida para RPAS\n\n1600 FT AGL\nGND\n\nAutorizaciones excepcionales para operaciones aéreas de las FFAA y\noperaciones aéreas Policiales. Autorizaciones excepcionales tomar\ncontacto con el jefe de la Sección RPAS Araucanía, \nCorreo Electrónico:\nsecciondrontemuco@gmail.com, \nTeléfono\nFijo: (45) 2466819","l":"ZONAS ARAUCANIA","c":"P"},"geometry":{"type":"LineString","coordinates":[[-73.59019477501325,-37.3275597489752,486.9999999999999],[-73.58882860343985,-37.3233482396098,486.9999999999999],[-73.58656374160759,-37.31938932673867,486.9999999999999],[-73.58346911337094,-37.31580325098825,486.9999999999999],[-73.58163912972593,-37.31418459452222,486.9999999999999],[-73.57748336460799,-37.31135750486479,486.9999999999999],[-73.57277377764655,-37.30914713814968,486.9999999999999],[-73.56765338835024,-37.30762059847431,486.9999999999999],[-73.56227765420829,-37.30682422634655,486.9999999999999],[-73.55409315265248,-37.30704535757422,486.9999999999999],[-73.5462591735258,-37.30894332584647,486.9999999999999],[-73.54149677021043,-37.3110808833237,486.9999999999999],[-73.53727309672294,-37.31384356196372,486.9999999999999],[-73.53371645568765,-37.31714748282354,486.9999999999999],[-73.53093493891302,-37.32089232204875,486.9999999999999],[-73.52901314007825,-37.32496435143567,486.9999999999999],[-73.52800957493464,-37.32923988714977,486.9999999999999],[-73.52795488854099,-37.33358904263925,486.9999999999999],[-73.52885090578233,-37.33787967233702,486.9999999999999],[-73.52964808144802,-37.33996211539651,486.9999999999999],[-73.53191056341075,-37.3439221125782,486.9999999999999],[-73.53500388811003,-37.34750953085408,486.9999999999999],[-73.53883412544693,-37.35061530775162,486.9999999999999],[-73.54328489890298,-37.35314501085349,486.9999999999999],[-73.54570133896149,-37.35416904362452,486.9999999999999],[-73.55082445560869,-37.35569652946293,486.9999999999999],[-73.55620356658588,-37.35649341983696,486.9999999999999],[-73.5616750778088,-37.35653547822012,486.9999999999999],[-73.56707257670207,-37.35582142543267,486.9999999999999],[-73.57223190830845,-37.35437297866061,486.9999999999999],[-73.57699618173784,-37.35223418904609,486.9999999999999],[-73.57918431342057,-37.35092547135196,486.9999999999999],[-73.58308940001072,-37.34787915429472,486.9999999999999],[-73.58626941893482,-37.34433995791583,486.9999999999999],[-73.587556401956,-37.34241865645642,486.9999999999999],[-73.58947547344009,-37.33834568090684,486.9999999999999],[-73.59047566174954,-37.33406962694674,486.9999999999999],[-73.5906206030583,-37.3318959216714,486.9999999999999],[-73.59019477501325,-37.3275597489752,486.9999999999999]]}},{"type":"Feature","properties":{"n":"PROVINCIA OF ARAUCO AND BIO-BIO, SECT LOS ALAMOS","d":"1-PROVINCIA OF ARAUCO AND BIO-BIO, SECT LOS ALAMOS, WI: \n373529.20S / 0732706.18W \n373905.14S / 0732252.33W \n373534.81S / 0732240.76W \n373856.59S / 0732715.94W \nTHE ADMINISTRATION OF THE TEMPORARY PROHIBITED ZONES DESCRIBED, IN \nMATTERS OF FLIGHT OF REMOTELY PILOTED ACFT SYSTEMS (RPAS), IS IN \nCHARGE OF THE CHIEF OF SERVICE OF THE CHIEF OF THE NATIONAL DEFENSE \nFOR THE BIO-BIO AND ARAUCO REGION, WITH THE CONTACT POINT \nCEL +56974841307. \nF)GND G)2000FT AGL","l":"ZONAS ARAUCANIA","c":"P"},"geometry":{"type":"Polygon","coordinates":[[[-73.45164113638651,-37.59117896554731,0.0],[-73.37791113737167,-37.59287115517001,0.0],[-73.38112718431493,-37.65137146656721,0.0],[-73.45438675681913,-37.64901982628758,0.0],[-73.45164113638651,-37.59117896554731,0.0]]]}},{"type":"Feature","properties":{"n":"SC-P59 FIR SANTIAGO\nSantiago","d":"3000 FT ALT\nGND\n H24","l":"REGION INFORMACIÓN DE VUELO","c":"P"},"geometry":{"type":"Polygon","coordinates":[[[-70.68576449422335,-33.44636143731518,913.9999999999999],[-70.68435938720393,-33.44640234093316,913.9999999999999],[-70.68429029703786,-33.44423485547421,913.9999999999999],[-70.6858419193929,-33.44429358550348,913.9999999999999],[-70.68576449422335,-33.44636143731518,913.9999999999999]]]}},{"type":"Feature","properties":{"n":"SC-P26 FIR SANTIAGO Ex Congreso Nacional","d":"SC-P26 FIR SANTIAGO\nSantiago (Ex congreso Nacional)\nEspacio aéreo/Airspace:\nCirculo de 0.15 NM de radio centrado en las\nsiguientes coordenadas:\n33 26 18 S 70 39 12 W\n1000 FT AGL\nGND Zona prohibida para RPAS","l":"REGION INFORMACIÓN DE VUELO","c":"P"},"geometry":{"type":"LineString","coordinates":[[-70.65621724316269,-33.43896495723425,300.0],[-70.65630696826159,-33.43810047253201,300.0],[-70.65591615832125,-33.43706926314859,300.0],[-70.65409697067213,-33.43590645011105,300.0],[-70.65280211579561,-33.4358601859329,300.0],[-70.65160514062217,-33.43627490885514,300.0],[-70.65073032610232,-33.43707291193562,300.0],[-70.65037548294505,-33.4378885450717,300.0],[-70.65043307251227,-33.43896902701629,300.0],[-70.65087330134581,-33.43975514933395,300.0],[-70.65280705863776,-33.44078127492487,300.0],[-70.65482377054185,-33.44048306985401,300.0],[-70.65561977165099,-33.43992473711559,300.0],[-70.65621724316269,-33.43896495723425,300.0]]}},{"type":"Feature","properties":{"n":"Zona Prohibida SC- P55 instalaciones de la Armada","d":"Límites Laterales: Círculo de 500 m de radio, centrado en las coordenadas geográficas\n 20°15’29,48’’S / 70°06’31,66’’W, Iquique.\nLímites Verticales: 2000 ft ALT GND","l":"REGION INFORMACIÓN DE VUELO","c":"P"},"geometry":{"type":"LineString","coordinates":[[-70.10509768090792,-20.26106929853736,610.0],[-70.10675589405047,-20.2622362812051,610.0],[-70.10836695157636,-20.26262360247393,610.0],[-70.11002205563544,-20.26247058962877,610.0],[-70.1115215271685,-20.26179570283461,610.0],[-70.11268446764052,-20.26068036285767,610.0],[-70.11345647509367,-20.2588755851463,610.0],[-70.1134379931649,-20.25731548141217,610.0],[-70.11262344700863,-20.25552724208421,610.0],[-70.11143443789236,-20.25443640591126,610.0],[-70.10951062088418,-20.25371236875133,610.0],[-70.10744089864302,-20.25381898266968,610.0],[-70.10594167485753,-20.25449420300464,610.0],[-70.10455857420334,-20.25594267350327,610.0],[-70.10400745522239,-20.25741471330263,610.0],[-70.104121314832,-20.25935645052402,610.0],[-70.10509768090792,-20.26106929853736,610.0]]}},{"type":"Feature","properties":{"n":"SC- P57","d":"Créase la siguiente Zona Prohibida, identificada como SC-P57, según se detalla:\nLímites Laterales: Área delimitada por las siguientes coordenadas geográficas\n1) 33 26 27.4 S / 70 40 27.0 W 2) 33 26 34.9 S / 70 40 26.2 W\n3) 33 26 35.5 S / 70 40 31.4 W 4) 33 26 28.0 S / 70 40 32.0 W\nUbicada a 0.4 NM al Este del Parque Quinta Normal.\nLímites Verticales : 3000 FT ALT\n GND","l":"REGION INFORMACIÓN DE VUELO","c":"P"},"geometry":{"type":"Polygon","coordinates":[[[-70.67538656005652,-33.44318213542407,913.9999999999999],[-70.67393484610498,-33.44302462043952,913.9999999999999],[-70.67415837161673,-33.44084404820162,913.9999999999999],[-70.67555231503397,-33.44110846205442,913.9999999999999],[-70.67538656005652,-33.44318213542407,913.9999999999999]]]}},{"type":"Feature","properties":{"n":"PALACIO PEREIRA","d":"","l":"Zonas Prohibidas, Restringuidas, Peligrosas.kmz","c":"P"},"geometry":{"type":"Polygon","coordinates":[[[-70.65916134674434,-33.44027519781891,500.0],[-70.65777342423443,-33.44027556942807,500.0],[-70.6577689385485,-33.4388898527702,500.0],[-70.6594428097848,-33.43916674037368,500.0],[-70.65916134674434,-33.44027519781891,500.0]]]}},{"type":"Feature","properties":{"n":"SC-P51 Residencia Presidente Piñera","d":"","l":"Zonas Prohibidas, Restringuidas, Peligrosas","c":"P"},"geometry":{"type":"Polygon","coordinates":[[[-70.52110456266364,-33.38528325082574,0.0],[-70.52025886855259,-33.38470231133125,0.0],[-70.5208284287873,-33.38386945853483,0.0],[-70.52193784257423,-33.38415756525106,0.0],[-70.52110456266364,-33.38528325082574,0.0]]]}},{"type":"Feature","properties":{"n":"SC-R19 FIR PUNTA ARENAS - Sector Isla Marta","d":"SC-R19 FIR PUNTA ARENAS - Sector Isla Marta \n\nEspacio Aéreo: Círculo 1 NM radio centrado en: \n52 51 00 S 70 34 00 W\n\n1000 FT AGL GND\n\nH24 Sobre vuelo restringido por peligro aviario","l":"Zonas Prohibidas, Restringuidas, Peligrosas","c":"P"},"geometry":{"type":"Point","coordinates":[-70.56666666666666,-52.85,0.0]}},{"type":"Feature","properties":{"n":"SC-R19 Sector Isla Marta","d":"","l":"Zonas Prohibidas, Restringuidas, Peligrosas","c":"P"},"geometry":{"type":"LineString","coordinates":[[-70.59189294059499,-52.85651233622449,-2.712258495116229],[-70.59339006801014,-52.85376370402017,-6.670505068697461],[-70.59383552218586,-52.85234078870909,-8.770285194154845],[-70.59410338280831,-52.84945183487827,-12.5463214912022],[-70.59353650662483,-52.84657868092611,-14.12043327188865],[-70.59116590397954,-52.84248872648669,-15.10338852006543],[-70.58864218274378,-52.84002936677548,-15.38399452188148],[-70.58363299663922,-52.8369274507678,-12.10212365204839],[-70.5796257638343,-52.83534247094295,-9.988530828510138],[-70.57291667288575,-52.83380941153344,-19.28561840162809],[-70.5681764370033,-52.83339554607395,-27.11916868769246],[-70.56102354639472,-52.83371832841912,-30.89713105954848],[-70.55425230335369,-52.8351481491386,-33.98232320442828],[-70.55017986573905,-52.83667125107595,-36.2102592545053],[-70.54504213850724,-52.83969545728445,-39.83428928077534],[-70.54241601851378,-52.84211537710652,-42.58719937618624],[-70.53987449967627,-52.84616771222306,-47.59514198460646],[-70.53918717451255,-52.84903126091204,-54.89424616821164],[-70.53933363022799,-52.85192338776621,-59.95708183114016],[-70.5403095812224,-52.85475621395128,-61.68621994909067],[-70.54208552479842,-52.85744364565662,-60.69031665927558],[-70.54460761934781,-52.85990399239817,-57.00989745087156],[-70.5477993058586,-52.86206245326926,-51.67029885912012],[-70.55156362522325,-52.8638533950989,-43.86881858489308],[-70.55578616201805,-52.86522235264869,-32.09782717272481],[-70.56033852558909,-52.86612768935309,-20.7631597039862],[-70.5650822621182,-52.86654186743569,-16.28702107826123],[-70.5698730774775,-52.8664522882039,-16.07413545802189],[-70.57456524062843,-52.86586167655743,-12.5816929916121],[-70.57901603146037,-52.86478799782157,-6.224521622186156],[-70.58309009551876,-52.86326390947688,-2.061821987547503],[-70.58666357109912,-52.86133576473539,-0.7624593331568461],[-70.58962786156556,-52.85906219874033,-0.778062904141913],[-70.59189294059499,-52.85651233622449,-2.712258495116229]]}},{"type":"Feature","properties":{"n":"SC-R21 FIR SANTIAGO - Escuela de Aviación Weste","d":"SC-R21 FIR SANTIAGO - Escuela de Aviación Weste \n\nEspacio Aéreo: \n33 30 00 S 70 42 00 W \n33 30 00 S 70 39 50 W \n33 37 00 S 70 43 00 W\n\n9000 FT AMSL 6000 FT AMSL\n\nH24 Instrucción FLT MIL \nCoordinación con Santiago Radar 121.1 MHz / 120.4 MHz o Santiago Información 122.4 MHz/ 123.8 MHz.","l":"Zonas Prohibidas, Restringuidas, Peligrosas","c":"P"},"geometry":{"type":"Polygon","coordinates":[[[-70.71666856300186,-33.6166675014867,1828.0],[-70.66389060652425,-33.50000271392782,1828.0],[-70.70000020370483,-33.50000108297677,1828.0],[-70.71666856300186,-33.6166675014867,1828.0]]]}},{"type":"Feature","properties":{"n":"SC-P3 FIR PUNTA ARENAS","d":"SC-P3 FIR PUNTA ARENAS\nIsla Dawson\nEspacio aéreo: \n53 46 00 S 70 31 00 W \n53 46 00 S 70 19 30 W \n53 55 00 S 70 19 30 W \n53 55 00 S 70 31 00 W\nUNL GND\nH24","l":"Zonas Prohibidas, Restringuidas, Peligrosas","c":"P"},"geometry":{"type":"Polygon","coordinates":[[[-70.51666835818665,-53.91666484416718,0.0],[-70.32499744672027,-53.91666457536908,0.0],[-70.32499683570359,-53.76666902137574,0.0],[-70.51664063087698,-53.76666499438479,0.0],[-70.51666835818665,-53.91666484416718,0.0]]]}},{"type":"Feature","properties":{"n":"SC-P10 FIR ANTOFAGASTA","d":"SC-P10 FIR ANTOFAGASTA \n\nEspacio aéreo/Airspace:\n\n18 57 10 S 70 00 00 W \nsiguiendo arco 40 NM \ncentrado en VOR/DME ARI \n18 22 10 S 70 20 47 W luego: \n\n18 20 00 S 69 38 20 W \n18 20 00 S 69 11 30 W \n19 14 18 S 69 00 00 W \n21 00 00 S 69 00 00 W \n21 00 00 S 69 40 00 W \n20 30 00 S 70 00 00 W","l":"Zonas Prohibidas, Restringuidas, Peligrosas","c":"P"},"geometry":{"type":"Polygon","coordinates":[[[-69.637854921797,-18.33273664594269,24190.0],[-69.60291223653012,-18.39931253040056,24190.0],[-69.59128535566049,-18.43910787176849,24190.0],[-69.59120518726661,-18.48867614486092,24190.0],[-69.58913608235724,-18.50259947510571,24190.0],[-69.60446313588653,-18.59263928571832,24190.0],[-69.62671903356544,-18.66683436608469,24190.0],[-69.66015648023395,-18.74987964019697,24190.0],[-69.73695398836772,-18.84239784016584,24190.0],[-69.84950448503453,-18.92274858934163,24190.0],[-69.98664717734242,-18.94910238137013,24190.0],[-70.00074357735342,-20.5040278977741,24190.0],[-69.67001060594369,-21.00300166434447,24190.0],[-69.0002618268006,-20.9999993457051,24190.0],[-68.98626269319988,-19.2430277854006,24190.0],[-69.18925706325713,-18.33549021141964,24190.0],[-69.46958631463923,-18.33418576818404,24190.0],[-69.637854921797,-18.33273664594269,24190.0]]]}},{"type":"Feature","properties":{"n":"SC-R22 FIR ANTOFAGASTA  \nTocopilla Este","d":"Espacio Aéreo/Airspace: \n21 41 00 S 69 56 00 W \n22 17 00 S 69 15 00 W \n\nSiguiendo arco 25 DME VOR LOA hasta: \nFollowing arc 25 DME LOA VOR until:\n22 33 00 S 69 19 00 W \n22 56 00 S 70 15 00 W \n\nFL 450 GND\tHJ \nVuelos de Entrenamiento FACH \nFACH training area \n\nLas aeronaves con FPL VFR que soliciten sobrevolar la zona, deberán presentar su FPL con al menos 1 hora de antelación, especificar ruta a seguir, ajustarse a su ETD y notificar cualquier cambio en su FPL lo antes posible. Uso respondedor obligatorio, excepto autorización especial.","l":"Zonas Prohibidas, Restringuidas, Peligrosas","c":"P"},"geometry":{"type":"Polygon","coordinates":[[[-69.31494290709476,-22.54276901533455,1371.0],[-69.24987468906592,-22.28268478919994,1371.0],[-69.93330912411012,-21.6832368528568,1371.0],[-70.25051701455143,-22.93216766732634,1371.0],[-69.31494290709476,-22.54276901533455,1371.0]]]}},{"type":"Feature","properties":{"n":"SC-R16 FIR ANTOFAGASTA \n\n(Antofagasta Oeste)","d":"SC-R16 FIR ANTOFAGASTA \n\n(Antofagasta Oeste)\n\nFL 450\n5000 FT AMSL\t\n\nVuelos de entrenamiento militar.\nMIL Instruction Flights\nSolicitud de ingreso:\nBajo FL 250 Antofagasta Radar\nFL 250 o superior Santiago Radar\n\nH24","l":"Zonas Prohibidas, Restringuidas, Peligrosas","c":"P"},"geometry":{"type":"Polygon","coordinates":[[[-72.00277070157927,-25.50309825239899,1528.0],[-71.16396274883301,-25.50330550544745,1528.0],[-70.93329195749463,-23.44563121607766,1528.0],[-70.83600394550953,-21.14478188771259,1528.0],[-71.54844457421234,-20.50244946443409,1528.0],[-72.84268624338559,-20.50197943345436,1528.0],[-72.00277070157927,-25.50309825239899,1528.0]]]}},{"type":"Feature","properties":{"n":"SC - D66 FIR ANTOFAGASTA - Calama","d":"Círculo radio 1000 m centrado en: \n\n22 31 00 S 68 58 00 W \t\n\n3.000 FT AGL \nGND\t\n\nH24","l":"Zonas Prohibidas, Restringuidas, Peligrosas","c":"P"},"geometry":{"type":"Point","coordinates":[-68.96666666666667,-22.51666666666667,913.9999999999999]}},{"type":"Feature","properties":{"n":"SC - D66","d":"","l":"Zonas Prohibidas, Restringuidas, Peligrosas","c":"P"},"geometry":{"type":"LineString","coordinates":[[-68.97585015478914,-22.51420836073556,2188.082217515028],[-68.97431130883461,-22.5114057773233,2185.869431156575],[-68.97317107563924,-22.51023181379148,2182.490983031748],[-68.97109192422195,-22.50885690188944,2187.254726062987],[-68.96785845069036,-22.507881077812,2187.539789624122],[-68.96615361706141,-22.50779614984354,2189.35473665879],[-68.96363117157021,-22.50818263457074,2197.730262818034],[-68.96130302047395,-22.50915923529951,2201.477526316923],[-68.95993813519001,-22.51010679794806,2207.957980236328],[-68.95784052674615,-22.51258073527392,2213.679387206989],[-68.95678567959129,-22.51556834192333,2220.397516438422],[-68.95690097200134,-22.51870904373542,2225.08476951692],[-68.95775238517693,-22.52093639766055,2227.219365962549],[-68.95865602454116,-22.52227467435536,2229.609398628726],[-68.96114242210564,-22.52441950938828,2228.674707153546],[-68.96344986915464,-22.52543770705926,2227.075149454879],[-68.96511343933123,-22.52579329536344,2224.046396354085],[-68.96851347258207,-22.52568488584882,2217.231692580449],[-68.97166812252554,-22.52450843959854,2208.889248432029],[-68.9730319598034,-22.52355941618889,2205.198559846175],[-68.97469284639322,-22.5217633431526,2199.628430722061],[-68.97549443604234,-22.52037069567703,2197.850637027986],[-68.97617756312306,-22.51809441352404,2193.430821785597],[-68.9762666308898,-22.51651930164475,2190.549347290569],[-68.97585015478914,-22.51420836073556,2188.082217515028]]}},{"type":"Feature","properties":{"n":"ESTACIÓN METEOROLÓGICA EMITE GLOBOS SONDA","d":"ANTOFAGASTA\nLatitud /Latitude\n23 27 19 S\nLongitud /Longitude\n70 26 44 W\nHoras /Hours\nDLY 11:30 UTC\nLímite Inferior /Lower limit\nGND\nLímite superior /Upper limit\n90.000 FT\nGlobo Radiosonda /Radiosounde ballon\n300 Gramos\nCaracterísticas /Characteristics\nColor café claro, fabricado con neoprene","l":"Zonas Prohibidas, Restringuidas, Peligrosas","c":"P"},"geometry":{"type":"Point","coordinates":[-70.44555555555556,-23.45527777777778,0.0]}},{"type":"Feature","properties":{"n":"SC - P23 FIR SANTIAGO - Talcahuano","d":"• FL 195\nGND/MSL\n\n• 3 000 FT ALT\nGND/MSL\t\n\n\nH24 \n• Límites/Limits FLT VFR \n\n• Limites/Limits FLT IFR \n\nCDN Concepción Torre 118.1 MHz. Uso QNH SCIE\n\nEspacio aéreo: \n36 33 30 S 73 01 30 W \n36 41 30 S 73 02 48 W \n36 44 00 S 73 04 00 W \n36 44 00 S 73 13 00 W \n36 38 00 S 73 11 30 W \n36 33 00 S 73 09 00 W","l":"Zonas Prohibidas, Restringuidas, Peligrosas","c":"P"},"geometry":{"type":"Polygon","coordinates":[[[-73.19166372969343,-36.63353684667007,0.0],[-73.21580172691924,-36.73380248049804,0.0],[-73.06565964018517,-36.73334738201987,0.0],[-73.04658556920006,-36.69246035964607,0.0],[-73.02521381877983,-36.55837745495426,0.0],[-73.149547196298,-36.55018163132767,0.0],[-73.19166372969343,-36.63353684667007,0.0]]]}},{"type":"Feature","properties":{"n":"ESTACION METEOROLÓGICA QUE EMITE GLOBOS SONDA","d":"SANTO DOMINGO\nLatitud/Latitude\n33 39 25 S\nLongitud/Longitude\n71 36 54 W\nHoras/Hours\nDLY 11:30 y 23:30 UTC\nLímite Inferior/Lower limit\nGND\nLímite Superior/Upper limit\n90.000 FT\nGlobo Radiosonda/Radiosounde balloon\n500 gramos\nCaracterísticas/Characteristics\ncolor café claro, fabricado con neoprene\nLugar / Place\nLanzamiento a 80 m NW THR 23.","l":"Zonas Prohibidas, Restringuidas, Peligrosas","c":"P"},"geometry":{"type":"Point","coordinates":[-71.615,-33.65694444444444,0.0]}},{"type":"Feature","properties":{"n":"SC-R67 FIR SANTIAGO – Casablanca","d":"5000 FT AMSL GND\nHJ \nVuelos de Entrenamiento Armada \n\nCoordinación con: Valparaíso Información 126.7 \nUso QNH SCRD \n\nPuntos de Notificación: Norte: Lago Peñuelas, Weste: Quintay, Surweste: Algarrobo, Sur: San Jerónimo, Sureste: Túnel Zapata.\n\nEspacio Aéreo: \n33 06 00 S 71 27 30 W \n33 10 30 S 71 17 00 W \n33 21 30 S 71 17 00 W \n33 21 30 S 71 39 40 W \n33 12 30 S 71 40 30 W","l":"Zonas Prohibidas, Restringuidas, Peligrosas","c":"P"},"geometry":{"type":"Polygon","coordinates":[[[-71.67606397983012,-33.20838710038515,1524.0],[-71.66352495920316,-33.35823151766894,1524.0],[-71.28295918132847,-33.3582533480132,1524.0],[-71.282200522029,-33.17490554231113,1524.0],[-71.45812841441798,-33.09988069112159,1524.0],[-71.67606397983012,-33.20838710038515,1524.0]]]}},{"type":"Feature","properties":{"n":"SC - D70 FIR SANTIAGO-Torquemada","d":"SC - D70 FIR SANTIAGO-Torquemada \n\n1.000 FT AGL \nGND\t\nZona activada a través de la Torre de Control AD Viña del Mar, frecuencia 118.4.\n\nEjercicios del Cuerpo de Infantería de Marina.\n\nEspacio Aéreo: \n32 57 20 S 71 28 30 W \n32 58 30 S 71 26 00 W \n32 59 40 S 71 26 10 W \n32 58 40 S 71 28 30 W","l":"Zonas Prohibidas, Restringuidas, Peligrosas","c":"P"},"geometry":{"type":"Polygon","coordinates":[[[-71.47498087796717,-32.95571596815818,304.8],[-71.47496751553435,-32.97777960047267,304.8],[-71.43606247115882,-32.99447909973396,304.8],[-71.43332478438302,-32.97500257061564,304.8],[-71.47498087796717,-32.95571596815818,304.8]]]}},{"type":"Feature","properties":{"n":"SC-D34 FIR SANTIAGO-Sector Quintero","d":"SC-D34 FIR SANTIAGO-Sector Quintero \n\nCuadrilátero de 0.7 x 0.2 NM siguientes coordenadas \nfollowing coordinates: \n32 46 23 S 71 29 32 W \n32 46 56 S 71 28 58 W \n32 47 06 S 71 29 08 W \n32 46 33 S 71 29 42 W \t\n\n\n1000 FT AMSL\n MSL\t\nEscape de gases inflamables \nEscape of flammable","l":"Zonas Prohibidas, Restringuidas, Peligrosas","c":"P"},"geometry":{"type":"LineString","coordinates":[[-71.49217134601305,-32.77295509801514,0.0],[-71.48275383001328,-32.78210481689771,0.0],[-71.48551604646386,-32.78492289895632,0.0],[-71.49493735158673,-32.77568485952549,0.0],[-71.49217134601305,-32.77295509801514,0.0]]}},{"type":"Feature","properties":{"n":"SC-R52 FIR ANTOFAGASTA","d":"SC-R52 FIR ANTOFAGASTA \nEspacio aéreo comprendido en: \n\n23 17 00 S 70 24 00 W \n23 17 30 S 70 03 08 W \n23 28 30 S 70 24 00 W \n23 28 30 S 70 03 08 W \t\n\nFL 245 GND\t \nEjercicios de Tiro\nFiring exercises\n\n Durante los ejercicios se deberá coordinar con Antofagasta Radar 120.9 ó 119.3 MHz y/o Antofagasta Torre 118.1 MHz o Frecuencia Alternativa Santiago Control 128.3 MHz para información de tráfico en los circuitos de espera publicados. Cruce permitido previa coordinación con ATC, solo para aeronaves con FPL IFR.","l":"Zonas Prohibidas, Restringuidas, Peligrosas","c":"P"},"geometry":{"type":"Polygon","coordinates":[[[-70.39866581235555,-23.28304452080528,1000.0],[-70.39987559575398,-23.47502230235348,1000.0],[-70.05196782573358,-23.47497241438775,1000.0],[-70.05109846154554,-23.29169040297461,1000.0],[-70.39866581235555,-23.28304452080528,1000.0]]]}},{"type":"Feature","properties":{"n":"SC-R25 FIR ANTOFAGASTA\nAntofagasta Este","d":"SC-R25 FIR ANTOFAGASTA\nAntofagasta Este \n\nEspacio Aéreo/Airspace:\n\n23 11 00 S 70 15 00 W \n22 46 00 S 69 13 00 W \nsiguiendo arco 25 VOR/DME LOA hasta\nfollowing arc 25 NM VOR/DME LOA VOR until\n22 53 00 S 69 02 00 W \n25 30 00 S 69 31 41 W \n25 30 00 S 69 57 24 W \n23 44 00 S 70 18 00 W \t\n\nFL 450 GND\t\nHJ \nVuelos de Entrenamiento FACH \nFACH training area\n \nLas aeronaves con FPL VFR que soliciten sobrevolar la zona, deberán presentar su FPL con al menos 1 hora de antelación, especificar ruta a seguir, ajustarse a su ETD y notificar cualquier cambio en su FPL lo antes posible. Uso respondedor obligatorio, excepto autorización especial.","l":"Zonas Prohibidas, Restringuidas, Peligrosas","c":"P"},"geometry":{"type":"Polygon","coordinates":[[[-70.24440014183155,-23.18837712016611,1371.0],[-70.29662391345558,-23.73598572312682,1371.0],[-69.95295362511118,-25.50225299251916,1371.0],[-69.51627117566325,-25.5035760356186,1371.0],[-69.07785593122465,-23.12528454214009,1371.0],[-69.12992668001718,-22.84890673080845,1371.0],[-69.21659841117967,-22.76568076773447,1371.0],[-70.24440014183155,-23.18837712016611,1371.0]]]}},{"type":"Feature","properties":{"n":"SC-P28 FIR SANTIAGO","d":"SC-P28 FIR SANTIAGO \nPalacio La Moneda Espacio aéreo/Airspace: \n33 26 28 S 70 39 17 W \n33 26 28 S 70 39 14 W \n33 26 39 S 70 39 11 W \n33 26 40 S 70 39 15 W\n\n3 000 FT ALT GND\nH24","l":"Zonas Prohibidas, Restringuidas, Peligrosas","c":"P"},"geometry":{"type":"Polygon","coordinates":[[[-70.65367090846344,-33.44102892711152,1200.0],[-70.65472063804611,-33.4411164696754,1200.0],[-70.65416369078872,-33.44444390114142,1200.0],[-70.65303706880961,-33.44415842391761,1200.0],[-70.65367090846344,-33.44102892711152,1200.0]]]}},{"type":"Feature","properties":{"n":"SC-P 50 FIR SANTIAGO-VALPARAISO","d":"SC-P 50 FIR SANTIAGO-VALPARAISO \n\nCírculo con radio 2NM centrado en: \n33 01 00 S\n71 38 00 W\n\n3 000 FT GND / MSL\t\nARMADA DE CHILE\nFLT IFR Viña del Mar TWR\n 118.4\n\nFLT VFR Control Molo 126.8\n\n H24","l":"Zonas Prohibidas, Restringuidas, Peligrosas","c":"P"},"geometry":{"type":"Point","coordinates":[-71.63333333333334,-33.01666666666667,0.0]}},{"type":"Feature","properties":{"n":"2 NM","d":"","l":"Zonas Prohibidas, Restringuidas, Peligrosas","c":"P"},"geometry":{"type":"LineString","coordinates":[[-71.6111612243587,-33.04265725118489,8.31709547523016],[-71.61720901978946,-33.0454904503251,14.79613851986413],[-71.62375216024581,-33.04739995643988,55.25153254776777],[-71.63059165118315,-33.04832768883352,113.6989174684216],[-71.63751945464396,-33.04824542768279,176.3021953323676],[-71.64432483739643,-33.04715567524838,242.414636571954],[-71.65080080241445,-33.04509157950655,248.0431356407689],[-71.65675040483427,-33.04211592256295,117.6954440523871],[-71.66199275727735,-33.0383192051186,4.436210759811541],[-71.66636853949993,-33.03381688615192,-0.2101538622613798],[-71.66974484333662,-33.02874586295941,-3.953753484568711],[-71.67201920524249,-33.02326029993461,-15.89036293428767],[-71.6731227046198,-33.01752693423499,-38.05526306922416],[-71.67302203560965,-33.01172000219354,-62.56933340387521],[-71.67172049210278,-33.00601594151846,-79.31039232654783],[-71.6692578393005,-33.00058803069641,-93.66276180658595],[-71.66570907914786,-32.99560112842804,-107.3912079375274],[-71.66118215031722,-32.99120667239863,-114.2403713861421],[-71.65859381802949,-32.9892741257114,-115.3283807651934],[-71.65286574442725,-32.98601176075616,-120.115020577293],[-71.64654967371763,-32.98363297185723,-119.1541550905931],[-71.64323052343173,-32.98279859602658,-119.3767145716635],[-71.63639598107177,-32.98187154974145,-117.819732758692],[-71.62947338935834,-32.98195374587404,-114.6289184447391],[-71.6260448027229,-32.98237373109507,-111.7879527974661],[-71.61938317586551,-32.98395553617156,-107.5741422097372],[-71.61314987718613,-32.9864833313462,-102.0505423134704],[-71.6102536578573,-32.98807906151347,-100.6280282471306],[-71.60501206261098,-32.99187361392691,-96.02580143717726],[-71.6006352270944,-32.99637378974951,-84.26605386920198],[-71.5988138074836,-32.99884651502084,-70.51449100681931],[-71.5959742355741,-33.0041433442898,-41.51421657296878],[-71.59427428876998,-33.00977320209295,-18.4288291156676],[-71.59386928243691,-33.01265983086014,-7.671325013171377],[-71.59396473592666,-33.01846682484156,-0.4459238380584712],[-71.59526142878032,-33.02417169161885,-0.1331893340665911],[-71.59634939812396,-33.0269313820215,0.2101148118171066],[-71.59936336401947,-33.03216038525054,1.455885423061964e-06],[-71.60341499492931,-33.03687104650876,3.803824436556991],[-71.605792625807,-33.03898650345045,0.8704137598661136],[-71.6111612243587,-33.04265725118489,8.31709547523016]]}},{"type":"Feature","properties":{"n":"SC – P 30 – Palacio Presidencial Viña del Mar","d":"SC – P 30 FIR SANTIAGO - Viña del Mar \n\nCírculo de radio 500 m centrado en: \nCircle radius 500 m centred in: \n33 01 05 S 71 33 40 W \t\t\n\n1200 FT ALT\n GND / MSL IFR\t\n\n50 FT VFR\nGND / MSL\n\nH24\nInstrucciones  Instructions\nViña del Mar Torre 118.4","l":"Zonas Prohibidas, Restringuidas, Peligrosas","c":"P"},"geometry":{"type":"Point","coordinates":[-71.56416666666667,-33.02055555555555,0.0]}},{"type":"Feature","properties":{"n":"Medida de círculo","d":"","l":"Zonas Prohibidas, Restringuidas, Peligrosas","c":"P"},"geometry":{"type":"LineString","coordinates":[[-71.56897217394094,-33.0184946849379,9.276312763673022e-07],[-71.5678865349555,-33.01722727420719,-1.463674693321537e-06],[-71.56634942716995,-33.01634762852101,-1.18396907945506e-06],[-71.56454623897224,-33.01596183479919,-1.848889513431318e-06],[-71.56225032093026,-33.01623874785709,-2.341737886218831e-06],[-71.56030904167454,-33.01730329893542,8.727585399580496],[-71.55925987908915,-33.01859212805445,12.0979219100682],[-71.55879967977485,-33.02010411224946,13.97941463071335],[-71.5589839797275,-33.02165688814144,13.88631099441911],[-71.5600795845959,-33.0233712665288,17.70945645810093],[-71.56193671422436,-33.02453677051522,20.61113054054359],[-71.56420734995766,-33.02493497560832,40.9336455957196],[-71.5660362084971,-33.02464559297739,32.38709148872648],[-71.56763669895419,-33.02384919099209,26.20015959391851],[-71.56902661886795,-33.02229200125569,8.861026659890747],[-71.56950138257984,-33.02038819256564,0.7857199352521735],[-71.56897217394094,-33.0184946849379,9.276312763673022e-07]]}},{"type":"Feature","properties":{"n":"SC-P77 FIR SANTIAGO - Sector San Damián","d":"SC-P77 FIR SANTIAGO - Sector San Damián (1 NM NE Cerro Calán)\nPolígono delimitado por siguientes COORD GEO: \n33 22 58.47 S 70 31 53.01 W \n33 22 39.40 S 70 31 15.09 W \n33 23 08.35 S 70 30 52.24 W \n33 23 21.79 S 70 31 24.08 W\n3800 FT AMSL \nGND\nH24","l":"Zonas Prohibidas, Restringuidas, Peligrosas","c":"P"},"geometry":{"type":"Polygon","coordinates":[[[-70.53138720439608,-33.3829076105976,1158.0],[-70.52335674164247,-33.38938687228537,1158.0],[-70.51450954311154,-33.38567480237561,1158.0],[-70.52084025652039,-33.37762164861199,1158.0],[-70.53138720439608,-33.3829076105976,1158.0]]]}},{"type":"Feature","properties":{"n":"SC- R1 FIR SANTIAGO – La Ligua","d":"SC- R1 FIR SANTIAGO – La Ligua \nEspacio Aéreo: \n32 25 00 S 71 05 00 W \n32 40 00 S 71 05 00 W \n32 40 00 S 71 23 30 W \n32 25 00 S 71 23 00 W\nFL 90 3000 FT ALT\nHJ Vuelo de entrenamiento Armada \nCDN Viña del Mar Torre 118.4 MHz \nUso QNH SCVM \nPunto de Notificación: Norte: La Ligua, Noreste: Cabildo, Norweste Pichicuy, Sur: El Melón.","l":"Zonas Prohibidas, Restringuidas, Peligrosas","c":"P"},"geometry":{"type":"Polygon","coordinates":[[[-71.39166444898713,-32.66672112450624,0.0],[-71.0833342376365,-32.66671997211671,0.0],[-71.08337301910474,-32.41674686532904,0.0],[-71.38332714272327,-32.41667109805591,0.0],[-71.39166444898713,-32.66672112450624,0.0]]]}},{"type":"Feature","properties":{"n":"SC-R2 FIR SANTIAGO - Rancagua","d":"SC-R2 FIR SANTIAGO - Rancagua \nEspacio Aéreo: \n34 12 00 S 70 44 00 W \n34 14 00 S 70 35 00 W \n34 30 00 S 70 39 00 W \n34 30 00 S 70 52 00 W\nFL 90 3000 FT ALT\nHJ Actividad anunciada por NOTAM\nVuelo de entrenamiento-Ejercito\nCDN Rancagua TWR 118.65 MHz\nUso QNH SCRG","l":"Zonas Prohibidas, Restringuidas, Peligrosas","c":"P"},"geometry":{"type":"Polygon","coordinates":[[[-70.73367995286593,-34.19950035183829,0.0],[-70.86634723975558,-34.50065104520364,0.0],[-70.64985652827072,-34.49992330017918,0.0],[-70.58314833090945,-34.2331624076454,0.0],[-70.73367995286593,-34.19950035183829,0.0]]]}},{"type":"Feature","properties":{"n":"SC- R6 FIR SANTIAGO - Rancagua","d":"SC- R6 FIR SANTIAGO - Rancagua \nEspacio Aéreo:\n34 04 00 S 70 54 00 W\n34 04 00 S 70 46 30 W\n34 30 00 S 71 00 00 W \n34 30 00 S 71 15 00 W \n34 16 00 S 71 20 00 W\n7000 FT ALT 3000 FT ALT\nHJ Actividad anunciada por NOTAM\nVuelo de entrenamiento-Ejercito\n CDN Rancagua TWR 118.65 MHz Uso QNH SCRG","l":"Zonas Prohibidas, Restringuidas, Peligrosas","c":"P"},"geometry":{"type":"Polygon","coordinates":[[[-71.33346693311114,-34.26682396696941,999.0],[-71.25000773678637,-34.50001207143494,999.0],[-70.99995680425235,-34.49958071517686,999.0],[-70.774925244144,-34.0665578216107,999.0],[-70.89998648580037,-34.06677883333472,999.0],[-71.33346693311114,-34.26682396696941,999.0]]]}},{"type":"Feature","properties":{"n":"SC- R7 FIR SANTIAGO - Peldehue","d":"SC- R7 FIR SANTIAGO - Peldehue \nEspacio Aéreo: \n33 06 49 S 70 41 08 W \n33 06 33 S 70 40 46 W \n33 09 29 S 70 38 21 W \n33 09 44 S 70 38 37 W\n\n3600 FT AMSL GND\n\nHJ Ejercicio Paracaidismo Activación NOTAM","l":"Zonas Prohibidas, Restringuidas, Peligrosas","c":"P"},"geometry":{"type":"Polygon","coordinates":[[[-70.67944010325023,-33.10916551711208,1098.0],[-70.6855521634498,-33.11361099203829,1098.0],[-70.64361148808659,-33.16222406774529,1098.0],[-70.63916525805094,-33.15805445078475,1098.0],[-70.67944010325023,-33.10916551711208,1098.0]]]}},{"type":"Feature","properties":{"n":"SC-R8 FIR SANTIAGO","d":"SC-R8 FIR SANTIAGO \nEspacio Aéreo\n33 45 00 S 70 42 00 W \n33 45 00 S 70 30 00 W \n33 55 00 S 70 30 00 W \n33 55 00 S 70 42 00 W\n\n8500 FT 5000 FT\n\nIVNO MON–SUN / HOL 1200 – FCCV VRNO MON – SUN / HOL 1100- FCCV Instrucción FLT MIL \nCDN Santiago Radar 121.1 MHz / 120.4 MHz o / Santiago Información 122.4 / 123.8 MHz.","l":"Zonas Prohibidas, Restringuidas, Peligrosas","c":"P"},"geometry":{"type":"Polygon","coordinates":[[[-70.69999515779377,-33.75000228441297,1524.0],[-70.7000010061866,-33.91669378017788,1524.0],[-70.50011079949884,-33.91683388022052,1524.0],[-70.49997628222066,-33.74992377512275,1524.0],[-70.69999515779377,-33.75000228441297,1524.0]]]}},{"type":"Feature","properties":{"n":"SC-R17 FIR PUNTA ARENAS","d":"SC-R17 FIR PUNTA ARENAS Sector Seno Otway \n\nEspacio Aéreo: \n52 57 30 S 71 15 00 W \n52 57 30 S 71 12 30 W \n53 00 00 S 71 12 30 W \n53 00 00 S 71 15 00 W\n\n1000 FT AGL GND\n\nH24 Sobre vuelo restringido por peligro aviario","l":"Zonas Prohibidas, Restringuidas, Peligrosas","c":"P"},"geometry":{"type":"Polygon","coordinates":[[[-71.2500065732551,-52.99997496324187,0.0],[-71.20842641202945,-52.99986817157108,0.0],[-71.20839810648314,-52.95828808632983,0.0],[-71.24999116172971,-52.95800642578082,0.0],[-71.2500065732551,-52.99997496324187,0.0]]]}},{"type":"Feature","properties":{"n":"SC-R18 FIR PUNTA ARENAS -  - Sector Isla Magdalena","d":"SC-R18 FIR PUNTA ARENAS - Sector Isla Magdalena \nEspacio Aéreo: Círculo 1 NM radio centrado en: \n52 55 00 S 70 34 00 W\n\n1000 FT AGL GND\n\nH24  Sobre vuelo restringido por peligro aviario","l":"Zonas Prohibidas, Restringuidas, Peligrosas","c":"P"},"geometry":{"type":"Point","coordinates":[-70.56666666666666,-52.91666666666666,0.0]}},{"type":"Feature","properties":{"n":"SC-R27 FIR SANTIAGO - Escuela de Aviación","d":"SC-R27 FIR SANTIAGO - Escuela de Aviación \nEspacio Aéreo/Airspace: \n33 30 00 S 70 39 50 W \n33 32 30 S 70 37 15 W \n33 37 00 S 70 36 30 W \n33 37 00 S 70 43 00 W \n33 30 00 S 70 38 00 W \n33 33 15 S 70 36 15 W \n33 38 45 S 70 42 00 W\n\n9 000 FT AMSL GND\n\nH24 Vuelos de Instrucción Escuela de Aviación. \nSe autoriza cruce vértice Sur / Weste ACFT operando corredores visuales. \nPara ingreso a zona SC-R27 solicitar instrucciones a El Bosque TWR 118.8 MHZ, fuera de horario atención de la TWR solicitar instrucciones Santiago Información 122.4 MHZ.","l":"Zonas Prohibidas, Restringuidas, Peligrosas","c":"P"},"geometry":{"type":"Polygon","coordinates":[[[-70.71666328785302,-33.61667427012714,2743.0],[-70.69999940567293,-33.64583613402846,2743.0],[-70.60832534036349,-33.61666189163963,2743.0],[-70.60416473082785,-33.55416659322101,2743.0],[-70.62083473113904,-33.54167112405241,2743.0],[-70.63333475566924,-33.5000055397857,2743.0],[-70.6638869878374,-33.50000144823058,2743.0],[-70.71666328785302,-33.61667427012714,2743.0]]]}},{"type":"Feature","properties":{"n":"SC - P44 FIR SANTIAGO - La Reina","d":"Círculo de 500 Metros de radio centrado en:\n33º25`43`` S 70º 31`28`` W\n3.300 FT\nGND\nH 24","l":"Zonas Prohibidas, Restringuidas, Peligrosas","c":"P"},"geometry":{"type":"Point","coordinates":[-70.52444444444444,-33.42861111111111,1006.0]}},{"type":"Feature","properties":{"n":"SC-P44","d":"","l":"Zonas Prohibidas, Restringuidas, Peligrosas","c":"P"},"geometry":{"type":"LineString","coordinates":[[-70.52936736706519,-33.43042370519203,1021.0],[-70.52982009492713,-33.42891072315695,1021.0],[-70.52947659890202,-33.42698824769305,1021.0],[-70.5281917130518,-33.42536709494891,1021.0],[-70.52620628613882,-33.42435109167632,1021.0],[-70.52389241605873,-33.42413064299159,1021.0],[-70.52168372810392,-33.42474706146347,1021.0],[-70.51999414428185,-33.42608482811912,1021.0],[-70.51923395637388,-33.42750938020872,1021.0],[-70.5191728259559,-33.42945244248056,1021.0],[-70.51984243272948,-33.43090832147187,1021.0],[-70.52106839906114,-33.43208521841321,1021.0],[-70.52270282476435,-33.43284113476199,1021.0],[-70.52454850958506,-33.43308486248274,1021.0],[-70.52638275232074,-33.43278699317419,1021.0],[-70.52798423298202,-33.4319834679933,1021.0],[-70.52936736706519,-33.43042370519203,1021.0]]}},{"type":"Feature","properties":{"n":"SC- R41 FIR SANTIAGO - Lo Aguirre","d":"Círculo de 1 NM de radio centrado en :\n33º 27`01`` S 70º 55`56`` W\n\n3.500 FT\nGND\n\nIVNO DLY BTN 1200-SS\nVRNO DLY BTN 1100-SS","l":"Zonas Prohibidas, Restringuidas, Peligrosas","c":"P"},"geometry":{"type":"Point","coordinates":[-70.93222222222222,-33.45027777777778,0.0]}},{"type":"Feature","properties":{"n":"SC R-41 Centro de Estudios Nucelares","d":"","l":"Zonas Prohibidas, Restringuidas, Peligrosas","c":"P"},"geometry":{"type":"LineString","coordinates":[[-70.95148439789996,-33.4543181090507,926.3895804054715],[-70.95203509989751,-33.45146573559432,986.6566900315025],[-70.95198372131762,-33.44857691033007,955.3443634878338],[-70.95133188300863,-33.4457394233392,918.8170369520035],[-70.94927656652743,-33.44176698585005,901.286101358502],[-70.94724875981353,-33.4394252166315,988.72485490538],[-70.94476452258516,-33.43741284417426,913.3765840438674],[-70.94189934853696,-33.43579099928028,953.3047600892121],[-70.93708026843552,-33.43419461660794,895.7163423153642],[-70.93366230437321,-33.43373508678135,836.1012621062106],[-70.92848633955393,-33.43398768031845,986.5014558276479],[-70.92356499329844,-33.4353495197596,983.7224988486881],[-70.92059253821486,-33.4368307982592,789.9478526700339],[-70.91682167894726,-33.43980060851886,648.7174118368531],[-70.91487771493898,-33.44219137911619,670.4901948038458],[-70.9134607548777,-33.44482751053776,541.7212742225083],[-70.91261389942788,-33.44762890980644,492.9343102413519],[-70.91246403438014,-33.45195394031211,496.540101549686],[-70.91311558305644,-33.45479148094331,497.5757572542263],[-70.91434792219324,-33.45749149109962,501.2707415504015],[-70.91612364569494,-33.45997190150475,502.9867455707881],[-70.9183888179106,-33.46215731112664,510.5648434579907],[-70.92107460931466,-33.46398128123629,520.0209212933102],[-70.92409938717812,-33.46538835743252,559.5608714954011],[-70.9273711978229,-33.46633575782545,672.7157403764483],[-70.93079056484939,-33.46679467572065,589.3476533661001],[-70.93425351784508,-33.46675115690701,579.4492137168063],[-70.93765475885002,-33.46620652466334,592.4433211603451],[-70.9424159745518,-33.46449026623492,726.3193877972188],[-70.94522230682195,-33.46279728159983,865.8358373149612],[-70.94763345305935,-33.4607234007607,968.7698851483453],[-70.94957614084642,-33.45833167336222,1050.680391038404],[-70.95148439789996,-33.4543181090507,926.3895804054715]]}},{"type":"Feature","properties":{"n":"SC - R58 FIR SANTIAGO - Codegua","d":"SC R 58 FIR SANTIAGO - Codegua\n\nEspacio Aéreo.\n\n33 56 00 S 70 41 00 W \n33 55 00 S 70 38 00 W \n34 08 00 S 70 37 00 W \n34 08 00 S 70 42 00 W \n\n8500 FT\n5000 FT\n\nHorario activación zona:\n\nIVNO MON - SUN / HOL 1200 FCCV\nVRNO MON - SUN / HOL 1100 FCCV\n\nInstrucción FLT MIL\n\nCoordinación con Santiago Radar 121.1 MHz / 120.4 MHz o Santiago Información 122.4 MHz / 123.8 MHz.\nInformación 122.4 MHz","l":"Zonas Prohibidas, Restringuidas, Peligrosas","c":"P"},"geometry":{"type":"Polygon","coordinates":[[[-70.68332919144035,-33.9333121933182,0.0],[-70.6999182855843,-34.13327230325849,0.0],[-70.61663971344596,-34.13323986798051,0.0],[-70.63328269835029,-33.91662580016548,0.0],[-70.68332919144035,-33.9333121933182,0.0]]]}},{"type":"Feature","properties":{"n":"SC - R60 FIR SANTIAGO - Paine","d":"SC-R60 FIR SANTIAGO - Paine\n\nEspacio aéreo/Airspace: \n33 45 00 S 70 49 00 W\n33 47 00 S 70 47 00 W \n33 55 00 S 70 47 00 W \n33 55 00 S 70 58 00 W \n33 49 00 S 70 58 00 W\n\n4 500 FT \n3 000 FT\n\nActivación zona \nIVNO MON–SUN/HOL 1200–FCCV VRNO MON-SUN/HOL 1100 - FCCV \n\nInstrucción FLT MIL MIL FLT Intructions \n\nCoordinación con Santiago Información 122.4 MHZ / 123.8 MHz o Santiago Radar 121.1 MHz /120.4 MHz.","l":"Zonas Prohibidas, Restringuidas, Peligrosas","c":"P"},"geometry":{"type":"Polygon","coordinates":[[[-70.78329521377229,-33.78329982568329,0.0],[-70.81666070951249,-33.74998703417572,0.0],[-70.96666004751503,-33.8166407025988,0.0],[-70.966608431994,-33.91653892813503,0.0],[-70.78332817834607,-33.91661609579319,0.0],[-70.78329521377229,-33.78329982568329,0.0]]]}},{"type":"Feature","properties":{"n":"SC-R61 FIR SANTIAGO","d":"SC-R61 FIR SANTIAGO\n\nEspacio Aéreo: \n33 40 30 S 70 39 00 W \n33 45 00 S 70 30 00 W \n33 39 00 S 70 30 00 W \n33 45 00 S 70 39 00 W\n\n9000 FT AMSL\n6500 FT AMSL\n\nIVNO DLY 1200-FCCV\nVRNO DLY 1100-FCCV\nInstrucción FLT MIL MIL \nFLT instruction CDN Santiago Radar 120.4 / 121.1 MHz o or:\nSantiago Información 122.4 MHz","l":"Zonas Prohibidas, Restringuidas, Peligrosas","c":"P"},"geometry":{"type":"Polygon","coordinates":[[[-70.64969735836213,-33.67510490649568,1981.0],[-70.65037709332258,-33.74938888257475,1981.0],[-70.49953463360467,-33.74971039066247,1981.0],[-70.49988210679152,-33.65003244556678,1981.0],[-70.64969735836213,-33.67510490649568,1981.0]]]}},{"type":"Feature","properties":{"n":"SC-R62 FIR SANTIAGO","d":"SC-R62 FIR SANTIAGO\n\nEspacio Aéreo:\n33 41 00 S 70 42 00 W\n33 45 00 S 70 39 00 W \n33 40 30 S 70 39 00 W \n33 45 00 S 70 42 00 W\n\n9000 FT AMSL \n6500 FT AMSL\n\nIVNO DLY 1200-FCCV \nVRNO DLY 1100-FCCV\nInstrucción FLT MIL \nCDN Santiago Radar 120.4 / 121.1 MHz o Santiago Información 122.4 MHz","l":"Zonas Prohibidas, Restringuidas, Peligrosas","c":"P"},"geometry":{"type":"Polygon","coordinates":[[[-70.64993596134477,-33.7499711013185,1981.0],[-70.64999392184077,-33.67499268319039,1981.0],[-70.69992187162696,-33.68343340502095,1981.0],[-70.69991361295094,-33.7500272827826,1981.0],[-70.64993596134477,-33.7499711013185,1981.0]]]}},{"type":"Feature","properties":{"n":"SC-R68 FIR SANTIAGO - María Pinto","d":"SC-R68 FIR SANTIAGO - María Pinto\n\nEspacio aéreo:\n33 27 00 S 71 13 00 W \n33 27 00 S 71 00 00 W \n33 32 00 S 71 13 00 W \n33 32 00 S 71 00 00 W\n\nFL 70 GND\n\nH24 CDN Santiago ACC","l":"Zonas Prohibidas, Restringuidas, Peligrosas","c":"P"},"geometry":{"type":"Polygon","coordinates":[[[-71.21666667865614,-33.53332111412806,0.0],[-70.99999939143902,-33.53323049627303,0.0],[-70.99999138344995,-33.44996258825298,0.0],[-71.21666653343242,-33.44998861542634,0.0],[-71.21666667865614,-33.53332111412806,0.0]]]}},{"type":"Feature","properties":{"n":"SC-R69 FIR ANTOFAGASTA","d":"SC-R69 FIR ANTOFAGASTA\n\nEspacio aéreoe: \n22 30 00 S 71 30 00 W \n22 30 00 S 71 00 00 W \n23 25 00 S 71 00 00 W \n23 23 00 S 71 30 00 W\n\nFL 450 MSL\n\nActivada por NOTAM \nEjercicios de Tiro Aire – Aire \nInstrucciones Antofagasta Radar 119.3 ó 120.9 Mhz ó Santiago Radar 128.3 y/o 128.7 MHz.","l":"Zonas Prohibidas, Restringuidas, Peligrosas","c":"P"},"geometry":{"type":"Polygon","coordinates":[[[-71.50022578702865,-23.38422096557568,0.0],[-71.00062244848456,-23.41692280250016,0.0],[-70.99991078271702,-22.50601251759301,0.0],[-71.50119860585346,-22.49850077772965,0.0],[-71.50022578702865,-23.38422096557568,0.0]]]}},{"type":"Feature","properties":{"n":"SC-R71 FIR SANTIAGO Llano de San Rafael","d":"SC-R71 FIR SANTIAGO Llano de San Rafael\n\nEspacio aéreo:\n34 08 36 S 71 32 58 W \n34 08 38 S 71 30 38 W \n34 12 39 S 71 30 45 W \n34 12 36 S 71 33 05 W\n\n3000 FT GND\n\nHJ\nActivada por NOTAM \nEjercicios y entrenamiento militar \nCDN Rancagua TWR FREQ 118.65 MHZ\nTEL TWR (72) 203134 ARO (72) 203225","l":"Zonas Prohibidas, Restringuidas, Peligrosas","c":"P"},"geometry":{"type":"Polygon","coordinates":[[[-71.54942557923464,-34.14329153007102,0.0],[-71.5513885828562,-34.2099906197189,0.0],[-71.5125008804607,-34.21080275348327,0.0],[-71.51056076270035,-34.14387660424821,0.0],[-71.54942557923464,-34.14329153007102,0.0]]]}},{"type":"Feature","properties":{"n":"SC-D11 FIR SANTIAGO-Pirque","d":"SC-D11 FIR SANTIAGO-Pirque\n\nEspacio Aéreo: \n33 40 00 S 70 39 00 W \n33 37 00 S 70 30 00 W \n33 45 00 S 70 30 00 W \n33 45 00 S 70 39 00 W\n\n5.500 FT \n1.000 FT AGL\n\nVuelos de Instrucción Club Aéreos \nAeronaves deberán mantener escucha en FREQ 121.6 MHz Tobalaba TWR, e irradiarán su ingreso y abandono de la zona.","l":"Zonas Prohibidas, Restringuidas, Peligrosas","c":"P"},"geometry":{"type":"Polygon","coordinates":[[[-70.64998835947857,-33.74994986498686,0.0],[-70.49997069567223,-33.74996947068268,0.0],[-70.49999450999104,-33.61665629534208,0.0],[-70.6499619168418,-33.66668535673543,0.0],[-70.64998835947857,-33.74994986498686,0.0]]]}},{"type":"Feature","properties":{"n":"SC - D4 FIR SANTIAGO - Talagante","d":"Espacio Aéreo: Círculo radio 1 NM \ncentrado en: 33 38 32 S 70 55 25 W\n\n2500 FT ALT \nAMSL GND\n\nH24 \n\nPlanta Química","l":"Zonas Prohibidas, Restringuidas, Peligrosas","c":"P"},"geometry":{"type":"Point","coordinates":[-70.92361111111111,-33.64222222222222,762.0]}},{"type":"Feature","properties":{"n":"SC - D5 FIR SANTIAGO-Sector Helipuerto","d":"SC - D5 FIR SANTIAGO-Sector Helipuerto Los Cerrillos \n\nLos Cerrillos Espacio Aéreo: círculo radio 1 NM \ncentrado en: 33 29 47 S 70 41 43 W\n\n3.000 FT AMSL GND\nH24","l":"Zonas Prohibidas, Restringuidas, Peligrosas","c":"P"},"geometry":{"type":"Point","coordinates":[-70.69527777777778,-33.49638888888889,913.9999999999999]}},{"type":"Feature","properties":{"n":"SC-D12 FIR ANTOFAGASTA-Observatorio Cerro Páranal","d":"SC-D12 FIR ANTOFAGASTA-Observatorio Cerro Páranal\n\nSector Cerro Paranal (69 NM FAG VOR/DME) Emisión Rayos Laser \nárea centrada en siguiente coordenada geográfica: 243737S 702413W\nsiguientes radios: GND a FL150 = 1.8 NM, sobre FL150 a FL300 = 6.1 NM, sobre FL300 A FL450 = 10,4 NM. Área se expande hacia niveles superiores basadas en cono invertido de 60 grados a cada lado de la vertical. Afecta AWY U/V/W-200, UW-204, U/T-106 y T114. Instrucciones Santiago Control 128.3 Mhz.\n\nUNL GND\nEmisión Rayos Laser DLY SS-SR","l":"Zonas Prohibidas, Restringuidas, Peligrosas","c":"P"},"geometry":{"type":"Point","coordinates":[-70.40361111111112,-24.62694444444444,0.0]}},{"type":"Feature","properties":{"n":"SC-D13 FIR SANTIAGO – AD Cuatro Diablos","d":"SC-D13 FIR SANTIAGO – AD Cuatro Diablos Espacio Aéreo\ncírculo radio 1 NM centrado en: 334038S 710636W.\n\nFl 180 GND\n\nHJ Paracaidismo\nInstrucciones Santiago RDR 121.1 MHz Santiago INFO 122.4 MHz. \n\nActividad sujeto autorización ACC.","l":"Zonas Prohibidas, Restringuidas, Peligrosas","c":"P"},"geometry":{"type":"Point","coordinates":[-71.11,-33.67722222222222,0.0]}},{"type":"Feature","properties":{"n":"SC-D22 FIR SANTIAGO","d":"SC-D22 FIR SANTIAGO\n\nEspacio aéreo: Área definida por la siguientes coordenadas geográficas:\n33 41 00 S 70 42 00 W\n33 40 30 S 70 39 00 W \n33 45 00 S 70 39 00 W \n33 45 00 S 70 42 00 W\n\n6000 FT AMSL 4000 FT AMSL\n\nAcrobacias aéreas ACFT IVNO DLY 1200-SS VRNO DLY 1100-SS\nInstrucciones de ingreso y salida Zona SC-D 22: Santiago Información 122.4 MHz. ALTN 128.3 MHz","l":"Zonas Prohibidas, Restringuidas, Peligrosas","c":"P"},"geometry":{"type":"Polygon","coordinates":[[[-70.64994649071886,-33.67498810463385,1828.0],[-70.69964547179934,-33.68322769203214,1828.0],[-70.69983724309655,-33.74983465769989,1828.0],[-70.64998055414624,-33.74999473256798,1828.0],[-70.64994649071886,-33.67498810463385,1828.0]]]}},{"type":"Feature","properties":{"n":"SC-D33 FIR PUNTA ARENAS-Pecket Harbour","d":"SC-D33 FIR PUNTA ARENAS-Pecket Harbour\n\nEspacio Aéreo: \n52 45 30 S 71 03 00 W \n52 33 30 S 70 29 00 W \n52 45 00 S 70 17 30 W \n52 57 00 S 70 52 00 W\n\nFL 245 GND\nH24","l":"Zonas Prohibidas, Restringuidas, Peligrosas","c":"P"},"geometry":{"type":"Polygon","coordinates":[[[-71.04838681850673,-52.75429298713431,0.0],[-70.8666329868287,-52.94996605083403,0.0],[-70.29164463994945,-52.74975303262727,0.0],[-70.48336658397503,-52.55822100923223,0.0],[-71.04838681850673,-52.75429298713431,0.0]]]}},{"type":"Feature","properties":{"n":"Polígono sin título","d":"","l":"Zonas Prohibidas, Restringuidas, Peligrosas","c":"P"},"geometry":{"type":"Polygon","coordinates":[[[-109.3400027080532,-27.14960704660956,0.0],[-109.3395054968946,-27.15020928250131,0.0],[-109.3379702345165,-27.14925751209574,0.0],[-109.3384253618787,-27.14858333201423,0.0],[-109.3400027080532,-27.14960704660956,0.0]]]}},{"type":"Feature","properties":{"n":"SC-P28 FIR SANTIAGO","d":"SC-P28 FIR SANTIAGO \nPalacio La Moneda Espacio aéreo/Airspace: \n33 26 28 S 70 39 17 W \n33 26 28 S 70 39 14 W \n33 26 39 S 70 39 11 W \n33 26 40 S 70 39 15 W\n\n3 000 FT ALT GND\nH24","l":"Zonas Prohibidas, Restringuidas, Peligrosas (#2)","c":"P"},"geometry":{"type":"Polygon","coordinates":[[[-70.65367090846344,-33.44102892711152,23.0],[-70.65472063804611,-33.4411164696754,23.0],[-70.65416369078872,-33.44444390114142,23.0],[-70.65303706880961,-33.44415842391761,23.0],[-70.65367090846344,-33.44102892711152,23.0]]]}},{"type":"Feature","properties":{"n":"SCPB Ad Puelo Bajo COCHAMÓ","d":"","l":"AERÓDROMOS","c":"P"},"geometry":{"type":"Point","coordinates":[-72.30289915608097,-41.6594925256306,0.0]}},{"type":"Feature","properties":{"n":"SCPK Ad Puerto Cisnes CISNES","d":"","l":"AERÓDROMOS","c":"P"},"geometry":{"type":"Point","coordinates":[-72.69805555555556,-44.73916666666667,0.0]}},{"type":"Feature","properties":{"n":"SCPQ Ad Mocopulli DALCAHUE","d":"","l":"AERÓDROMOS","c":"P"},"geometry":{"type":"Point","coordinates":[-73.71555555555555,-42.34027777777778,0.0]}},{"type":"Feature","properties":{"n":"SCPU Ad. Peulla PEULLA","d":"","l":"AERÓDROMOS","c":"P"},"geometry":{"type":"Point","coordinates":[-72.00833333333334,-41.05416666666667,0.0]}},{"type":"Feature","properties":{"n":"SCPM Ad. Pichilemu PICHILEMU","d":"","l":"AERÓDROMOS","c":"P"},"geometry":{"type":"Point","coordinates":[-72.01972222222223,-34.39583333333334,0.0]}},{"type":"Feature","properties":{"n":"SCPC Ad. Pucón PUCÓN","d":"","l":"AERÓDROMOS","c":"P"},"geometry":{"type":"Point","coordinates":[-71.92083333333333,-39.29138888888889,0.0]}},{"type":"Feature","properties":{"n":"SCPV Ad. El Mirador PUERTO VARAS","d":"","l":"AERÓDROMOS","c":"P"},"geometry":{"type":"Point","coordinates":[-72.94666666666667,-41.34944444444444,0.0]}},{"type":"Feature","properties":{"n":"SCPR Ad. Corte Alto PURRANQUE","d":"","l":"AERÓDROMOS","c":"P"},"geometry":{"type":"Point","coordinates":[-73.17,-40.94333333333333,0.0]}},{"type":"Feature","properties":{"n":"SCPH Ad Puyuhuapi PUYUHUAPI","d":"","l":"AERÓDROMOS","c":"P"},"geometry":{"type":"Point","coordinates":[-72.5936111111111,-44.38333333333333,0.0]}},{"type":"Feature","properties":{"n":"SC-P28 FIR SANTIAGO","d":"SC-P28 FIR SANTIAGO \nPalacio La Moneda Espacio aéreo/Airspace: \n33 26 28 S 70 39 17 W \n33 26 28 S 70 39 14 W \n33 26 39 S 70 39 11 W \n33 26 40 S 70 39 15 W\n\n3 000 FT ALT GND\nH24","l":"Zonas Prohibidas, Restringuidas, Peligrosas (#3)","c":"P"},"geometry":{"type":"Polygon","coordinates":[[[-70.65367090846344,-33.44102892711152,913.9999999999999],[-70.65472063804611,-33.4411164696754,913.9999999999999],[-70.65416369078872,-33.44444390114142,913.9999999999999],[-70.65303706880961,-33.44415842391761,913.9999999999999],[-70.65367090846344,-33.44102892711152,913.9999999999999]]]}},{"type":"Feature","properties":{"n":"OPERACIÓN RPAS EN ISLA DE MAIPO","d":"","l":"Zonas Prohibidas, Restringuidas, Peligrosas (#3)","c":"P"},"geometry":{"type":"Polygon","coordinates":[[[-70.92802931230739,-33.71875014577022,0.0],[-70.92025016353888,-33.72189196027323,0.0],[-70.91916809245116,-33.72023875997967,0.0],[-70.92668542175642,-33.71715671868668,0.0],[-70.92802931230739,-33.71875014577022,0.0]]]}},{"type":"Feature","properties":{"n":"SC-R27","d":"","l":"Zonas Prohibidas, Restringuidas, Peligrosas (#4)","c":"P"},"geometry":{"type":"Polygon","coordinates":[[[-70.70312474072156,-33.59544694172082,0.0],[-70.66245813195864,-33.5339255866547,0.0],[-70.67434096863583,-33.52854164683563,0.0],[-70.71426872279778,-33.59032291559569,0.0],[-70.70312474072156,-33.59544694172082,0.0]]]}},{"type":"Feature","properties":{"n":"Marca de posición sin título","d":"","l":"Zonas Prohibidas, Restringuidas, Peligrosas (#4)","c":"P"},"geometry":{"type":"Point","coordinates":[-70.69824260216349,-33.5725299806145,0.0]}}]}
