{"type":"FeatureCollection","features":[{"type":"Feature","properties":{"n":"Ad. La Empastada - Zapallar (SCZA)","d":"","l":"Pistas chicas","c":"PISTA"},"geometry":{"type":"Point","coordinates":[-71.37829781009431,-32.59154505826285,0.0]}},{"type":"Feature","properties":{"n":"Ad. Algorta","d":"","l":"Pistas chicas","c":"PISTA"},"geometry":{"type":"Point","coordinates":[-69.87777777777777,-23.11833333333333,0.0]}},{"type":"Feature","properties":{"n":"Ad. San Felix","d":"","l":"Pistas chicas","c":"PISTA"},"geometry":{"type":"Point","coordinates":[-80.09610626046306,-26.2939378977053,0.0]}},{"type":"Feature","properties":{"n":"Ad Bureo (Retiro)","d":"","l":"Pistas chicas","c":"PISTA"},"geometry":{"type":"Point","coordinates":[-71.8320422680168,-35.87177945555366,0.0]}},{"type":"Feature","properties":{"n":"Ad Guanaco (Taltal)","d":"","l":"Pistas chicas","c":"PISTA"},"geometry":{"type":"Point","coordinates":[-69.51012484739758,-25.09681536086419,0.0]}},{"type":"Feature","properties":{"n":"Ad. Entre Rios","d":"","l":"Pistas chicas","c":"PISTA"},"geometry":{"type":"Point","coordinates":[-70.99496326318925,-33.71831700104769,0.0]}},{"type":"Feature","properties":{"n":"Ad. Caleta Gonzalo","d":"","l":"Pistas chicas","c":"PISTA"},"geometry":{"type":"Point","coordinates":[-72.60014137622397,-42.56377374941113,0.0]}},{"type":"Feature","properties":{"n":"Ad. Azopardo","d":"","l":"Pistas chicas","c":"PISTA"},"geometry":{"type":"Point","coordinates":[-68.93687251201983,-54.4798174417642,0.0]}},{"type":"Feature","properties":{"n":"Ad.Carlos Barría Baechler (ULM)","d":"","l":"Pistas chicas","c":"PISTA"},"geometry":{"type":"Point","coordinates":[-70.88013529619982,-33.02845181816897,0.0]}},{"type":"Feature","properties":{"n":"Ad. Alempue (Teno)","d":"","l":"Pistas chicas","c":"PISTA"},"geometry":{"type":"Point","coordinates":[-71.10101581504154,-34.86461113120587,0.0]}},{"type":"Feature","properties":{"n":"Ad. Juan Kemp (Osorno)","d":"","l":"Pistas chicas","c":"PISTA"},"geometry":{"type":"Point","coordinates":[-72.3718658460468,-40.88969529030768,0.0]}},{"type":"Feature","properties":{"n":"Ad. Malloco (Villarrica)","d":"","l":"Pistas chicas","c":"PISTA"},"geometry":{"type":"Point","coordinates":[-72.34566515933595,-39.25869041042447,0.0]}},{"type":"Feature","properties":{"n":"Ad. Villa O'Higgins","d":"","l":"Pistas chicas","c":"PISTA"},"geometry":{"type":"Point","coordinates":[-72.56420789653947,-48.46847356704674,0.0]}},{"type":"Feature","properties":{"n":"Ad. Laguna Redonda (Villa O'higgins)","d":"","l":"Pistas chicas","c":"PISTA"},"geometry":{"type":"Point","coordinates":[-72.79970534610834,-48.93359651482766,0.0]}},{"type":"Feature","properties":{"n":"Ad. La Verónica (Vilcun)","d":"","l":"Pistas chicas","c":"PISTA"},"geometry":{"type":"Point","coordinates":[-72.1288319163718,-38.61150186875232,0.0]}},{"type":"Feature","properties":{"n":"Ad. Ainhoa (Vilcun)","d":"","l":"Pistas chicas","c":"PISTA"},"geometry":{"type":"Point","coordinates":[-72.24436578688369,-38.68362762477528,0.0]}},{"type":"Feature","properties":{"n":"Ad. Huancara (Vicuña)","d":"","l":"Pistas chicas","c":"PISTA"},"geometry":{"type":"Point","coordinates":[-70.74227873559622,-30.03218063417269,0.0]}},{"type":"Feature","properties":{"n":"Ad. El Indiio (Vicuña)","d":"","l":"Pistas chicas","c":"PISTA"},"geometry":{"type":"Point","coordinates":[-70.04660112091199,-29.8345683527344,0.0]}},{"type":"Feature","properties":{"n":"Ad. El Alamo (Vichuquen)","d":"","l":"Pistas chicas","c":"PISTA"},"geometry":{"type":"Point","coordinates":[-72.01883397759221,-34.84680499962063,0.0]}},{"type":"Feature","properties":{"n":"Ad. Cuatro Pantanos (Vichuquen)","d":"","l":"Pistas chicas","c":"PISTA"},"geometry":{"type":"Point","coordinates":[-72.06459435232233,-34.83717182934274,0.0]}},{"type":"Feature","properties":{"n":"Ad. Victoria","d":"","l":"Pistas chicas","c":"PISTA"},"geometry":{"type":"Point","coordinates":[-72.34878236160148,-38.24594804827562,0.0]}},{"type":"Feature","properties":{"n":"Ad. Maria Ester (Victoria)","d":"","l":"Pistas chicas","c":"PISTA"},"geometry":{"type":"Point","coordinates":[-72.48353717634004,-38.23211927124632,0.0]}},{"type":"Feature","properties":{"n":"Ad. Rio Pascua (Tortel)","d":"","l":"Pistas chicas","c":"PISTA"},"geometry":{"type":"Point","coordinates":[-73.2997146996408,-48.22913243586123,0.0]}},{"type":"Feature","properties":{"n":"Ad. Rio Bravo (tortel)","d":"","l":"Pistas chicas","c":"PISTA"},"geometry":{"type":"Point","coordinates":[-73.141343409839,-47.99071631901798,0.0]}},{"type":"Feature","properties":{"n":"Ad. El Budi","d":"","l":"Pistas chicas","c":"PISTA"},"geometry":{"type":"Point","coordinates":[-73.16905710645261,-39.06344554017343,0.0]}},{"type":"Feature","properties":{"n":"Ad. Las Breas (TalTal)","d":"","l":"Pistas chicas","c":"PISTA"},"geometry":{"type":"Point","coordinates":[-70.37636749142912,-25.56309590115043,0.0]}},{"type":"Feature","properties":{"n":"Ad. El Corte (Talagante)","d":"","l":"Pistas chicas","c":"PISTA"},"geometry":{"type":"Point","coordinates":[-70.91636178719003,-33.70987687639836,0.0]}},{"type":"Feature","properties":{"n":"Ad. Segundo Corral","d":"","l":"Pistas chicas","c":"PISTA"},"geometry":{"type":"Point","coordinates":[-71.86280621984616,-42.07404990590214,0.0]}},{"type":"Feature","properties":{"n":"Ad. Santo Domingo","d":"","l":"Pistas chicas","c":"PISTA"},"geometry":{"type":"Point","coordinates":[-71.61603792429888,-33.65674749654392,0.0]}},{"type":"Feature","properties":{"n":"Ad. La Puerta (Santa Cruz)","d":"","l":"Pistas chicas","c":"PISTA"},"geometry":{"type":"Point","coordinates":[-71.37589216053644,-34.61281881317015,0.0]}},{"type":"Feature","properties":{"n":"Ad. El Boldal (Santa Cruz)","d":"","l":"Pistas chicas","c":"PISTA"},"geometry":{"type":"Point","coordinates":[-71.28536252685353,-34.67942874018173,0.0]}},{"type":"Feature","properties":{"n":"Ad. Aero Santa Cruz","d":"","l":"Pistas chicas","c":"PISTA"},"geometry":{"type":"Point","coordinates":[-71.38848643644806,-34.64730970364851,0.0]}},{"type":"Feature","properties":{"n":"Ad. Santa Luisa","d":"","l":"Pistas chicas","c":"PISTA"},"geometry":{"type":"Point","coordinates":[-71.70999949081347,-37.74390170351466,0.0]}},{"type":"Feature","properties":{"n":"Ad. El Tambo (San Vicente Tagua Tagua)","d":"","l":"Pistas chicas","c":"PISTA"},"geometry":{"type":"Point","coordinates":[-71.01433745093789,-34.47496128358786,0.0]}},{"type":"Feature","properties":{"n":"Ad. San Sebastian","d":"","l":"Pistas chicas","c":"PISTA"},"geometry":{"type":"Point","coordinates":[-69.65175025459102,-53.31585100290742,0.0]}},{"type":"Feature","properties":{"n":"Ad. Verfrut","d":"","l":"Pistas chicas","c":"PISTA"},"geometry":{"type":"Point","coordinates":[-71.39223501898955,-34.0069877512613,0.0]}},{"type":"Feature","properties":{"n":"Ad. San Pedro de Atacama","d":"","l":"Pistas chicas","c":"PISTA"},"geometry":{"type":"Point","coordinates":[-68.15832951184325,-22.92184819148777,0.0]}},{"type":"Feature","properties":{"n":"Ad. Quilpue","d":"","l":"Pistas chicas","c":"PISTA"},"geometry":{"type":"Point","coordinates":[-73.31982432122135,-40.34020992223056,0.0]}},{"type":"Feature","properties":{"n":"Ad. Santa Eugenia","d":"","l":"Pistas chicas","c":"PISTA"},"geometry":{"type":"Point","coordinates":[-72.15903669349979,-36.4369173009494,0.0]}},{"type":"Feature","properties":{"n":"Ad. Santa Maria de Mingre","d":"","l":"Pistas chicas","c":"PISTA"},"geometry":{"type":"Point","coordinates":[-72.00338678808839,-35.56913936687554,0.0]}},{"type":"Feature","properties":{"n":"Ad. San Javier","d":"","l":"Pistas chicas","c":"PISTA"},"geometry":{"type":"Point","coordinates":[-71.70007868817102,-35.62615319954714,0.0]}},{"type":"Feature","properties":{"n":"Ad. Las Mercedes (San Javier)","d":"","l":"Pistas chicas","c":"PISTA"},"geometry":{"type":"Point","coordinates":[-71.88123355460539,-35.50027163495992,0.0]}},{"type":"Feature","properties":{"n":"Ad. Tres Chorrillos","d":"","l":"Pistas chicas","c":"PISTA"},"geometry":{"type":"Point","coordinates":[-70.72415358658667,-52.52530573368184,0.0]}},{"type":"Feature","properties":{"n":"Ad. Colorado (San Clemente)","d":"","l":"Pistas chicas","c":"PISTA"},"geometry":{"type":"Point","coordinates":[-71.30350106978541,-35.66222333741566,0.0]}},{"type":"Feature","properties":{"n":"Ad. Santa Marta (San Carlos)","d":"","l":"Pistas chicas","c":"PISTA"},"geometry":{"type":"Point","coordinates":[-71.89177542152368,-36.49114282713619,0.0]}},{"type":"Feature","properties":{"n":"Ad. Minsal","d":"","l":"Pistas chicas","c":"PISTA"},"geometry":{"type":"Point","coordinates":[-68.38322425699016,-23.58446131868734,0.0]}},{"type":"Feature","properties":{"n":"Ad. El Salar","d":"","l":"Pistas chicas","c":"PISTA"},"geometry":{"type":"Point","coordinates":[-68.30751903861419,-23.64891341302489,0.0]}},{"type":"Feature","properties":{"n":"Ad. Los Cedros","d":"","l":"Pistas chicas","c":"PISTA"},"geometry":{"type":"Point","coordinates":[-71.60548537745456,-35.1552354958988,0.0]}},{"type":"Feature","properties":{"n":"Ad. Santa Barbara (Romeral)","d":"","l":"Pistas chicas","c":"PISTA"},"geometry":{"type":"Point","coordinates":[-71.0323345680143,-34.95867384884677,0.0]}},{"type":"Feature","properties":{"n":"Ad. San Miguel (Romeral)","d":"","l":"Pistas chicas","c":"PISTA"},"geometry":{"type":"Point","coordinates":[-71.01893935874733,-34.96155753671944,0.0]}},{"type":"Feature","properties":{"n":"Ad. Rio Negro","d":"","l":"Pistas chicas","c":"PISTA"},"geometry":{"type":"Point","coordinates":[-72.45273331088114,-41.96148275261238,0.0]}},{"type":"Feature","properties":{"n":"Ad. Rio Murta","d":"","l":"Pistas chicas","c":"PISTA"},"geometry":{"type":"Point","coordinates":[-72.68784858088023,-46.45350131962977,0.0]}},{"type":"Feature","properties":{"n":"Ad. Rio Frio","d":"","l":"Pistas chicas","c":"PISTA"},"geometry":{"type":"Point","coordinates":[-71.91110054574953,-41.7418761512582,0.0]}},{"type":"Feature","properties":{"n":"Ad. Villa Tapera (Rio Cisnes)","d":"","l":"Pistas chicas","c":"PISTA"},"geometry":{"type":"Point","coordinates":[-71.66489760517663,-44.64027213442879,0.0]}},{"type":"Feature","properties":{"n":"Ad. Estancia Rio Cisnes","d":"","l":"Pistas chicas","c":"PISTA"},"geometry":{"type":"Point","coordinates":[-71.31612551545228,-44.50113248606758,0.0]}},{"type":"Feature","properties":{"n":"Ad. Purrahuin (Rio Bueno)","d":"","l":"Pistas chicas","c":"PISTA"},"geometry":{"type":"Point","coordinates":[-72.77685264417792,-40.36636603666019,0.0]}},{"type":"Feature","properties":{"n":"Ad. Cotreumo (Rio Bueno)","d":"","l":"Pistas chicas","c":"PISTA"},"geometry":{"type":"Point","coordinates":[-72.6613207190635,-40.40032480657812,0.0]}},{"type":"Feature","properties":{"n":"Ad. El Vergel (Riñihue)","d":"","l":"Pistas chicas","c":"PISTA"},"geometry":{"type":"Point","coordinates":[-72.48824986391446,-39.8292689805446,0.0]}},{"type":"Feature","properties":{"n":"Ad. San Andres (Retiro)","d":"","l":"Pistas chicas","c":"PISTA"},"geometry":{"type":"Point","coordinates":[-71.76732283474252,-36.00388809436459,0.0]}},{"type":"Feature","properties":{"n":"Ad. Las Alpacas (Retiro)","d":"","l":"Pistas chicas","c":"PISTA"},"geometry":{"type":"Point","coordinates":[-71.76325166462512,-36.14462786395644,0.0]}},{"type":"Feature","properties":{"n":"Ad. Los Gomeros (Rengo)","d":"","l":"Pistas chicas","c":"PISTA"},"geometry":{"type":"Point","coordinates":[-70.88193911949601,-34.36114066563211,0.0]}},{"type":"Feature","properties":{"n":"Ad. Los Paltos (Tilcoco)","d":"","l":"Pistas chicas","c":"PISTA"},"geometry":{"type":"Point","coordinates":[-70.96421026715261,-34.32842973736502,0.0]}},{"type":"Feature","properties":{"n":"Ad. Atacalco","d":"","l":"Pistas chicas","c":"PISTA"},"geometry":{"type":"Point","coordinates":[-71.57771723941377,-36.91929958081728,0.0]}},{"type":"Feature","properties":{"n":"Ad. San Felix","d":"","l":"Pistas chicas","c":"PISTA"},"geometry":{"type":"Point","coordinates":[-80.09730714493828,-26.29315671158699,0.0]}},{"type":"Feature","properties":{"n":"Ad. Las Agulas Oriente (Rapel)","d":"","l":"Pistas chicas","c":"PISTA"},"geometry":{"type":"Point","coordinates":[-71.51478855088627,-34.15334176465863,0.0]}},{"type":"Feature","properties":{"n":"Ad. La Estrella (Rapel)","d":"","l":"Pistas chicas","c":"PISTA"},"geometry":{"type":"Point","coordinates":[-71.48110451751477,-34.19928175526064,0.0]}},{"type":"Feature","properties":{"n":"Ad. James Conrrad","d":"","l":"Pistas chicas","c":"PISTA"},"geometry":{"type":"Point","coordinates":[-72.77322090015207,-36.5803115126097,0.0]}},{"type":"Feature","properties":{"n":"Ad. La Independencia (Rancagua)","d":"","l":"Pistas chicas","c":"PISTA"},"geometry":{"type":"Point","coordinates":[-70.7760964455752,-34.17360718000519,0.0]}},{"type":"Feature","properties":{"n":"Ad. Fundo Naicura (Tilcoco)","d":"","l":"Pistas chicas","c":"PISTA"},"geometry":{"type":"Point","coordinates":[-70.92000535068983,-34.32004386328813,0.0]}},{"type":"Feature","properties":{"n":"Ad. La Colmena","d":"","l":"Pistas chicas","c":"PISTA"},"geometry":{"type":"Point","coordinates":[-72.58634405002658,-38.33375612732952,0.0]}},{"type":"Feature","properties":{"n":"Ad. Quenchi","d":"","l":"Pistas chicas","c":"PISTA"},"geometry":{"type":"Point","coordinates":[-73.52005215704142,-42.15484445730769,0.0]}},{"type":"Feature","properties":{"n":"Ad. Puyuhuapi","d":"","l":"Pistas chicas","c":"PISTA"},"geometry":{"type":"Point","coordinates":[-72.59354557401281,-44.38279910487887,0.0]}},{"type":"Feature","properties":{"n":"Ad. Refugio del Lago (Puyehue)","d":"","l":"Pistas chicas","c":"PISTA"},"geometry":{"type":"Point","coordinates":[-72.34591858871117,-40.68951047561549,0.0]}},{"type":"Feature","properties":{"n":"Ad. Lican (Puyehue)","d":"","l":"Pistas chicas","c":"PISTA"},"geometry":{"type":"Point","coordinates":[-72.41372809121947,-40.63912108091388,0.0]}},{"type":"Feature","properties":{"n":"Ad. La Capilla (Puyehue)","d":"","l":"Pistas chicas","c":"PISTA"},"geometry":{"type":"Point","coordinates":[-72.76640443572241,-40.62691567434909,0.0]}},{"type":"Feature","properties":{"n":"Ad. Cuyumaique (Purranque)","d":"","l":"Pistas chicas","c":"PISTA"},"geometry":{"type":"Point","coordinates":[-73.01224387430469,-40.94017085379129,0.0]}},{"type":"Feature","properties":{"n":"Ad. Corte Alto (Purranque)","d":"","l":"Pistas chicas","c":"PISTA"},"geometry":{"type":"Point","coordinates":[-73.1686880484007,-40.94106159259331,0.0]}},{"type":"Feature","properties":{"n":"Ad. Punta Catalina","d":"","l":"Pistas chicas","c":"PISTA"},"geometry":{"type":"Point","coordinates":[-68.75017748848491,-52.59190910176903,0.0]}},{"type":"Feature","properties":{"n":"Ad. Sandra Scabini (Pta. Arenas)","d":"","l":"Pistas chicas","c":"PISTA"},"geometry":{"type":"Point","coordinates":[-69.75703698840782,-52.39367539745675,0.0]}},{"type":"Feature","properties":{"n":"Ad. El Mirador (Pto. Varas)","d":"","l":"Pistas chicas","c":"PISTA"},"geometry":{"type":"Point","coordinates":[-72.94709946888658,-41.34911138689268,0.0]}},{"type":"Feature","properties":{"n":"Ad. Don Dobri (Pro. Varas)","d":"","l":"Pistas chicas","c":"PISTA"},"geometry":{"type":"Point","coordinates":[-72.51458296123141,-41.2352561701919,0.0]}},{"type":"Feature","properties":{"n":"Ad. Pto. Sanchez","d":"","l":"Pistas chicas","c":"PISTA"},"geometry":{"type":"Point","coordinates":[-72.58592666959788,-46.59246494504212,0.0]}},{"type":"Feature","properties":{"n":"Ad. Las Araucarias (Pto. Octay)","d":"","l":"Pistas chicas","c":"PISTA"},"geometry":{"type":"Point","coordinates":[-72.66175530724746,-40.99300259697015,0.0]}},{"type":"Feature","properties":{"n":"Ad. Tte. Julio Gallardo (Pto. Natales)","d":"","l":"Pistas chicas","c":"PISTA"},"geometry":{"type":"Point","coordinates":[-72.52798739706353,-51.67086403211168,0.0]}},{"type":"Feature","properties":{"n":"Ad. Meseta Cosmelli","d":"","l":"Pistas chicas","c":"PISTA"},"geometry":{"type":"Point","coordinates":[-72.52722850472882,-46.74620028717792,0.0]}},{"type":"Feature","properties":{"n":"Ad. Puerto Cisnes","d":"","l":"Pistas chicas","c":"PISTA"},"geometry":{"type":"Point","coordinates":[-72.69811368881435,-44.75897120493256,0.0]}},{"type":"Feature","properties":{"n":"Ad. Puelo Bajo","d":"","l":"Pistas chicas","c":"PISTA"},"geometry":{"type":"Point","coordinates":[-72.29974413538773,-41.65842557709632,0.0]}},{"type":"Feature","properties":{"n":"Ad. Curimanque (Pucon)","d":"","l":"Pistas chicas","c":"PISTA"},"geometry":{"type":"Point","coordinates":[-72.02819658465646,-39.32729302096661,0.0]}},{"type":"Feature","properties":{"n":"Ad. Capitan Fuentes Martínez (Porvenir)","d":"","l":"Pistas chicas","c":"PISTA"},"geometry":{"type":"Point","coordinates":[-70.31391500753223,-53.25495056155319,0.0]}},{"type":"Feature","properties":{"n":"Ad. El Pricipal (Pirque)","d":"","l":"Pistas chicas","c":"PISTA"},"geometry":{"type":"Point","coordinates":[-70.50983960130074,-33.72488173722779,0.0]}},{"type":"Feature","properties":{"n":"Ad. Estero Seco (Pirque)","d":"","l":"Pistas chicas","c":"PISTA"},"geometry":{"type":"Point","coordinates":[-70.54948848820646,-33.74498955218894,0.0]}},{"type":"Feature","properties":{"n":"Ad. Pichilemu","d":"","l":"Pistas chicas","c":"PISTA"},"geometry":{"type":"Point","coordinates":[-72.01979511459109,-34.39583812181627,0.0]}},{"type":"Feature","properties":{"n":"Ad. Pamilonco (Pichilemu)","d":"","l":"Pistas chicas","c":"PISTA"},"geometry":{"type":"Point","coordinates":[-71.94980018208497,-34.2860207224618,0.0]}},{"type":"Feature","properties":{"n":"Ad. Quintero","d":"","l":"Pistas chicas","c":"PISTA"},"geometry":{"type":"Point","coordinates":[-71.52194491936261,-32.78980646735214,0.0]}},{"type":"Feature","properties":{"n":"Ad. Coposa (Pica)","d":"","l":"Pistas chicas","c":"PISTA"},"geometry":{"type":"Point","coordinates":[-68.68249673398083,-20.75064114251112,0.0]}},{"type":"Feature","properties":{"n":"Ad. Peulla","d":"","l":"Pistas chicas","c":"PISTA"},"geometry":{"type":"Point","coordinates":[-72.01306232022931,-41.05667247454649,0.0]}},{"type":"Feature","properties":{"n":"Ad. Viñasutil","d":"","l":"Pistas chicas","c":"PISTA"},"geometry":{"type":"Point","coordinates":[-71.38582294022783,-34.4487804006775,0.0]}},{"type":"Feature","properties":{"n":"Ad. La Aguada","d":"","l":"Pistas chicas","c":"PISTA"},"geometry":{"type":"Point","coordinates":[-71.78357306917579,-35.35079996053398,0.0]}},{"type":"Feature","properties":{"n":"Ad. Piedra Negra (Pelluhue)","d":"","l":"Pistas chicas","c":"PISTA"},"geometry":{"type":"Point","coordinates":[-72.64634878068267,-35.85447080036072,0.0]}},{"type":"Feature","properties":{"n":"Ad. La Reforma (Pelarco)","d":"","l":"Pistas chicas","c":"PISTA"},"geometry":{"type":"Point","coordinates":[-71.28099661134603,-35.4579755614783,0.0]}},{"type":"Feature","properties":{"n":"Ad. Hospital Villa Baviera","d":"","l":"Pistas chicas","c":"PISTA"},"geometry":{"type":"Point","coordinates":[-71.56499632351111,-36.39827552703364,0.0]}},{"type":"Feature","properties":{"n":"Ad. Parral","d":"","l":"Pistas chicas","c":"PISTA"},"geometry":{"type":"Point","coordinates":[-71.85856186806505,-36.12943325272997,0.0]}},{"type":"Feature","properties":{"n":"Ad. Rucalonco","d":"","l":"Pistas chicas","c":"PISTA"},"geometry":{"type":"Point","coordinates":[-72.04717366345585,-34.55307927283663,0.0]}},{"type":"Feature","properties":{"n":"Ad. Papageno (Panguipulli)","d":"","l":"Pistas chicas","c":"PISTA"},"geometry":{"type":"Point","coordinates":[-72.2910871010452,-39.54998042399653,0.0]}},{"type":"Feature","properties":{"n":"Ad. Curaco (Panguipulli)","d":"","l":"Pistas chicas","c":"PISTA"},"geometry":{"type":"Point","coordinates":[-72.35671636965623,-39.53730163446981,0.0]}},{"type":"Feature","properties":{"n":"Ad. Municipal de Panguipulli","d":"","l":"Pistas chicas","c":"PISTA"},"geometry":{"type":"Point","coordinates":[-72.35804989075905,-39.65545053967952,0.0]}},{"type":"Feature","properties":{"n":"Ad. Panimavida","d":"","l":"Pistas chicas","c":"PISTA"},"geometry":{"type":"Point","coordinates":[-71.40591388553165,-35.76088706748183,0.0]}},{"type":"Feature","properties":{"n":"Ad. Agua Santa","d":"","l":"Pistas chicas","c":"PISTA"},"geometry":{"type":"Point","coordinates":[-71.33559804248557,-34.55287005293755,0.0]}},{"type":"Feature","properties":{"n":"Ad. Mansel (Paine)","d":"","l":"Pistas chicas","c":"PISTA"},"geometry":{"type":"Point","coordinates":[-70.77084219475441,-33.86298250618572,0.0]}},{"type":"Feature","properties":{"n":"Ad. Juan Enrique","d":"","l":"Pistas chicas","c":"PISTA"},"geometry":{"type":"Point","coordinates":[-70.88546996814259,-33.89369527639677,0.0]}},{"type":"Feature","properties":{"n":"Ad. Calpulli","d":"","l":"Pistas chicas","c":"PISTA"},"geometry":{"type":"Point","coordinates":[-72.66072756141118,-40.12753611594765,0.0]}},{"type":"Feature","properties":{"n":"Ad. Tabali Bajo (Ovalle)","d":"","l":"Pistas chicas","c":"PISTA"},"geometry":{"type":"Point","coordinates":[-71.40217365822305,-30.64331244371812,0.0]}},{"type":"Feature","properties":{"n":"Ad. Santa Adriana (Ovalle)","d":"","l":"Pistas chicas","c":"PISTA"},"geometry":{"type":"Point","coordinates":[-71.27306321611907,-30.62923121057876,0.0]}},{"type":"Feature","properties":{"n":"Ad. Fray Jorge (Ovalle)","d":"","l":"Pistas chicas","c":"PISTA"},"geometry":{"type":"Point","coordinates":[-71.57812320967007,-30.68080905147365,0.0]}},{"type":"Feature","properties":{"n":"Ad. Estacia Los Loros","d":"","l":"Pistas chicas","c":"PISTA"},"geometry":{"type":"Point","coordinates":[-71.62051370442911,-30.79624631588401,0.0]}},{"type":"Feature","properties":{"n":"Ad. Las Quemas (Osorno)","d":"","l":"Pistas chicas","c":"PISTA"},"geometry":{"type":"Point","coordinates":[-73.12713669403155,-40.63939168052647,0.0]}},{"type":"Feature","properties":{"n":"Ad. Punta Galera","d":"","l":"Pistas chicas","c":"PISTA"},"geometry":{"type":"Point","coordinates":[-73.6970251184578,-40.00219403017479,0.0]}},{"type":"Feature","properties":{"n":"Ad. Pilauco (Osorno)","d":"","l":"Pistas chicas","c":"PISTA"},"geometry":{"type":"Point","coordinates":[-73.13007667399519,-40.55331506298263,0.0]}},{"type":"Feature","properties":{"n":"Ad. Huayanay","d":"","l":"Pistas chicas","c":"PISTA"},"geometry":{"type":"Point","coordinates":[-71.53401311442063,-30.43456263769769,0.0]}},{"type":"Feature","properties":{"n":"Ad. Callipulli (Osorno)","d":"","l":"Pistas chicas","c":"PISTA"},"geometry":{"type":"Point","coordinates":[-72.84636997277812,-40.61973375244652,0.0]}},{"type":"Feature","properties":{"n":"Ad.  Ñochaco","d":"","l":"Pistas chicas","c":"PISTA"},"geometry":{"type":"Point","coordinates":[-72.8817333380249,-40.89425331512388,0.0]}},{"type":"Feature","properties":{"n":"Ad. Ñadis","d":"","l":"Pistas chicas","c":"PISTA"},"geometry":{"type":"Point","coordinates":[-72.95206413604625,-47.47307394077875,0.0]}},{"type":"Feature","properties":{"n":"Ad. Yendegaia","d":"","l":"Pistas chicas","c":"PISTA"},"geometry":{"type":"Point","coordinates":[-68.83447442195839,-54.83377010197541,0.0]}},{"type":"Feature","properties":{"n":"Ad. Los Monos (Molina)","d":"","l":"Pistas chicas","c":"PISTA"},"geometry":{"type":"Point","coordinates":[-71.41974384302493,-35.19026620509485,0.0]}},{"type":"Feature","properties":{"n":"Ad. La Cascada (Molina)","d":"","l":"Pistas chicas","c":"PISTA"},"geometry":{"type":"Point","coordinates":[-71.10567977835275,-35.38481992626387,0.0]}},{"type":"Feature","properties":{"n":"Ad. Alupenhue (Molina)","d":"","l":"Pistas chicas","c":"PISTA"},"geometry":{"type":"Point","coordinates":[-71.07061780549739,-35.23897245602575,0.0]}},{"type":"Feature","properties":{"n":"Ad. Paredes Viejas","d":"","l":"Pistas chicas","c":"PISTA"},"geometry":{"type":"Point","coordinates":[-71.54417423399794,-34.39657981666789,0.0]}},{"type":"Feature","properties":{"n":"Ad. La Laguna","d":"","l":"Pistas chicas","c":"PISTA"},"geometry":{"type":"Point","coordinates":[-71.6636737424449,-34.35121525365895,0.0]}},{"type":"Feature","properties":{"n":"Ad. La Esperanza","d":"","l":"Pistas chicas","c":"PISTA"},"geometry":{"type":"Point","coordinates":[-71.55087518304725,-34.28896679709362,0.0]}},{"type":"Feature","properties":{"n":"Ad. El Carrizal","d":"","l":"Pistas chicas","c":"PISTA"},"geometry":{"type":"Point","coordinates":[-71.70610481015315,-34.44326924022548,0.0]}},{"type":"Feature","properties":{"n":"Ad. Barriles (Tocopilla)","d":"","l":"Pistas chicas","c":"PISTA"},"geometry":{"type":"Point","coordinates":[-70.06327926765917,-22.13990471489333,0.0]}},{"type":"Feature","properties":{"n":"Ad. Maria Elena","d":"","l":"Pistas chicas","c":"PISTA"},"geometry":{"type":"Point","coordinates":[-69.70284660572482,-22.30214112972028,0.0]}},{"type":"Feature","properties":{"n":"Ad. Punta Chungo (Los Vilos)","d":"","l":"Pistas chicas","c":"PISTA"},"geometry":{"type":"Point","coordinates":[-71.47989910362286,-31.88418022910777,0.0]}},{"type":"Feature","properties":{"n":"Ad. Guadaba","d":"","l":"Pistas chicas","c":"PISTA"},"geometry":{"type":"Point","coordinates":[-72.93087037169312,-37.97820011220358,0.0]}},{"type":"Feature","properties":{"n":"Ad. Villa Portales","d":"","l":"Pistas chicas","c":"PISTA"},"geometry":{"type":"Point","coordinates":[-71.35669582415213,-38.44852337242791,0.0]}},{"type":"Feature","properties":{"n":"Ad. Lolco","d":"","l":"Pistas chicas","c":"PISTA"},"geometry":{"type":"Point","coordinates":[-71.4235083678295,-38.15741376599648,0.0]}},{"type":"Feature","properties":{"n":"Ad. Icalma","d":"","l":"Pistas chicas","c":"PISTA"},"geometry":{"type":"Point","coordinates":[-71.21782358729052,-38.74973020431043,0.0]}},{"type":"Feature","properties":{"n":"Ad. Verifrut Sur","d":"","l":"Pistas chicas","c":"PISTA"},"geometry":{"type":"Point","coordinates":[-71.54472842286692,-36.21227393283574,0.0]}},{"type":"Feature","properties":{"n":"Ad. Las Moras","d":"","l":"Pistas chicas","c":"PISTA"},"geometry":{"type":"Point","coordinates":[-71.5946678254522,-36.01045733142668,0.0]}},{"type":"Feature","properties":{"n":"Ad. Fundo Palo Alto","d":"","l":"Pistas chicas","c":"PISTA"},"geometry":{"type":"Point","coordinates":[-71.74345320934663,-34.73246486203986,0.0]}},{"type":"Feature","properties":{"n":"Ad. Chollinco","d":"","l":"Pistas chicas","c":"PISTA"},"geometry":{"type":"Point","coordinates":[-72.23165553592767,-40.20548648467976,0.0]}},{"type":"Feature","properties":{"n":"Ad. Calcurrupe","d":"","l":"Pistas chicas","c":"PISTA"},"geometry":{"type":"Point","coordinates":[-72.24800437155818,-40.24337546208851,0.0]}},{"type":"Feature","properties":{"n":"Ad. Torca","d":"","l":"Pistas chicas","c":"PISTA"},"geometry":{"type":"Point","coordinates":[-72.05112396169878,-34.78354065207467,0.0]}},{"type":"Feature","properties":{"n":"Ad. Llanada Grande","d":"","l":"Pistas chicas","c":"PISTA"},"geometry":{"type":"Point","coordinates":[-71.93981101379279,-41.86908952831501,0.0]}},{"type":"Feature","properties":{"n":"Ad. Municipal de Linares","d":"","l":"Pistas chicas","c":"PISTA"},"geometry":{"type":"Point","coordinates":[-71.5480253905431,-35.86096122729872,0.0]}},{"type":"Feature","properties":{"n":"Ad. Licancel","d":"","l":"Pistas chicas","c":"PISTA"},"geometry":{"type":"Point","coordinates":[-72.01860065306737,-34.98817736344105,0.0]}},{"type":"Feature","properties":{"n":"Ad. Esperanza","d":"","l":"Pistas chicas","c":"PISTA"},"geometry":{"type":"Point","coordinates":[-72.1475031128665,-38.55033830723556,0.0]}},{"type":"Feature","properties":{"n":"Ad. Hacienda Lipangue","d":"","l":"Pistas chicas","c":"PISTA"},"geometry":{"type":"Point","coordinates":[-70.91103567817231,-33.33532350233806,0.0]}},{"type":"Feature","properties":{"n":"Ad. Lago Verde","d":"","l":"Pistas chicas","c":"PISTA"},"geometry":{"type":"Point","coordinates":[-71.91681493665801,-44.27109781928765,0.0]}},{"type":"Feature","properties":{"n":"Ad. Litueche","d":"","l":"Pistas chicas","c":"PISTA"},"geometry":{"type":"Point","coordinates":[-71.71788704193793,-34.11125317460333,0.0]}},{"type":"Feature","properties":{"n":"Ad. Las Bandurrias","d":"","l":"Pistas chicas","c":"PISTA"},"geometry":{"type":"Point","coordinates":[-72.22511426972464,-40.32128964291751,0.0]}},{"type":"Feature","properties":{"n":"Ad. Arquilhue","d":"","l":"Pistas chicas","c":"PISTA"},"geometry":{"type":"Point","coordinates":[-72.03068653041409,-40.19845918639992,0.0]}},{"type":"Feature","properties":{"n":"Ad. Llollenorte","d":"","l":"Pistas chicas","c":"PISTA"},"geometry":{"type":"Point","coordinates":[-71.68989385032634,-39.05763920652368,0.0]}},{"type":"Feature","properties":{"n":"Ad. Lago Brown","d":"","l":"Pistas chicas","c":"PISTA"},"geometry":{"type":"Point","coordinates":[-72.31798034565571,-47.39160078537761,0.0]}},{"type":"Feature","properties":{"n":"Ad. Pozo Brujo","d":"","l":"Pistas chicas","c":"PISTA"},"geometry":{"type":"Point","coordinates":[-72.5681341536709,-40.20495641040988,0.0]}},{"type":"Feature","properties":{"n":"Ad. Los Maitenes de Villa Vieja","d":"","l":"Pistas chicas","c":"PISTA"},"geometry":{"type":"Point","coordinates":[-72.9790359997691,-40.3155584284396,0.0]}},{"type":"Feature","properties":{"n":"Ad. Hueicolla","d":"","l":"Pistas chicas","c":"PISTA"},"geometry":{"type":"Point","coordinates":[-73.652035166696,-40.16159270585646,0.0]}},{"type":"Feature","properties":{"n":"Ad. La Lumbrera","d":"","l":"Pistas chicas","c":"PISTA"},"geometry":{"type":"Point","coordinates":[-71.290541913988,-33.65873126362061,0.0]}},{"type":"Feature","properties":{"n":"Ad. Diego Portales -La Ligua (SCLQ)","d":"","l":"Pistas chicas","c":"PISTA"},"geometry":{"type":"Point","coordinates":[-71.2588778287764,-32.44880151468622,0.0]}},{"type":"Feature","properties":{"n":"Ad. La Junta","d":"","l":"Pistas chicas","c":"PISTA"},"geometry":{"type":"Point","coordinates":[-72.41360246945446,-43.97895128406138,0.0]}},{"type":"Feature","properties":{"n":"Ad. Ivan Martinez","d":"","l":"Pistas chicas","c":"PISTA"},"geometry":{"type":"Point","coordinates":[-70.03142164429964,-52.95644254548808,0.0]}},{"type":"Feature","properties":{"n":"Ad. Patriot Hills","d":"","l":"Pistas chicas","c":"PISTA"},"geometry":{"type":"Point","coordinates":[-81.30778433910406,-80.318347962831,0.0]}},{"type":"Feature","properties":{"n":"Ad. Tte. Rodolfo Marsh","d":"","l":"Pistas chicas","c":"PISTA"},"geometry":{"type":"Point","coordinates":[-58.98712191901022,-62.1909277964032,0.0]}},{"type":"Feature","properties":{"n":"Ad. Punta El Saco","d":"","l":"Pistas chicas","c":"PISTA"},"geometry":{"type":"Point","coordinates":[-73.90129661301194,-38.41025966755355,0.0]}},{"type":"Feature","properties":{"n":"Ad. Las Huichas","d":"","l":"Pistas chicas","c":"PISTA"},"geometry":{"type":"Point","coordinates":[-73.51257352328192,-45.1492576879688,0.0]}},{"type":"Feature","properties":{"n":"Ad. Isla Dawson","d":"","l":"Pistas chicas","c":"PISTA"},"geometry":{"type":"Point","coordinates":[-70.47062936613219,-53.61064595058997,0.0]}},{"type":"Feature","properties":{"n":"Ad. Auco","d":"","l":"Pistas chicas","c":"PISTA"},"geometry":{"type":"Point","coordinates":[-71.11065729732027,-31.57757197939262,0.0]}},{"type":"Feature","properties":{"n":"Ad. Rucamanqui","d":"","l":"Pistas chicas","c":"PISTA"},"geometry":{"type":"Point","coordinates":[-71.89595014369453,-37.19978977191428,0.0]}},{"type":"Feature","properties":{"n":"Ad. Hualaihue","d":"","l":"Pistas chicas","c":"PISTA"},"geometry":{"type":"Point","coordinates":[-72.69169035829695,-42.02605126965572,0.0]}},{"type":"Feature","properties":{"n":"Ad. La Viña","d":"","l":"Pistas chicas","c":"PISTA"},"geometry":{"type":"Point","coordinates":[-71.39587120916877,-32.13670043691898,0.0]}},{"type":"Feature","properties":{"n":"Ad. Locopan","d":"","l":"Pistas chicas","c":"PISTA"},"geometry":{"type":"Point","coordinates":[-72.53964525942877,-40.06602739611122,0.0]}},{"type":"Feature","properties":{"n":"Ad. Golfo Azul","d":"","l":"Pistas chicas","c":"PISTA"},"geometry":{"type":"Point","coordinates":[-72.28338173301839,-40.14090781090541,0.0]}},{"type":"Feature","properties":{"n":"Ad. Fundo Tehuen","d":"","l":"Pistas chicas","c":"PISTA"},"geometry":{"type":"Point","coordinates":[-73.12733500106356,-41.09246287553052,0.0]}},{"type":"Feature","properties":{"n":"Ad. Frutillar","d":"","l":"Pistas chicas","c":"PISTA"},"geometry":{"type":"Point","coordinates":[-73.06432865561933,-41.12979233840773,0.0]}},{"type":"Feature","properties":{"n":"Ad. El Avellano","d":"","l":"Pistas chicas","c":"PISTA"},"geometry":{"type":"Point","coordinates":[-73.3512556044968,-41.05184656719835,0.0]}},{"type":"Feature","properties":{"n":"Ad. Añorada","d":"","l":"Pistas chicas","c":"PISTA"},"geometry":{"type":"Point","coordinates":[-73.04865897324541,-41.0432325472736,0.0]}},{"type":"Feature","properties":{"n":"Ad. Freirinha","d":"","l":"Pistas chicas","c":"PISTA"},"geometry":{"type":"Point","coordinates":[-71.06356689244112,-28.5260835303861,0.0]}},{"type":"Feature","properties":{"n":"Ad. Santa Lucia","d":"","l":"Pistas chicas","c":"PISTA"},"geometry":{"type":"Point","coordinates":[-72.36699511337594,-38.91930305429979,0.0]}},{"type":"Feature","properties":{"n":"Ad. Fachinal","d":"","l":"Pistas chicas","c":"PISTA"},"geometry":{"type":"Point","coordinates":[-72.21984300947717,-46.54859102742103,0.0]}},{"type":"Feature","properties":{"n":"Ad. Pelicano","d":"","l":"Pistas chicas","c":"PISTA"},"geometry":{"type":"Point","coordinates":[-70.88793749406878,-29.14464917412389,0.0]}},{"type":"Feature","properties":{"n":"Ad. Entrada Mayer","d":"","l":"Pistas chicas","c":"PISTA"},"geometry":{"type":"Point","coordinates":[-72.32818960921321,-48.20111581366847,0.0]}},{"type":"Feature","properties":{"n":"Ad. Ricardo Garcia Posada","d":"","l":"Pistas chicas","c":"PISTA"},"geometry":{"type":"Point","coordinates":[-69.7663392272955,-26.31129551919572,0.0]}},{"type":"Feature","properties":{"n":"Ad. San Lorenzo","d":"","l":"Pistas chicas","c":"PISTA"},"geometry":{"type":"Point","coordinates":[-71.72417731592996,-37.52613355659003,0.0]}},{"type":"Feature","properties":{"n":"Ad. San Damian","d":"","l":"Pistas chicas","c":"PISTA"},"geometry":{"type":"Point","coordinates":[-72.14601350571328,-34.87882825648136,0.0]}},{"type":"Feature","properties":{"n":"Ad. Los Lirios","d":"","l":"Pistas chicas","c":"PISTA"},"geometry":{"type":"Point","coordinates":[-71.20217082170976,-34.90616912296375,0.0]}},{"type":"Feature","properties":{"n":"Ad. La Montaña","d":"","l":"Pistas chicas","c":"PISTA"},"geometry":{"type":"Point","coordinates":[-70.84659409453133,-34.97018744000948,0.0]}},{"type":"Feature","properties":{"n":"Ad. Roberto Chavez","d":"","l":"Pistas chicas","c":"PISTA"},"geometry":{"type":"Point","coordinates":[-72.21499107853171,-38.90701168241656,0.0]}},{"type":"Feature","properties":{"n":"Ad. Tambillos","d":"","l":"Pistas chicas","c":"PISTA"},"geometry":{"type":"Point","coordinates":[-71.24704171719947,-30.19903925711233,0.0]}},{"type":"Feature","properties":{"n":"Ad. Los Morros","d":"","l":"Pistas chicas","c":"PISTA"},"geometry":{"type":"Point","coordinates":[-72.80502326789733,-36.12163498393421,0.0]}},{"type":"Feature","properties":{"n":"Ad. Perales","d":"","l":"Pistas chicas","c":"PISTA"},"geometry":{"type":"Point","coordinates":[-70.59333496084061,-27.35089829986205,0.0]}},{"type":"Feature","properties":{"n":"Ad. Vallenar","d":"","l":"Pistas chicas","c":"PISTA"},"geometry":{"type":"Point","coordinates":[-70.75638141363483,-28.5960406228556,0.0]}},{"type":"Feature","properties":{"n":"Ad. Los Guayes","d":"","l":"Pistas chicas","c":"PISTA"},"geometry":{"type":"Point","coordinates":[-71.99382634139366,-39.05253358304714,0.0]}},{"type":"Feature","properties":{"n":"Ad. La Obra","d":"","l":"Pistas chicas","c":"PISTA"},"geometry":{"type":"Point","coordinates":[-71.32958428534863,-35.29952035053094,0.0]}},{"type":"Feature","properties":{"n":"Ad. Lontuecito","d":"","l":"Pistas chicas","c":"PISTA"},"geometry":{"type":"Point","coordinates":[-71.23599174209907,-35.28217588173242,0.0]}},{"type":"Feature","properties":{"n":"Ad. Los Pelambres","d":"","l":"Pistas chicas","c":"PISTA"},"geometry":{"type":"Point","coordinates":[-70.61715353235222,-31.87034358407399,0.0]}},{"type":"Feature","properties":{"n":"Ad. Lago Colico","d":"","l":"Pistas chicas","c":"PISTA"},"geometry":{"type":"Point","coordinates":[-72.07505320282834,-39.05707641872027,0.0]}},{"type":"Feature","properties":{"n":"Ad. Chan Chan","d":"","l":"Pistas chicas","c":"PISTA"},"geometry":{"type":"Point","coordinates":[-72.1317204409973,-39.86620530346337,0.0]}},{"type":"Feature","properties":{"n":"Ad. Melimoyu","d":"","l":"Pistas chicas","c":"PISTA"},"geometry":{"type":"Point","coordinates":[-73.09635671802141,-44.09784664418984,0.0]}},{"type":"Feature","properties":{"n":"Ad. Molco","d":"","l":"Pistas chicas","c":"PISTA"},"geometry":{"type":"Point","coordinates":[-72.08195670691376,-39.82450594382062,0.0]}},{"type":"Feature","properties":{"n":"Ad. Siberia","d":"","l":"Pistas chicas","c":"PISTA"},"geometry":{"type":"Point","coordinates":[-72.0649366261339,-37.17415393487131,0.0]}},{"type":"Feature","properties":{"n":"Ad. Los Calafates","d":"","l":"Pistas chicas","c":"PISTA"},"geometry":{"type":"Point","coordinates":[-73.8954787863595,-42.67914145239754,0.0]}},{"type":"Feature","properties":{"n":"Ad. La Vertiente","d":"","l":"Pistas chicas","c":"PISTA"},"geometry":{"type":"Point","coordinates":[-72.04198074922637,-36.61295102351015,0.0]}},{"type":"Feature","properties":{"n":"Ad. Fundo El Carmen","d":"","l":"Pistas chicas","c":"PISTA"},"geometry":{"type":"Point","coordinates":[-72.01327469945997,-36.64173083249425,0.0]}},{"type":"Feature","properties":{"n":"Ad. Pedro Villarroel","d":"","l":"Pistas chicas","c":"PISTA"},"geometry":{"type":"Point","coordinates":[-71.07085757500731,-31.22069238027463,0.0]}},{"type":"Feature","properties":{"n":"Ad. Rincon Bonito","d":"","l":"Pistas chicas","c":"PISTA"},"geometry":{"type":"Point","coordinates":[-72.09843248912571,-42.02673806972651,0.0]}},{"type":"Feature","properties":{"n":"Ad. La Pelicana","d":"","l":"Pistas chicas","c":"PISTA"},"geometry":{"type":"Point","coordinates":[-70.95539772993347,-31.06737973571185,0.0]}},{"type":"Feature","properties":{"n":"Ad. Agua Buena","d":"","l":"Pistas chicas","c":"PISTA"},"geometry":{"type":"Point","coordinates":[-72.24979835438327,-37.99403528166883,0.0]}},{"type":"Feature","properties":{"n":"Ad. Pullami","d":"","l":"Pistas chicas","c":"PISTA"},"geometry":{"type":"Point","coordinates":[-71.80827803060541,-36.58718201271851,0.0]}},{"type":"Feature","properties":{"n":"Ad. Torreon","d":"","l":"Pistas chicas","c":"PISTA"},"geometry":{"type":"Point","coordinates":[-72.67979617519343,-36.49949031097611,0.0]}},{"type":"Feature","properties":{"n":"Ad. Valchac","d":"","l":"Pistas chicas","c":"PISTA"},"geometry":{"type":"Point","coordinates":[-72.47082830210124,-47.1059718466068,0.0]}},{"type":"Feature","properties":{"n":"Ad. Los Leones","d":"","l":"Pistas chicas","c":"PISTA"},"geometry":{"type":"Point","coordinates":[-72.81942353499531,-46.76570482926967,0.0]}},{"type":"Feature","properties":{"n":"Ad. Punta Baja","d":"","l":"Pistas chicas","c":"PISTA"},"geometry":{"type":"Point","coordinates":[-72.7961040235725,-46.79305738407692,0.0]}},{"type":"Feature","properties":{"n":"Ad. Chepica","d":"","l":"Pistas chicas","c":"PISTA"},"geometry":{"type":"Point","coordinates":[-71.3240491745336,-34.7387782626865,0.0]}},{"type":"Feature","properties":{"n":"Ad. Chañaral","d":"","l":"Pistas chicas","c":"PISTA"},"geometry":{"type":"Point","coordinates":[-70.60886128546957,-26.33220148664195,0.0]}},{"type":"Feature","properties":{"n":"Ad. Vodudahue","d":"","l":"Pistas chicas","c":"PISTA"},"geometry":{"type":"Point","coordinates":[-72.35061116864894,-42.48926023250517,0.0]}},{"type":"Feature","properties":{"n":"Ad. Tic Toc","d":"","l":"Pistas chicas","c":"PISTA"},"geometry":{"type":"Point","coordinates":[-72.89658938130478,-43.61304243467704,0.0]}},{"type":"Feature","properties":{"n":"Ad. Pillan","d":"","l":"Pistas chicas","c":"PISTA"},"geometry":{"type":"Point","coordinates":[-72.4949744769027,-42.54679719753261,0.0]}},{"type":"Feature","properties":{"n":"Ad. Los Alerces","d":"","l":"Pistas chicas","c":"PISTA"},"geometry":{"type":"Point","coordinates":[-72.65095796261897,-42.78361951699235,0.0]}},{"type":"Feature","properties":{"n":"Ad. El Amarillo","d":"","l":"Pistas chicas","c":"PISTA"},"geometry":{"type":"Point","coordinates":[-72.47844970042989,-43.00624065936427,0.0]}},{"type":"Feature","properties":{"n":"Ad. Chumilden","d":"","l":"Pistas chicas","c":"PISTA"},"geometry":{"type":"Point","coordinates":[-72.81526116574432,-42.52415272727588,0.0]}},{"type":"Feature","properties":{"n":"Ad. Franco Bianco","d":"","l":"Pistas chicas","c":"PISTA"},"geometry":{"type":"Point","coordinates":[-69.33377443690455,-52.73680503686642,0.0]}},{"type":"Feature","properties":{"n":"Ad. Reñihue","d":"","l":"Pistas chicas","c":"PISTA"},"geometry":{"type":"Point","coordinates":[-72.49534125324875,-42.58710139375726,0.0]}},{"type":"Feature","properties":{"n":"Ad. Cerro Castillo","d":"","l":"Pistas chicas","c":"PISTA"},"geometry":{"type":"Point","coordinates":[-72.33778081420009,-51.26054125289155,0.0]}},{"type":"Feature","properties":{"n":"Ad. El Boldo","d":"","l":"Pistas chicas","c":"PISTA"},"geometry":{"type":"Point","coordinates":[-72.22478830952777,-35.97026664888745,0.0]}},{"type":"Feature","properties":{"n":"Ad. Alto Cauquenes","d":"","l":"Pistas chicas","c":"PISTA"},"geometry":{"type":"Point","coordinates":[-72.32744401649353,-35.88192558307803,0.0]}},{"type":"Feature","properties":{"n":"Ad. Viñamar","d":"","l":"Pistas chicas","c":"PISTA"},"geometry":{"type":"Point","coordinates":[-71.35437532898149,-33.3574249483579,0.0]}},{"type":"Feature","properties":{"n":"Ad. Santa Rita","d":"","l":"Pistas chicas","c":"PISTA"},"geometry":{"type":"Point","coordinates":[-71.45555388580895,-33.27637922734454,0.0]}},{"type":"Feature","properties":{"n":"Ad. El Tapihue","d":"","l":"Pistas chicas","c":"PISTA"},"geometry":{"type":"Point","coordinates":[-71.33196747655987,-33.32028735560778,0.0]}},{"type":"Feature","properties":{"n":"Ad. El Rosario","d":"","l":"Pistas chicas","c":"PISTA"},"geometry":{"type":"Point","coordinates":[-71.40618076185042,-33.48872125636547,0.0]}},{"type":"Feature","properties":{"n":"Ad. Las Misiones","d":"","l":"Pistas chicas","c":"PISTA"},"geometry":{"type":"Point","coordinates":[-73.38402086753119,-37.77662640802524,0.0]}},{"type":"Feature","properties":{"n":"Ad. El Algarrobo","d":"","l":"Pistas chicas","c":"PISTA"},"geometry":{"type":"Point","coordinates":[-70.99294403876985,-32.47239646875402,0.0]}},{"type":"Feature","properties":{"n":"Ad. Enrique Meyer","d":"","l":"Pistas chicas","c":"PISTA"},"geometry":{"type":"Point","coordinates":[-73.53261635396268,-47.78693850294301,0.0]}},{"type":"Feature","properties":{"n":"Ad. Punta Gaviota","d":"","l":"Pistas chicas","c":"PISTA"},"geometry":{"type":"Point","coordinates":[-71.46667952032324,-29.0834420769598,0.0]}},{"type":"Feature","properties":{"n":"Ad. Caldera","d":"","l":"Pistas chicas","c":"PISTA"},"geometry":{"type":"Point","coordinates":[-70.79569255498134,-27.07791569074008,0.0]}},{"type":"Feature","properties":{"n":"Ad. Rucamalen","d":"","l":"Pistas chicas","c":"PISTA"},"geometry":{"type":"Point","coordinates":[-72.16666426312736,-36.8094890458345,0.0]}},{"type":"Feature","properties":{"n":"Ad. Bahia Posesion","d":"","l":"Pistas chicas","c":"PISTA"},"geometry":{"type":"Point","coordinates":[-68.93425447992044,-52.29243507381528,0.0]}},{"type":"Feature","properties":{"n":"Ad. El Litral","d":"","l":"Pistas chicas","c":"PISTA"},"geometry":{"type":"Point","coordinates":[-72.41730679716751,-36.79698350349172,0.0]}},{"type":"Feature","properties":{"n":"Ad. Bahia Inutil","d":"","l":"Pistas chicas","c":"PISTA"},"geometry":{"type":"Point","coordinates":[-68.80899929308833,-54.04998698992464,0.0]}},{"type":"Feature","properties":{"n":"Ad. Quitralco","d":"","l":"Pistas chicas","c":"PISTA"},"geometry":{"type":"Point","coordinates":[-73.22456996382003,-45.5802030181692,0.0]}},{"type":"Feature","properties":{"n":"Ad. Rio Explotadores","d":"","l":"Pistas chicas","c":"PISTA"},"geometry":{"type":"Point","coordinates":[-73.32685315759761,-46.35376536958216,0.0]}},{"type":"Feature","properties":{"n":"Ad. Paranal","d":"","l":"Pistas chicas","c":"PISTA"},"geometry":{"type":"Point","coordinates":[-70.34898944488647,-24.63950922644613,0.0]}},{"type":"Feature","properties":{"n":"Ad. La Playa","d":"","l":"Pistas chicas","c":"PISTA"},"geometry":{"type":"Point","coordinates":[-73.23338013968339,-37.21665942582602,0.0]}},{"type":"Feature","properties":{"n":"Ad. Angol","d":"","l":"Pistas chicas","c":"PISTA"},"geometry":{"type":"Point","coordinates":[-72.68748073276646,-37.79391216725694,0.0]}},{"type":"Feature","properties":{"n":"Ad. Aguas Blancas","d":"","l":"Pistas chicas","c":"PISTA"},"geometry":{"type":"Point","coordinates":[-69.84653115483191,-24.12282714428774,0.0]}},{"type":"Feature","properties":{"n":"Ad. Melinka","d":"","l":"Pistas chicas","c":"PISTA"},"geometry":{"type":"Point","coordinates":[-73.73825093156594,-43.89482615856269,0.0]}},{"type":"Feature","properties":{"n":"Ad. Entrada Baker","d":"","l":"Pistas chicas","c":"PISTA"},"geometry":{"type":"Point","coordinates":[-71.99403742067139,-47.16637056900161,0.0]}},{"type":"Feature","properties":{"n":"Ad. Ing. Ibañez","d":"","l":"Pistas chicas","c":"PISTA"},"geometry":{"type":"Point","coordinates":[-71.94989100830153,-46.29366508730166,0.0]}},{"type":"Feature","properties":{"n":"Ad. San Rafael","d":"","l":"Pistas chicas","c":"PISTA"},"geometry":{"type":"Point","coordinates":[-73.86141493837516,-46.63877279661242,0.0]}},{"type":"Feature","properties":{"n":"Ad. Pto. Marin","d":"","l":"Pistas chicas","c":"PISTA"},"geometry":{"type":"Point","coordinates":[-72.95369416670766,-43.78649195670393,0.0]}},{"type":"Feature","properties":{"n":"Ad. Futaleufu","d":"","l":"Pistas chicas","c":"PISTA"},"geometry":{"type":"Point","coordinates":[-71.85038375347922,-43.18909368460987,0.0]}},{"type":"Feature","properties":{"n":"Ad. Pumalin","d":"","l":"Pistas chicas","c":"PISTA"},"geometry":{"type":"Point","coordinates":[-72.83461263101958,-42.70090310088204,0.0]}},{"type":"Feature","properties":{"n":"Ad. Talcan","d":"","l":"Pistas chicas","c":"PISTA"},"geometry":{"type":"Point","coordinates":[-72.9660761755973,-42.74423943407061,0.0]}},{"type":"Feature","properties":{"n":"Ad. Quellon","d":"","l":"Pistas chicas","c":"PISTA"},"geometry":{"type":"Point","coordinates":[-73.63442489298491,-43.13597457356455,0.0]}},{"type":"Feature","properties":{"n":"Ad. Queilen","d":"","l":"Pistas chicas","c":"PISTA"},"geometry":{"type":"Point","coordinates":[-73.47542998604993,-42.89674336502117,0.0]}},{"type":"Feature","properties":{"n":"Ad. Butachauques","d":"","l":"Pistas chicas","c":"PISTA"},"geometry":{"type":"Point","coordinates":[-73.14163231407356,-42.30995985615716,0.0]}},{"type":"Feature","properties":{"n":"Ad. Puerto Sur","d":"","l":"Pistas chicas","c":"PISTA"},"geometry":{"type":"Point","coordinates":[-73.50783808818562,-37.02933713595881,0.0]}},{"type":"Feature","properties":{"n":"Ad. Villarica","d":"","l":"Pistas chicas","c":"PISTA"},"geometry":{"type":"Point","coordinates":[-72.2282878268204,-39.31703889127995,0.0]}},{"type":"Feature","properties":{"n":"Ad. Pucon","d":"","l":"Pistas chicas","c":"PISTA"},"geometry":{"type":"Point","coordinates":[-71.91530913370443,-39.29253076109727,0.0]}},{"type":"Feature","properties":{"n":"Ad. Los Pehuenches","d":"","l":"Pistas chicas","c":"PISTA"},"geometry":{"type":"Point","coordinates":[-73.628250103306,-37.65769092536673,0.0]}},{"type":"Feature","properties":{"n":"Ad. Isla Mocha","d":"","l":"Pistas chicas","c":"PISTA"},"geometry":{"type":"Point","coordinates":[-73.86849059929918,-38.38496825751221,0.0]}},{"type":"Feature","properties":{"n":"Ad. Chile Chico","d":"","l":"Pistas chicas","c":"PISTA"},"geometry":{"type":"Point","coordinates":[-71.68656977288336,-46.58305640853571,0.0]}},{"type":"Feature","properties":{"n":"Ad. Alto Palena","d":"","l":"Pistas chicas","c":"PISTA"},"geometry":{"type":"Point","coordinates":[-71.80472564697267,-43.61194229125977,0.0]}},{"type":"Feature","properties":{"n":"Ad. El Cardal (Rio Bueno)","d":"","l":"Pistas chicas","c":"PISTA"},"geometry":{"type":"Point","coordinates":[-72.68477630615234,-40.46744537353515,0.0]}},{"type":"Feature","properties":{"n":"Ad. Pupelde","d":"","l":"Pistas chicas","c":"PISTA"},"geometry":{"type":"Point","coordinates":[-73.79666900634766,-41.90611267089846,0.0]}},{"type":"Feature","properties":{"n":"Ad. Lequecahue","d":"","l":"Pistas chicas","c":"PISTA"},"geometry":{"type":"Point","coordinates":[-73.48984715456211,-38.36203322332882,0.0]}},{"type":"Feature","properties":{"n":"Ad. Las Marias (Valdivia)","d":"","l":"Pistas chicas","c":"PISTA"},"geometry":{"type":"Point","coordinates":[-73.24166870117188,-39.79694366455078,0.0]}},{"type":"Feature","properties":{"n":"Ad. Peumo","d":"","l":"Pistas chicas","c":"PISTA"},"geometry":{"type":"Point","coordinates":[-71.16811498999786,-34.40880316232074,0.0]}},{"type":"Feature","properties":{"n":"Ad. Panguilemo (Talca)","d":"","l":"Pistas chicas","c":"PISTA"},"geometry":{"type":"Point","coordinates":[-71.60138702392578,-35.37833404541015,0.0]}},{"type":"Feature","properties":{"n":"Ad. Gral. Friere (CUricó)","d":"","l":"Pistas chicas","c":"PISTA"},"geometry":{"type":"Point","coordinates":[-71.2161470389071,-34.96581694204691,0.0]}},{"type":"Feature","properties":{"n":"Ad. Maria Dolores (Los Angeles)","d":"","l":"Pistas chicas","c":"PISTA"},"geometry":{"type":"Point","coordinates":[-72.42569504882549,-37.40195484026445,0.0]}},{"type":"Feature","properties":{"n":"Ad. Tongoy (Clausurado)","d":"","l":"Pistas chicas","c":"PISTA"},"geometry":{"type":"Point","coordinates":[-71.48402315679061,-30.26641375824362,0.0]}},{"type":"Feature","properties":{"n":"Ad. Cabo 1 Juan Roman (Puerto Aysen)","d":"","l":"Pistas chicas","c":"PISTA"},"geometry":{"type":"Point","coordinates":[-72.67066447843968,-45.39903387496601,0.0]}},{"type":"Feature","properties":{"n":"Ad. Las Tacas","d":"","l":"Pistas chicas","c":"PISTA"},"geometry":{"type":"Point","coordinates":[-71.36389083189532,-30.09703660025845,0.0]}},{"type":"Feature","properties":{"n":"Ad. Santa Rosa de Tabali (Ovalle)","d":"","l":"Pistas chicas","c":"PISTA"},"geometry":{"type":"Point","coordinates":[-71.40087883934237,-30.67649627870577,0.0]}},{"type":"Feature","properties":{"n":"Ad. Teniente Vidal (Coyhaique)","d":"","l":"Pistas chicas","c":"PISTA"},"geometry":{"type":"Point","coordinates":[-72.10472106933595,-45.59277725219727,0.0]}},{"type":"Feature","properties":{"n":"Ad. Villoslada","d":"","l":"Pistas chicas","c":"PISTA"},"geometry":{"type":"Point","coordinates":[-71.28308288950495,-33.76073624193099,0.0]}},{"type":"Feature","properties":{"n":"Ad. Melipilla","d":"","l":"Pistas chicas","c":"PISTA"},"geometry":{"type":"Point","coordinates":[-71.19340304762858,-33.67637479695593,0.0]}},{"type":"Feature","properties":{"n":"Ad. Cuatro diablos","d":"","l":"Pistas chicas","c":"PISTA"},"geometry":{"type":"Point","coordinates":[-71.11041693039594,-33.6772773822008,0.0]}},{"type":"Feature","properties":{"n":"Ad. El Boco","d":"","l":"Pistas chicas","c":"PISTA"},"geometry":{"type":"Point","coordinates":[-71.24473169261115,-32.8532968801791,0.0]}},{"type":"Feature","properties":{"n":"Ad. Chicureo","d":"","l":"Pistas chicas","c":"PISTA"},"geometry":{"type":"Point","coordinates":[-70.64998517433663,-33.26992417210062,0.0]}},{"type":"Feature","properties":{"n":"Ad. La Victoria Chacabuco","d":"","l":"Pistas chicas","c":"PISTA"},"geometry":{"type":"Point","coordinates":[-70.70749443540035,-33.04870524937041,0.0]}},{"type":"Feature","properties":{"n":"Ad. Victor Lafon (San Felipe)","d":"","l":"Pistas chicas","c":"PISTA"},"geometry":{"type":"Point","coordinates":[-70.70517479133827,-32.74521530940252,0.0]}},{"type":"Feature","properties":{"n":"Ad. San Rafael (Los Andes)","d":"","l":"Pistas chicas","c":"PISTA"},"geometry":{"type":"Point","coordinates":[-70.64743135144973,-32.8147159658575,0.0]}},{"type":"Feature","properties":{"n":"Ad. Olmue","d":"","l":"Pistas chicas","c":"PISTA"},"geometry":{"type":"Point","coordinates":[-71.17194911979391,-32.99712273826024,0.0]}},{"type":"Feature","properties":{"n":"Ad. Unifrutti","d":"","l":"Pistas chicas","c":"PISTA"},"geometry":{"type":"Point","coordinates":[-71.04612959851355,-34.81131808055207,0.0]}},{"type":"Feature","properties":{"n":"Ad. San Fernando","d":"","l":"Pistas chicas","c":"PISTA"},"geometry":{"type":"Point","coordinates":[-70.96842371035795,-34.56647413731833,0.0]}},{"type":"Feature","properties":{"n":"Ad. Almahue","d":"","l":"Pistas chicas","c":"PISTA"},"geometry":{"type":"Point","coordinates":[-71.37199102115055,-34.39864478545578,0.0]}},{"type":"Feature","properties":{"n":"Ad. Las Aguilas","d":"","l":"Pistas chicas","c":"PISTA"},"geometry":{"type":"Point","coordinates":[-71.53178640138948,-34.1693496639731,0.0]}},{"type":"Feature","properties":{"n":"Ad. Marina de Rapel","d":"","l":"Pistas chicas","c":"PISTA"},"geometry":{"type":"Point","coordinates":[-71.45680533422978,-34.15521121710556,0.0]}},{"type":"Feature","properties":{"n":"Ad. Costa del Sol","d":"","l":"Pistas chicas","c":"PISTA"},"geometry":{"type":"Point","coordinates":[-71.52686941660545,-34.12104042807363,0.0]}},{"type":"Feature","properties":{"n":"Ad. Rapelhuapi","d":"","l":"Pistas chicas","c":"PISTA"},"geometry":{"type":"Point","coordinates":[-71.51289676201685,-34.10583403791917,0.0]}},{"type":"Feature","properties":{"n":"Ad. El Almendro","d":"","l":"Pistas chicas","c":"PISTA"},"geometry":{"type":"Point","coordinates":[-71.7921014855315,-35.95932969625438,0.0]}},{"type":"Feature","properties":{"n":"Ad. San Guillermo","d":"","l":"Pistas chicas","c":"PISTA"},"geometry":{"type":"Point","coordinates":[-71.82811812485113,-35.99990179665746,0.0]}},{"type":"Feature","properties":{"n":"Ad Los Maitenes","d":"","l":"Pistas chicas","c":"PISTA"},"geometry":{"type":"Point","coordinates":[-71.74044444177956,-36.03133123337093,0.0]}},{"type":"Feature","properties":{"n":"Ad. Copihue (Retiro)","d":"","l":"Pistas chicas","c":"PISTA"},"geometry":{"type":"Point","coordinates":[-71.78064687681243,-36.07740860832904,0.0]}},{"type":"Feature","properties":{"n":"Ad. Robinson Crusoe","d":"","l":"Pistas chicas","c":"PISTA"},"geometry":{"type":"Point","coordinates":[-78.92862434410462,-33.66643236903747,0.0]}},{"type":"Feature","properties":{"n":"Ad. Ayacara","d":"","l":"Pistas chicas","c":"PISTA"},"geometry":{"type":"Point","coordinates":[-72.78784711790146,-42.30760474156475,0.0]}},{"type":"Feature","properties":{"n":"Ad. Chaiten","d":"","l":"Pistas chicas","c":"PISTA"},"geometry":{"type":"Point","coordinates":[-72.69916534423827,-42.93305587768555,0.0]}},{"type":"Feature","properties":{"n":"Ad. Rodelillo","d":"","l":"Pistas chicas","c":"PISTA"},"geometry":{"type":"Point","coordinates":[-71.55395056131766,-33.06890262372444,0.0]}},{"type":"Feature","properties":{"n":"Ad. San Geronimo","d":"","l":"Pistas chicas","c":"PISTA"},"geometry":{"type":"Point","coordinates":[-71.62589257545457,-33.35336836970927,0.0]}},{"type":"Feature","properties":{"n":"Ad. Curacavi","d":"","l":"Pistas chicas","c":"PISTA"},"geometry":{"type":"Point","coordinates":[-71.16585345713192,-33.41269644511087,0.0]}},{"type":"Feature","properties":{"n":"Ad. Lipangui (ULM)","d":"","l":"Pistas chicas","c":"PISTA"},"geometry":{"type":"Point","coordinates":[-70.85100470096471,-33.33686116068122,0.0]}},{"type":"Feature","properties":{"n":"Ad. Alhue","d":"","l":"Pistas chicas","c":"PISTA"},"geometry":{"type":"Point","coordinates":[-71.25259046931342,-34.05997116030427,0.0]}},{"type":"Feature","properties":{"n":"Ad. Santa Teresa del Almendral","d":"","l":"Pistas chicas","c":"PISTA"},"geometry":{"type":"Point","coordinates":[-71.26235357702619,-33.57446143841511,0.0]}},{"type":"Feature","properties":{"n":"Ad Tolquien - Achao","d":"","l":"Pistas chicas","c":"PISTA"},"geometry":{"type":"Point","coordinates":[-73.52479652914275,-42.45021154800642,0.0]}},{"type":"Feature","properties":{"n":"Ad. Vitacura","d":"","l":"Pistas chicas","c":"PISTA"},"geometry":{"type":"Point","coordinates":[-70.58172538079549,-33.38155873037476,0.0]}},{"type":"Feature","properties":{"n":"Ad Lago Vargas - Cochrane","d":"","l":"Pistas chicas","c":"PISTA"},"geometry":{"type":"Point","coordinates":[-73.07088706429077,-47.67907119833664,0.0]}},{"type":"Feature","properties":{"n":"Ad. Contao","d":"","l":"Pistas chicas","c":"PISTA"},"geometry":{"type":"Point","coordinates":[-72.72213407525065,-41.80018813412478,0.0]}},{"type":"Feature","properties":{"n":"Ad. Quivolgo","d":"","l":"Pistas chicas","c":"PISTA"},"geometry":{"type":"Point","coordinates":[-72.39280017366437,-35.30864204186076,0.0]}},{"type":"Feature","properties":{"n":"Ad. Guardia Marina Zañartu","d":"","l":"Pistas chicas","c":"PISTA"},"geometry":{"type":"Point","coordinates":[-67.62625122070312,-54.93108367919921,0.0]}},{"type":"Feature","properties":{"n":"Ad. Marcel Marchant (La Paloma)","d":"","l":"Pistas chicas","c":"PISTA"},"geometry":{"type":"Point","coordinates":[-72.91826756711396,-41.45492204315644,0.0]}},{"type":"Feature","properties":{"n":"Ad. Cochrane","d":"","l":"Pistas chicas","c":"PISTA"},"geometry":{"type":"Point","coordinates":[-72.58710692252717,-47.24342783362948,0.0]}},{"type":"Feature","properties":{"n":"Ad. El Buitre","d":"","l":"Pistas chicas","c":"PISTA"},"geometry":{"type":"Point","coordinates":[-70.28873788719251,-18.50865464881838,0.0]}},{"type":"Feature","properties":{"n":"Ad. Viña del Mar","d":"","l":"Pistas chicas","c":"PISTA"},"geometry":{"type":"Point","coordinates":[-71.47926017027795,-32.9501110547457,0.0]}},{"type":"Feature","properties":{"n":"Ad. Pisagua","d":"","l":"Pistas chicas","c":"PISTA"},"geometry":{"type":"Point","coordinates":[-69.91180815546707,-19.62414804245828,0.0]}},{"type":"Feature","properties":{"n":"Ad. Pedro de Valdivia","d":"","l":"Pistas chicas","c":"PISTA"},"geometry":{"type":"Point","coordinates":[-69.66840548229584,-22.57378340170921,0.0]}},{"type":"Feature","properties":{"n":"Ad. Santa Barbara (Chaiten provisoria)","d":"","l":"Pistas chicas","c":"PISTA"},"geometry":{"type":"Point","coordinates":[-72.794512735344,-42.84817966143456,0.0]}},{"type":"Feature","properties":{"n":"Pista desconocida","d":"","l":"Pistas chicas","c":"PISTA"},"geometry":{"type":"Point","coordinates":[-72.13824353726389,-37.47095529225101,0.0]}},{"type":"Feature","properties":{"n":"Pista desconocida","d":"","l":"Pistas chicas","c":"PISTA"},"geometry":{"type":"Point","coordinates":[-70.08807467127049,-29.2597360602862,0.0]}},{"type":"Feature","properties":{"n":"Ad. El Peral (SCUU)","d":"","l":"Pistas chicas","c":"PISTA"},"geometry":{"type":"Point","coordinates":[-71.24328815855624,-31.65356367740893,0.0]}},{"type":"Feature","properties":{"n":"Pista desconocida","d":"","l":"Pistas chicas","c":"PISTA"},"geometry":{"type":"Point","coordinates":[-73.35154199863156,-37.42561587816392,0.0]}},{"type":"Feature","properties":{"n":"Ad. Bellavista de Punitaqui (SCUN)","d":"","l":"Pistas chicas","c":"PISTA"},"geometry":{"type":"Point","coordinates":[-71.35175083891885,-31.00862913588265,0.0]}},{"type":"Feature","properties":{"n":"Ad. Malargue (Arg)","d":"","l":"Pistas chicas","c":"PISTA"},"geometry":{"type":"Point","coordinates":[-69.5730738961943,-35.49520469324472,0.0]}},{"type":"Feature","properties":{"n":"Ad. Tilama (SCLA)","d":"","l":"Pistas chicas","c":"PISTA"},"geometry":{"type":"Point","coordinates":[-71.17098064880902,-32.07996345950824,0.0]}},{"type":"Feature","properties":{"n":"Ad. Eulogio Sánchez","d":"","l":"Pistas chicas (#2)","c":"PISTA"},"geometry":{"type":"Point","coordinates":[-70.54680555555555,-33.45656111111111,0.0]}},{"type":"Feature","properties":{"n":"Ad. Las Brujas (Salamanca)","d":"","l":"Pistas chicas (#2)","c":"PISTA"},"geometry":{"type":"Point","coordinates":[-71.01440105008946,-31.78589877017533,0.0]}},{"type":"Feature","properties":{"n":"Ad. Bellavista (Rio Claro)","d":"","l":"Pistas chicas (#2)","c":"PISTA"},"geometry":{"type":"Point","coordinates":[-71.2961013838989,-35.18623001332482,0.0]}},{"type":"Feature","properties":{"n":"Ad. Rucañanco (Rio Bueno)","d":"","l":"Pistas chicas (#2)","c":"PISTA"},"geometry":{"type":"Point","coordinates":[-72.77285727130793,-40.52105793671056,0.0]}},{"type":"Feature","properties":{"n":"Ad. Curimanque SCKQ  (Pucon)","d":"","l":"Pistas chicas (#2)","c":"PISTA"},"geometry":{"type":"Point","coordinates":[-72.02819658465646,-39.32729302096661,0.0]}},{"type":"Feature","properties":{"n":"Base Aérea FACh Quintero","d":"","l":"Pistas chicas (#2)","c":"PISTA"},"geometry":{"type":"Point","coordinates":[-71.52194491936261,-32.78980646735214,0.0]}},{"type":"Feature","properties":{"n":"Ad. El Sobrante (Petorca)","d":"","l":"Pistas chicas (#2)","c":"PISTA"},"geometry":{"type":"Point","coordinates":[-70.79943764241081,-32.2239670075104,0.0]}},{"type":"Feature","properties":{"n":"Ad. Viña San Pedro (Molina)","d":"","l":"Pistas chicas (#2)","c":"PISTA"},"geometry":{"type":"Point","coordinates":[-71.3295055500235,-35.10655220412779,0.0]}},{"type":"Feature","properties":{"n":"Ad. Melipeuco","d":"","l":"Pistas chicas (#2)","c":"PISTA"},"geometry":{"type":"Point","coordinates":[-71.81400110802926,-38.85621259471803,0.0]}},{"type":"Feature","properties":{"n":"Ad. Hacienda Lipangue","d":"","l":"Pistas chicas (#2)","c":"PISTA"},"geometry":{"type":"Point","coordinates":[-70.91205484502129,-33.33402890524242,0.0]}},{"type":"Feature","properties":{"n":"Ad. El Alba","d":"","l":"Pistas chicas (#2)","c":"PISTA"},"geometry":{"type":"Point","coordinates":[-71.290541913988,-33.65873126362061,0.0]}},{"type":"Feature","properties":{"n":"Ad. Loma Larga","d":"","l":"Pistas chicas (#2)","c":"PISTA"},"geometry":{"type":"Point","coordinates":[-71.37768069691475,-33.27905031708582,0.0]}},{"type":"Feature","properties":{"n":"Ad. La Escondida","d":"","l":"Pistas chicas (#2)","c":"PISTA"},"geometry":{"type":"Point","coordinates":[-69.13154854386316,-24.29372764250494,0.0]}},{"type":"Feature","properties":{"n":"Pista 3 Quebradas de Empresa Barik","d":"","l":"Pistas chicas (#2)","c":"PISTA"},"geometry":{"type":"Point","coordinates":[-70.08807467127049,-29.2597360602862,0.0]}},{"type":"Feature","properties":{"n":"Pista Patagual","d":"","l":"Pistas chicas (#3)","c":"PISTA"},"geometry":{"type":"Point","coordinates":[-72.98311572175417,-37.02493427027707,0.0]}},{"type":"Feature","properties":{"n":"Colchane Pista","d":"","l":"Pistas chicas (#3)","c":"PISTA"},"geometry":{"type":"Point","coordinates":[-68.63135080496423,-19.27623262347415,0.0]}},{"type":"Feature","properties":{"n":"Chufquen (Traiguen) SCHF","d":"","l":"Pistas chicas (#3)","c":"PISTA"},"geometry":{"type":"Point","coordinates":[-72.6834838858361,-38.35987674212137,0.0]}},{"type":"Feature","properties":{"n":"Ad. Santos Dumont (ULM)","d":"","l":"Pistas chicas (#3)","c":"PISTA"},"geometry":{"type":"Point","coordinates":[-70.88013529619982,-33.02845181816897,0.0]}},{"type":"Feature","properties":{"n":"Ad. Traiguen","d":"","l":"Pistas chicas (#3)","c":"PISTA"},"geometry":{"type":"Point","coordinates":[-72.66166019154073,-38.27079961589907,0.0]}},{"type":"Feature","properties":{"n":"Ad. Marco Davison Bascur (Pta. Arenas)","d":"","l":"Pistas chicas (#3)","c":"PISTA"},"geometry":{"type":"Point","coordinates":[-70.74981534351264,-52.88046512628284,0.0]}},{"type":"Feature","properties":{"n":"Ad. Pichidangui","d":"","l":"Pistas chicas (#3)","c":"PISTA"},"geometry":{"type":"Point","coordinates":[-71.50824992411,-32.14638323608536,0.0]}},{"type":"Feature","properties":{"n":"Ad. Del Bio Bio","d":"","l":"Pistas chicas (#3)","c":"PISTA"},"geometry":{"type":"Point","coordinates":[-72.50382989301718,-37.58729916925886,0.0]}},{"type":"Feature","properties":{"n":"Ad. Poco a Poco (Mulchen)","d":"","l":"Pistas chicas (#3)","c":"PISTA"},"geometry":{"type":"Point","coordinates":[-72.00964513432872,-37.84743923712361,0.0]}},{"type":"Feature","properties":{"n":"Ad. Cacique Blanco","d":"","l":"Pistas chicas (#3)","c":"PISTA"},"geometry":{"type":"Point","coordinates":[-71.85234652264569,-44.23000241755034,0.0]}},{"type":"Feature","properties":{"n":"Ad. Viña Tarapaca","d":"","l":"Pistas chicas (#3)","c":"PISTA"},"geometry":{"type":"Point","coordinates":[-70.92186226903401,-33.76699361776066,0.0]}},{"type":"Feature","properties":{"n":"Ad. Gran Cañon","d":"","l":"Pistas chicas (#3)","c":"PISTA"},"geometry":{"type":"Point","coordinates":[-71.14643169562694,-28.09977248414061,0.0]}},{"type":"Feature","properties":{"n":"Ad. Cochamo","d":"","l":"Pistas chicas (#3)","c":"PISTA"},"geometry":{"type":"Point","coordinates":[-72.30755985575237,-41.48271123776645,0.0]}},{"type":"Feature","properties":{"n":"Ad. Laja","d":"","l":"Pistas chicas (#3)","c":"PISTA"},"geometry":{"type":"Point","coordinates":[-72.7025953384867,-37.27073162438388,0.0]}},{"type":"Feature","properties":{"n":"Ad. Apiao","d":"","l":"Pistas chicas (#3)","c":"PISTA"},"geometry":{"type":"Point","coordinates":[-73.22328256047382,-42.59357582336354,0.0]}},{"type":"Feature","properties":{"n":"Ad. Quenac","d":"","l":"Pistas chicas (#3)","c":"PISTA"},"geometry":{"type":"Point","coordinates":[-73.33603951858892,-42.46736730980795,0.0]}},{"type":"Feature","properties":{"n":"Ad. Gamboa","d":"","l":"Pistas chicas (#3)","c":"PISTA"},"geometry":{"type":"Point","coordinates":[-73.77444458007812,-42.49083328247071,0.0]}},{"type":"Feature","properties":{"n":"Ad. El Tuqui (Ovalle)","d":"","l":"Pistas chicas (#3)","c":"PISTA"},"geometry":{"type":"Point","coordinates":[-71.17631901750724,-30.55976099384176,0.0]}},{"type":"Feature","properties":{"n":"Pista desconocida","d":"","l":"Pistas chicas (#3)","c":"PISTA"},"geometry":{"type":"Point","coordinates":[-70.85462559876987,-33.77086589581449,0.0]}}]}
