{"type":"FeatureCollection","features":[{"type":"Feature","properties":{"n":"ZONA RESTRINGIDA SC R74","d":"Establécese la siguiente Zona Restringida SC-R74 para el vuelo de aeronaves, tanto\ntripuladas como pilotadas a distancia (RPAS), según se detalla:\nLimites Laterales: círculo de 500 m (0.3 NM) de radio, centrado en las siguientes coordenadas\ngeográfica: 22o 26’ 58” S / 68o 54’ 38” W\nLímites Verticales: 1000 FT AGL (8500 FT altitud)\nGND\nHORARIO:\n\nPermanente\nSITUACIONES ESPECIALES:\nLa administración de esta Zona Restringida, se efectuará desde la I División de Ejército,\nteléfono de contacto +56 954100569.","l":"ZONA RESTRINGIDA SC R74 .kmz","c":"R"},"geometry":{"type":"LineString","coordinates":[[-68.91501562123872,-22.44652079695409,354.0],[-68.91366473399864,-22.44528335444932,354.0],[-68.91193731384617,-22.4445477497165,354.0],[-68.90956847579056,-22.4444624835847,354.0],[-68.90778439108077,-22.44507169195559,354.0],[-68.90604453171782,-22.44655994951888,354.0],[-68.90524951214502,-22.44815689129218,354.0],[-68.90509363055692,-22.44990885332617,354.0],[-68.90559572532597,-22.45160437492633,354.0],[-68.90704926600839,-22.45333530626512,354.0],[-68.90915834753731,-22.45433600733656,354.0],[-68.91105412575449,-22.45447903181843,354.0],[-68.9133109004839,-22.45380770702361,354.0],[-68.9147604570158,-22.45266954365592,354.0],[-68.91584194104902,-22.45071974568933,354.0],[-68.91593011525705,-22.44853020459052,354.0],[-68.91501562123872,-22.44652079695409,354.0]]}},{"type":"Feature","properties":{"n":"SC-R53 FIR ANTOFAGASTA","d":"SC-R53 FIR ANTOFAGASTA\n\n Espacio aéreo comprendido en: \n\n20 38 00 S 70 13 00 W \n20 38 00 S 70 02 00 W \n20 50 00 S 70 02 00 W \n20 50 00 S 70 15 00 W \n\nFL 75 GND\n\nActivación zona en coordinación con \nActivation area in coordination with\n\nIquique Radar 122.7 primaria o 124.9 MHz secundaria y/o Iquique TWR 118.9 MHz.","l":"REGION INFORMACIÓN DE VUELO.kmz","c":"R"},"geometry":{"type":"Polygon","coordinates":[[[-70.21995380337502,-20.63285828387365,2286.000000000001],[-70.2610339971874,-20.83472033961255,2286.000000000001],[-70.03325071726556,-20.8334717880731,2286.000000000001],[-70.0331138626903,-20.63368484086558,2286.000000000001],[-70.21995380337502,-20.63285828387365,2286.000000000001]]]}},{"type":"Feature","properties":{"n":"SC - R54 FIR ANTOFAGASTA","d":"SC - R54 FIR ANTOFAGASTA \nEspacio aéreo/Airspace: \n20 35 00 S 70 12 30 W \n20 35 00 S 70 02 00 W\n20 38 00 S 70 02 00 W \n20 38 00 S 70 13 00 W \n\nFL 75 GND\t\nActivación coordinación con  \nActivation coordination with\n\nTWR y/o APP Iquique Ejercicios de Tiro / Firing exercises \n\n• RDL 190° DME 13 IQQ \n• RDL 190° DME 16 IQQ","l":"REGION INFORMACIÓN DE VUELO.kmz","c":"R"},"geometry":{"type":"Polygon","coordinates":[[[-70.0332710697286,-20.63321754780552,2286.000000000001],[-70.03332127202053,-20.58332939139473,2286.000000000001],[-70.20897785242772,-20.58321559114711,2286.000000000001],[-70.21792214199729,-20.63429733260633,2286.000000000001],[-70.0332710697286,-20.63321754780552,2286.000000000001]]]}},{"type":"Feature","properties":{"n":"SC-R18 FIR PUNTA ARENAS Isla Magdalena","d":"","l":"REGION INFORMACIÓN DE VUELO.kmz","c":"R"},"geometry":{"type":"LineString","coordinates":[[-70.56723423241111,-52.93252375426029,-0.06394742263764865],[-70.57435907982483,-52.93195814713506,2.062032272352354e-06],[-70.58099785347123,-52.93029991354872,-0.2584898637457708],[-70.58669774615049,-52.92766217574317,-0.7596680899381414],[-70.59107017873126,-52.92422485009652,-2.719198916903186],[-70.59381731884952,-52.92022234349669,-6.507148863866212],[-70.59433608074654,-52.91880898296998,-8.384841962192088],[-70.59475233954936,-52.91592753632303,-15.15879471116307],[-70.59464670954897,-52.91448138192266,-18.85243512949719],[-70.59381204759768,-52.91163315498713,-24.35551784501666],[-70.59217007030709,-52.90891558306269,-26.72196211182166],[-70.58977079470927,-52.90641120615676,-26.99944723770712],[-70.58491734248604,-52.90321839630061,-25.31817587648143],[-70.57885985218601,-52.90089174633782,-21.23488763828825],[-70.57201090124434,-52.89958966477384,-17.05523833417331],[-70.56483678807878,-52.89940079214018,-12.27261619793275],[-70.55782587407933,-52.90033798548613,-8.082775333301255],[-70.5514554477709,-52.90233744601986,-6.514343573461948],[-70.5461593305123,-52.90526304832708,-5.681843927258322],[-70.54229839603721,-52.90891558109572,-3.824591186939663],[-70.54013599045653,-52.91304627922549,-1.63593391013927],[-70.53971612527401,-52.91592753415242,-1.024543566285629],[-70.53981992426921,-52.91737373684955,-0.6722253893626694],[-70.54065114504193,-52.9202223413999,-0.7543805605057667],[-70.54137227993286,-52.92160305936368,-0.9666786537923172],[-70.54468776149133,-52.92544595608315,-2.464772675797368],[-70.54954073769778,-52.92864040532338,-2.901879387779469],[-70.55560053426115,-52.93096854681335,-0.4970220429458083],[-70.56245395573494,-52.93227157244173,-0.1461263609686544],[-70.56723423241111,-52.93252375426029,-0.06394742263764865]]}},{"type":"Feature","properties":{"n":"Medición del círculo","d":"","l":"ZONA RESTRINGIDA TEMPORAL CAÑETE  ARAUCANIA.kmz","c":"R"},"geometry":{"type":"LineString","coordinates":[[-73.36935894187013,-38.10878249707564,-7.081154781429788e-10],[-73.37598941753177,-38.11460579417285,0.0],[-73.38380540588666,-38.11943423577664,-7.081154781429788e-10],[-73.39256929228499,-38.12312090241166,0.0],[-73.40201448596414,-38.12555359698965,0.0],[-73.41185355702002,-38.12665827558113,0.0],[-73.42178702329454,-38.12640131265754,0.0],[-73.4315125137154,-38.1247905300989,-7.081154781429788e-10],[-73.44073402193402,-38.12187495781247,0.0],[-73.44917096105502,-38.11774333344437,-7.081154781429788e-10],[-73.45656673696989,-38.11252138805052,0.0],[-73.46269657400747,-38.10636800239536,-7.081154781429788e-10],[-73.46522692962299,-38.1029995580441,0.0],[-73.4673743516098,-38.09947035350874,-7.081154781429788e-10],[-73.46912254038511,-38.09580726944584,0.0],[-73.47045824349111,-38.09203820211118,0.0],[-73.4713713548594,-38.08819185050717,0.0],[-73.4718549899139,-38.08429749753834,0.0],[-73.47190553599594,-38.08038478685324,0.0],[-73.47152267778806,-38.07648349708003,-7.081154781429788e-10],[-73.47070939760577,-38.07262331517877,-7.081154781429788e-10],[-73.46947195061946,-38.06883361063561,-7.081154781429788e-10],[-73.4678198152578,-38.06514321221318,-7.081154781429788e-10],[-73.46576561923071,-38.06158018894812,0.0],[-73.4633250417903,-38.05817163705008,-7.081154781429788e-10],[-73.45736197113395,-38.05192024355014,0.0],[-73.45011194013877,-38.04657877033281,0.0],[-73.44607179887103,-38.04430112550289,0.0],[-73.43731465938883,-38.04061843069228,-7.081154781429788e-10],[-73.42787925737865,-38.03818856022491,0.0],[-73.42299609435905,-38.03746802035906,-7.081154781429788e-10],[-73.41308406032299,-38.03704305940452,-7.081154781429788e-10],[-73.40322875831147,-38.03797936913097,0.0],[-73.3984161085325,-38.03895072387909,0.0],[-73.38920336731458,-38.04186299145304,0.0],[-73.38077179457886,-38.04599033030651,0.0],[-73.37693006864865,-38.04847186624936,0.0],[-73.37014063697133,-38.05417651763675,0.0],[-73.36471132411805,-38.06072261374523,0.0],[-73.36256008720687,-38.06424994852704,0.0],[-73.36080731649552,-38.06791145196111,-7.081154781429788e-10],[-73.35946640366153,-38.07167927581814,0.0],[-73.35854761306805,-38.07552475887809,0.0],[-73.35805800185133,-38.0794186446266,0.0],[-73.3580013642523,-38.08333130361139,0.0],[-73.35837820067576,-38.08723295877516,-7.081154781429788e-10],[-73.35918571177467,-38.09109391205564,-7.081154781429788e-10],[-73.36041781766906,-38.09488477052881,-7.081154781429788e-10],[-73.3620652022164,-38.09857667037053,0.0],[-73.3641153820578,-38.1021414969244,0.0],[-73.36655279997098,-38.10555209918886,0.0],[-73.36935894187013,-38.10878249707564,-7.081154781429788e-10]]}},{"type":"Feature","properties":{"n":"ZONA RESTRINGIDA TEMPORAL ARAUCANIA","d":"Establécese la siguiente Zona Restringida Temporal, para el vuelo de RPAs, según se detalla:\nLimites Laterales: círculo de 2.7 millas náuticas de radio, centrado en coordenadas geográficas\n38 04 56 S / 73 24 55 W.\nDE GND A 5000 FT AGL","l":"ZONA RESTRINGIDA TEMPORAL CAÑETE  ARAUCANIA.kmz","c":"R"},"geometry":{"type":"LineString","coordinates":[[-73.40392786648472,-38.10349488763641,0.0],[-73.40913428723664,-38.10464411899964,0.0],[-73.41451530745016,-38.10506422936073,0.0],[-73.42255597623759,-38.10430551568979,0.0],[-73.427658122096,-38.10289621910056,0.0],[-73.43237150380665,-38.10081096095278,0.0],[-73.43655282201287,-38.09811315592937,0.0],[-73.44007499656087,-38.09488483886466,0.0],[-73.44283103161878,-38.09122416456964,0.0],[-73.44473726372487,-38.08724241779939,0.0],[-73.44573589444217,-38.08306062513522,0.0],[-73.44579673181126,-38.07880587254309,0.0],[-73.44491808947306,-38.0746074411101,0.0],[-73.44312681834721,-38.07059287870752,0.0],[-73.44047747226317,-38.06688412695867,0.0],[-73.4370506351254,-38.06359382089162,0.0],[-73.43295046227111,-38.06082187312808,0.0],[-73.42581482871007,-38.05781503215758,0.0],[-73.41793433750938,-38.05636430291305,0.0],[-73.40984555662806,-38.05656845777244,0.0],[-73.40209919446498,-38.05841359727167,0.0],[-73.39738771977595,-38.06049769944632,0.0],[-73.39320715650746,-38.06319416380895,0.0],[-73.391356389455,-38.06474711001571,0.0],[-73.38820421165951,-38.06820346562466,0.0],[-73.38586200898334,-38.07203820045579,0.0],[-73.38501794407433,-38.07406141878779,0.0],[-73.38401603977624,-38.07824270800715,0.0],[-73.3839516848991,-38.08249742852081,0.0],[-73.38427287083574,-38.08461190696609,0.0],[-73.3856098649739,-38.08873475024414,0.0],[-73.38783636427033,-38.09261218995573,0.0],[-73.38926307752571,-38.09442166057629,0.0],[-73.39268926799441,-38.09771331574134,0.0],[-73.3967900331384,-38.10048661643492,0.0],[-73.40392786648472,-38.10349488763641,0.0]]}},{"type":"Feature","properties":{"n":"CUARTA ZONA NAVAL Caseta L M I","d":"Radio de 60 yardas","l":"ARMADA DE CHILE Zonas Restringuidas","c":"R"},"geometry":{"type":"LineString","coordinates":[[-70.37467312487871,-18.35230719773911,14.6241486524714],[-70.37530193200848,-18.35267103976782,15.00233726614462],[-70.37568526725174,-18.3520742129744,16.72822129748081],[-70.37505645853824,-18.35171037679609,15.7373931052871],[-70.37467312487871,-18.35230719773911,14.6241486524714]]}},{"type":"Feature","properties":{"n":"Punto centrado Caseta LMI","d":"","l":"ARMADA DE CHILE Zonas Restringuidas","c":"R"},"geometry":{"type":"Point","coordinates":[-70.37517777777776,-18.35219722222222,0.0]}},{"type":"Feature","properties":{"n":"CUARTA ZONA NAVAL Faro Limar","d":"Radio de 60 yardas.","l":"ARMADA DE CHILE Zonas Restringuidas","c":"R"},"geometry":{"type":"LineString","coordinates":[[-70.35890794100071,-18.34957976406199,33.18570361938168],[-70.35834591297699,-18.35004146162939,33.62069316380407],[-70.35883235063054,-18.35057490788548,34.0290646034999],[-70.35939437077694,-18.35011319977925,34.5530742748615],[-70.35890794100071,-18.34957976406199,33.18570361938168]]}},{"type":"Feature","properties":{"n":"Punto centrado Faro Limar","d":"","l":"ARMADA DE CHILE Zonas Restringuidas","c":"R"},"geometry":{"type":"Point","coordinates":[-70.35886944444444,-18.35008333333333,0.0]}},{"type":"Feature","properties":{"n":"CUARTA ZONA NAVAL Antena Morro Gordo","d":"Radio de 60 yardas","l":"ARMADA DE CHILE Zonas Restringuidas","c":"R"},"geometry":{"type":"LineString","coordinates":[[-70.32269201347466,-18.48951327769509,205.8434591807204],[-70.32316122718649,-18.49005791154339,192.4367075782588],[-70.32373548149619,-18.48961289091392,177.246805587819],[-70.32326621222369,-18.48906830108143,192.5970713663883],[-70.32269201347466,-18.48951327769509,205.8434591807204]]}},{"type":"Feature","properties":{"n":"CUARTA ZONA NAVAL Fuerte Condell DIMLYNCH","d":"Cuarta Zona Naval\nFUERTE CONDELL","l":"ARMADA DE CHILE Zonas Restringuidas","c":"R"},"geometry":{"type":"Polygon","coordinates":[[[-70.18169954700531,-20.35993529830668,0.0],[-70.17980776911598,-20.35990734389408,0.0],[-70.17997761550814,-20.36498294550523,0.0],[-70.16934262438346,-20.36534089053596,0.0],[-70.16565079117763,-20.35386619737724,0.0],[-70.15843469469634,-20.34514462216552,0.0],[-70.155000213677,-20.34300571233074,0.0],[-70.15568095364092,-20.34215085766683,0.0],[-70.18169954700531,-20.35993529830668,0.0]]]}},{"type":"Feature","properties":{"n":"CUARTA ZONA NAVAL Base y Muelle Naval Iquique","d":"CUARTA ZONA NAVAL\nBase y Muelle Naval Iquique","l":"ARMADA DE CHILE Zonas Restringuidas","c":"R"},"geometry":{"type":"Polygon","coordinates":[[[-70.1500051369918,-20.20326420270001,0.0],[-70.15041004522723,-20.20703651635226,0.0],[-70.14999893521426,-20.20755912832914,0.0],[-70.14863147200634,-20.20746744406104,0.0],[-70.14434573353576,-20.20533675100442,0.0],[-70.14666622429367,-20.20325075177378,0.0],[-70.1500051369918,-20.20326420270001,0.0]]]}},{"type":"Feature","properties":{"n":"CUARTA ZONA NAVAL RAESNANOR (Alto Hospicio)","d":"CUAERTA ZONA NAVAL \nRAESNANOR","l":"ARMADA DE CHILE Zonas Restringuidas","c":"R"},"geometry":{"type":"LineString","coordinates":[[-70.10370210171267,-20.26062308630603,526.7787171555265],[-70.10516999288635,-20.26225529698058,524.622858588126],[-70.10679225892068,-20.2630422736803,523.5289716204686],[-70.10860362322404,-20.26326121204168,520.0942050068006],[-70.11038555333995,-20.26288569816287,507.3101934443198],[-70.11192306885548,-20.26196103600793,451.0336562217537],[-70.11322335630048,-20.26020820376556,377.2675890207962],[-70.11361342957234,-20.25853443156721,386.3292006743992],[-70.11321153423764,-20.25643246756431,392.033007606215],[-70.11222570308199,-20.25499022886037,448.499081201489],[-70.1103571806216,-20.25377061303256,514.5932226835852],[-70.10857305638854,-20.25340485048864,520.7405818847926],[-70.10633259986568,-20.25378208599163,527.7115323342908],[-70.10447201207674,-20.25501233245534,536.0982755284763],[-70.1034955415837,-20.25646016509566,536.3828065357868],[-70.1031072701044,-20.258564381563,531.9713788943277],[-70.10370210171267,-20.26062308630603,526.7787171555265]]}},{"type":"Feature","properties":{"n":"CUARTA ZONA NAVAL RAESNANOR","d":"CUARTA ZONA NAVAL RAESNANOR\nRadio de 600 yardas","l":"ARMADA DE CHILE Zonas Restringuidas","c":"R"},"geometry":{"type":"Point","coordinates":[-70.10836111111111,-20.25833333333333,0.0]}},{"type":"Feature","properties":{"n":"QUINTA ZONA NAVAL","d":"Comandancia en Jefe y Base Naval de Puerto Montt\n100 metros a la redonda.","l":"ARMADA DE CHILE Zonas Restringuidas","c":"R"},"geometry":{"type":"LineString","coordinates":[[-72.95352245306792,-41.4797663362753,11.99297769217014],[-72.9537930910829,-41.4790341253797,16.69142131642498],[-72.95321838045533,-41.47840814582451,24.03928990146521],[-72.95211188644255,-41.47836500955759,13.16037964808179],[-72.95145356184575,-41.47894291968007,7.760516920428191],[-72.95151824980547,-41.47955587683515,4.823264477925356],[-72.95200127428463,-41.47995748605478,5.435153442709162],[-72.95280830398042,-41.48006931050337,9.505468857346631],[-72.95352245306792,-41.4797663362753,11.99297769217014]]}},{"type":"Feature","properties":{"n":"QUINTA ZONA NAVAL Comandancia en Jefe y Base Naval Puerto Montt","d":"QUINTA ZONA NAVAL\nComandancia en Jefe de la Quinta Zona Naval y Base Naval Puerto Montt\nRadio de 100 metros","l":"ARMADA DE CHILE Zonas Restringuidas","c":"R"},"geometry":{"type":"Point","coordinates":[-72.95261111111111,-41.47918333333334,0.0]}},{"type":"Feature","properties":{"n":"QUINTA ZONA NAVAL Explanada y Muelle Naval Tenglo","d":"QUINTA ZONA NAVAL \nExplanada y Muelle Naval Tenglo\n100 metros a la redonda.","l":"ARMADA DE CHILE Zonas Restringuidas","c":"R"},"geometry":{"type":"Point","coordinates":[-72.98755555555556,-41.49844444444445,0.0]}},{"type":"Feature","properties":{"n":"QUINTA ZONA NAVAL Muelle Naval Tenglo","d":"QUINTA ZONA NAVAL \nMuelle Naval Tenglo","l":"ARMADA DE CHILE Zonas Restringuidas","c":"R"},"geometry":{"type":"LineString","coordinates":[[-72.98868551601176,-41.49815357143804,6.94125729524234],[-72.98817200917594,-41.49767514194647,7.368293884263692],[-72.98726554771619,-41.49757119296412,7.007830484425068],[-72.98652643910276,-41.49797775714056,3.67062383212445],[-72.98636716743614,-41.4985799087105,3.995776276134678],[-72.98693047051826,-41.49921025933902,6.166499436537033],[-72.9878369548005,-41.49931420889899,4.764849621708255],[-72.98857606879692,-41.49890763465896,5.512109756056289],[-72.98868551601176,-41.49815357143804,6.94125729524234]]}},{"type":"Feature","properties":{"n":"PRIMERA ZONA NAVALBase Naval Valparaíso Sector Viña del Mar","d":"PRIMERA ZONA NAVAL\nBase Naval Valparaíso Sector Viña del Mar\nRadio de 2.000 metros.\nLímite superior 1.000 pies","l":"ARMADA DE CHILE Zonas Restringuidas","c":"R"},"geometry":{"type":"LineString","coordinates":[[-71.52382703274121,-32.9930041241838,1000.0],[-71.52539096861335,-32.99750693872267,1000.0],[-71.52718652455967,-33.00025271989869,1000.0],[-71.52952344304279,-33.00269524889715,1000.0],[-71.5323307317781,-33.00476028165319,1000.0],[-71.53552308258895,-33.00638504385972,1000.0],[-71.53900346455774,-33.00752014179113,1000.0],[-71.54266607610823,-33.00813106619903,1000.0],[-71.54639956586205,-33.00819924321259,1000.0],[-71.55009042366878,-33.00772260002973,1000.0],[-71.55362643785189,-33.00671562804968,1000.0],[-71.55690011262541,-33.00520894151095,1000.0],[-71.56110400272333,-33.00211596407836,1000.0],[-71.5633113309616,-32.9995900796023,1000.0],[-71.56496201561262,-32.99678108377086,1000.0],[-71.56600594238023,-32.99377435046326,1000.0],[-71.56637019355088,-32.98909433457384,1000.0],[-71.56580127416903,-32.98599928640568,1000.0],[-71.56460031984095,-32.98303411725378,1000.0],[-71.56280387562947,-32.98028890613547,1000.0],[-71.55911669396373,-32.97676346638048,1000.0],[-71.55610581762093,-32.97491218148148,1000.0],[-71.55275758556985,-32.97352754531836,1000.0],[-71.54917369204156,-32.97265160726427,1000.0],[-71.54359521560825,-32.97234526357619,1000.0],[-71.53811223685419,-32.97326038859563,1000.0],[-71.53469543760593,-32.9745216187774,1000.0],[-71.53018676170996,-32.97729468550713,1000.0],[-71.52772513676982,-32.97964900868737,1000.0],[-71.52578813936684,-32.98232611529816,1000.0],[-71.52443465653657,-32.98524468703765,1000.0],[-71.5237058640881,-32.9883160626537,1000.0],[-71.52382703274121,-32.9930041241838,1000.0]]}},{"type":"Feature","properties":{"n":"PRIMERA ZONA NAVAL Base Naval Valparaíso sector Viña del Mar","d":"PRIMERA ZONA NAVAL \nBase Naval Valparaíso sector Viña del Mar\nRadio de 2.000 metros","l":"ARMADA DE CHILE Zonas Restringuidas","c":"R"},"geometry":{"type":"Point","coordinates":[-71.545,-32.99027777777778,0.0]}},{"type":"Feature","properties":{"n":"SCRM Ad Tte. R. Marsh ANTARTICA","d":"","l":"AERÓDROMOS","c":"R"},"geometry":{"type":"Point","coordinates":[-58.98666666666667,-62.19083333333334,0.0]}},{"type":"Feature","properties":{"n":"SCRA Ad Chañaral CHAÑARAL","d":"","l":"AERÓDROMOS","c":"R"},"geometry":{"type":"Point","coordinates":[-70.60800723196644,-26.33233008069201,0.0]}},{"type":"Feature","properties":{"n":"SCRF Ad Laguna San Rafael LAGUNA SAN RAFAEL","d":"","l":"AERÓDROMOS","c":"R"},"geometry":{"type":"Point","coordinates":[-73.85,-46.63888888888889,0.0]}},{"type":"Feature","properties":{"n":"SCRE Ad. Estancia Río Cisnes RÍO CISNES","d":"","l":"AERÓDROMOS","c":"R"},"geometry":{"type":"Point","coordinates":[-71.32166666666666,-44.5,0.0]}},{"type":"Feature","properties":{"n":"SCRC Ad. Villa Tapera RÍO CISNES","d":"","l":"AERÓDROMOS","c":"R"},"geometry":{"type":"Point","coordinates":[-71.6388888888889,-44.62638888888889,0.0]}},{"type":"Feature","properties":{"n":"SCRI Ad. Río Frío RÍO FRÍO","d":"","l":"AERÓDROMOS","c":"R"},"geometry":{"type":"Point","coordinates":[-71.91166666666668,-41.73972222222222,0.0]}},{"type":"Feature","properties":{"n":"SCRB Ad. Río Bravo TORTEL","d":"","l":"AERÓDROMOS","c":"R"},"geometry":{"type":"Point","coordinates":[-73.1388888888889,-47.98583333333333,0.0]}},{"type":"Feature","properties":{"n":"SCRD Ad. Rodelillo VIÑA","d":"","l":"AERÓDROMOS","c":"R"},"geometry":{"type":"Point","coordinates":[-71.55749999999999,-33.06833333333334,0.0]}},{"type":"Feature","properties":{"n":"SCRG De La Independencia","d":"","l":"Pistas chicas (#2)","c":"R"},"geometry":{"type":"Point","coordinates":[-70.7760964455752,-34.17360718000519,0.0]}},{"type":"Feature","properties":{"n":"Ad. Pintacura (SCRX)","d":"","l":"Pistas chicas (#3)","c":"R"},"geometry":{"type":"Point","coordinates":[-71.26466915061836,-31.68337771417941,0.0]}},{"type":"Feature","properties":{"n":"RESTRINGIDA","d":"","l":"NFZ DJI","c":"R"},"geometry":{"type":"Polygon","coordinates":[[[-70.81118542433587,-33.34533861405055,0.0],[-70.80682418662424,-33.4334179605171,0.0],[-70.7937746984488,-33.43253476883282,0.0],[-70.79862926099756,-33.34449385544474,0.0],[-70.81118542433587,-33.34533861405055,0.0]]]}},{"type":"Feature","properties":{"n":"R2 AMB","d":"","l":"NFZ DJI","c":"R"},"geometry":{"type":"Polygon","coordinates":[[[-70.79040956154806,-33.43182392340059,0.0],[-70.77704890525929,-33.43140300283581,0.0],[-70.78097196149527,-33.3489135178007,0.0],[-70.79504258784713,-33.34948987147747,0.0],[-70.79040956154806,-33.43182392340059,0.0]]]}},{"type":"Feature","properties":{"n":"CS-R72","d":"","l":"REGION INFORMACIÓN DE VUELO (#4)","c":"R"},"geometry":{"type":"Polygon","coordinates":[[[-70.19879680509635,-20.38582388843764,600.0],[-70.15710283705232,-20.38571090734116,600.0],[-70.15184470173007,-20.32513990517639,600.0],[-70.19892040174733,-20.32463632994614,600.0],[-70.19879680509635,-20.38582388843764,600.0]]]}}]}
